{"type":"Topology","arcs":[[[602,22322],[19,-5],[-7,-67],[26,-47],[-101,-127],[-14,11],[-2,-40],[11,-13],[27,29],[94,-59],[-56,-57],[64,-10],[16,33],[92,15],[60,-19],[-1,-34],[9,-30],[-19,-16],[23,-58],[-51,2],[-15,-38],[28,-86],[34,12],[16,-22],[8,31],[42,-36],[23,38],[54,16],[-4,99],[-19,17],[23,25],[92,-38],[22,-72],[49,-15],[12,15],[35,-28],[85,34],[-8,-47],[55,-8],[-51,-110],[-57,-33],[44,-43]],[[1260,21541],[-10,0],[6,-38],[40,-34],[-7,-69],[-37,-16],[-59,3],[-24,63],[-74,-5],[1,33],[-27,36],[-104,3],[-101,-55],[-12,39],[-16,0],[-30,-19],[6,-27],[-30,-36],[-61,20],[-64,-49],[-132,-210],[-39,45]],[[486,21225],[-71,-22],[-27,-39],[3,-45],[-72,208],[16,-24],[-8,44],[34,53],[28,-4],[-55,11],[-11,-59],[-33,95],[43,88],[37,19],[-34,6],[-64,-127],[-180,475],[40,-52],[42,-9],[-33,15],[-24,64],[-10,6],[31,9],[-52,-8],[-8,-10],[9,-9],[-10,8],[-77,203],[9,47],[21,-28],[37,-4],[228,131],[113,20],[8,-28],[20,13],[18,-26],[85,33],[22,26],[-14,36],[42,-47],[19,12],[-6,16]],[[1260,21541],[29,-50],[30,-11],[48,5],[49,47],[87,-12],[-11,-95],[28,-10],[19,-45],[-36,-34],[-3,-29],[38,17],[13,-61],[35,-44],[17,4]],[[1603,21223],[-29,-11],[1,-48],[-40,-13],[-18,-44],[-62,12],[-20,-55],[-24,72],[-57,-10],[-9,-22],[24,-2],[-19,-24],[16,0],[-30,-4],[6,24],[-17,-9],[-11,-79],[-89,13],[11,-36],[25,23],[-11,-32],[-54,8],[-87,77],[-50,-39],[-65,4],[3,-40],[-39,-36],[-69,33],[-16,-32],[51,-63],[-44,-47],[-126,-2],[-45,69],[-57,-24],[-44,13],[-24,-57],[25,-91],[-50,-41]],[[559,20710],[-162,396],[36,-86],[-39,147],[31,35],[61,23]],[[1851,21452],[47,-31],[10,-43],[47,16],[45,-78],[69,12],[3,-37],[-56,-59],[-113,51],[-21,-60],[-59,-9],[-13,-51],[18,-117],[25,-44],[108,-10],[2,-94],[44,-8],[4,-24]],[[2011,20866],[-50,-22],[-51,-120],[-59,11],[-32,-65],[-31,1],[-31,37],[-16,-38],[-37,7],[3,39],[-18,-29],[-35,-1],[-9,39],[-30,1],[-25,-31],[10,-119],[-16,-22],[-46,-3],[-60,-42],[-16,33],[-32,-6],[-13,18],[-55,-37],[-10,-71],[-26,-30],[36,-39],[-9,-62],[-24,-13],[-13,43],[-23,0],[-89,-47],[-20,-123],[-48,-11],[-21,-42],[-22,19],[-24,-24],[-123,9],[28,14],[-7,21],[18,-3],[29,55],[-8,96],[-25,23],[-47,-5],[-73,-56],[8,-37],[-40,-30]],[[829,20204],[-45,117],[-46,16],[-44,109],[-31,22],[-104,242]],[[1603,21223],[27,-9],[35,6],[4,55],[52,18],[49,65],[28,84],[53,10]],[[2469,20879],[34,-168],[-39,-4],[-9,-38],[-89,-36],[-31,37],[-94,-8],[25,-96],[-23,-127],[30,-58],[30,-39],[59,-15],[26,-40],[67,-6],[40,-40],[-15,-83],[-37,-44]],[[2443,20114],[-92,-4],[-88,111],[-51,-16],[3,-30],[-63,51],[-153,-37],[-71,4],[-7,-51],[-54,-26],[42,-48],[-23,-32],[10,-17],[-35,-20],[-59,-182],[-65,-79],[-127,-15],[-15,65],[-35,-26],[-41,30],[-124,-52],[-63,49],[-58,-27],[-47,13],[-38,-44],[12,-19],[-24,-8],[-42,30],[-4,-76],[-68,-62]],[[1063,19596],[-234,608]],[[2011,20866],[45,-11],[36,15],[23,-54],[-8,-52],[26,-39],[-22,-28],[40,-8],[61,7],[56,57],[-18,77],[67,53],[42,-10],[28,20],[26,-30],[56,16]],[[2443,20114],[44,-137],[53,-47],[-79,-84]],[[2461,19846],[-20,13],[-71,-21],[-18,28],[-37,-56],[-51,3],[-28,-43],[-88,-49],[-74,-1],[-39,35],[-98,-25],[-49,-46],[20,-82],[-16,-50],[-163,-69],[-65,-7],[-27,19],[-124,-151],[-140,-8],[67,-117],[16,-95],[24,-33],[-37,-52],[25,-53],[-16,-109],[-32,-8],[-32,27],[-51,-49]],[[1337,18847],[-170,551],[-39,18],[-65,180]],[[2461,19846],[30,-3],[44,34],[134,-23],[42,35],[73,-59],[31,-76]],[[2815,19754],[-78,23],[-44,-51],[-46,-1],[-43,-81],[7,-29],[-39,-41],[-67,-2],[-22,-21],[5,-37],[-20,-10],[-13,62],[-72,40],[-50,7],[-6,19],[-40,-3],[-22,-26],[-6,-41],[31,-27],[-19,-149],[10,-58],[36,-65],[59,17],[-37,-74],[21,-8],[12,-46]],[[2372,19152],[-3,-12]],[[2369,19140],[-105,19],[-13,-55],[-49,-9],[-44,28],[-31,-6],[-26,31],[-71,-15],[-43,-62],[11,-18],[-16,-24],[-113,-41],[-18,-63],[-24,-15],[-59,44],[-69,-25],[-29,33],[-36,-21],[-24,14],[-30,-40],[5,-114],[20,-26],[-21,-36],[37,-100],[-13,-62],[29,-26],[-36,-37],[21,-7]],[[1622,18507],[-31,-51],[-90,-31],[-164,422]],[[2815,19754],[56,-18],[3,-30],[27,-22],[-4,-32],[38,-38],[5,-49],[31,-22],[-4,-31],[56,-43],[-34,-77],[34,8],[9,-30],[47,-17],[13,-51],[68,-55],[32,-71],[28,7],[41,-57],[16,33],[70,-7],[31,19],[79,-38],[9,-50],[22,0],[26,-148],[15,6],[42,-54],[69,-4],[60,62],[59,-14],[-5,-79],[70,-33],[-12,-76]],[[3812,18743],[-163,-138],[16,-35],[-19,-2],[-39,-92],[-39,20]],[[3568,18496],[-55,43],[-12,-30],[-88,-9],[-44,32],[7,38],[-50,-10],[-56,43],[-56,-6],[-58,-46],[19,-24],[-45,-28],[5,-21],[-44,-11],[42,-154],[-60,-82],[-34,35],[24,29],[-8,71],[-34,-4],[-35,-44],[-82,35]],[[2904,18353],[13,53],[65,6],[13,43],[-57,38],[-90,19],[-15,25],[9,51],[-38,10],[-64,-97],[-30,-10],[6,-66],[-14,-17],[-35,11],[-71,79],[-50,-16],[12,20],[-32,78],[32,34],[-2,37],[-56,1],[-2,26],[40,28],[-16,43],[44,115],[-16,19],[4,71],[11,25],[23,-14],[-2,59],[29,11],[30,51],[-35,9],[-44,52],[-19,-31],[-16,31],[-23,-11],[-38,31],[-98,-15]],[[2904,18353],[-34,-13],[15,-42],[-35,-58],[18,-59],[-37,-22],[-10,-69],[-75,10],[-44,-48],[-28,-4]],[[2674,18048],[-13,30],[-56,2],[-21,52],[-20,6],[-35,-28],[-6,-93],[-41,9],[-26,-32]],[[2456,17994],[-14,36],[15,98],[-58,13],[-19,112],[-60,-61],[-26,-1],[32,57],[-14,22],[-23,-2]],[[2289,18268],[7,50],[-32,8],[-149,-59],[12,62],[-33,21],[1,87],[35,-22],[63,18],[-40,64],[8,28],[-32,11],[-10,47],[-29,10],[32,64],[-15,35],[-50,1],[-41,-34],[-82,53],[76,146],[-16,8],[3,68],[74,18],[14,-34],[33,-8],[103,101],[183,67],[-2,37],[-33,25]],[[2289,18268],[-29,-32],[-49,-16],[-13,15],[-16,-65],[-81,15],[-25,-33],[-109,-10]],[[1967,18142],[-59,25],[-180,270],[-106,70]],[[3812,18743],[95,43],[50,-3],[27,31],[146,-2],[76,-26],[-19,-114],[-19,-5],[29,-48],[3,-44],[44,-37],[-5,-32],[59,-50],[-13,-48],[23,-4],[24,-91],[72,-11],[30,-84],[80,-61],[67,-4],[51,-30],[75,10],[70,-35],[50,16]],[[4827,18114],[-18,-43],[-34,0],[-16,-24],[0,-50],[63,-82],[-13,-63],[-25,-40],[-86,-37],[88,-84],[-26,-49],[6,-7],[2,-21],[-4,23],[-11,-4],[-11,4],[-16,-13],[-26,7],[-11,-12],[-77,-5],[-93,31],[-78,-6],[-55,42],[-63,-25],[-39,37],[-53,-13],[-11,-29]],[[4220,17651],[-58,-8],[20,14],[-40,5],[-15,-45],[-39,-16],[-71,51],[-32,-13],[-15,26]],[[3970,17665],[55,53],[-35,25],[-3,53],[-69,-30],[-63,59],[-44,-6],[-31,14],[1,17],[-56,5],[-2,79],[-104,7],[8,44],[30,2],[-5,41],[21,9],[-10,76],[-134,56],[-70,-43],[-2,-57],[-23,-27],[-64,56],[-79,-18],[-41,18],[-3,36],[26,82],[27,13],[-3,36],[92,36],[-4,55],[44,-25],[62,7],[77,158]],[[3970,17665],[-85,-18],[27,-61],[-69,68],[-55,-15],[-16,23],[-29,-2],[5,-16],[-19,16],[-46,-43],[-29,-9],[-18,21],[-29,-15],[20,-38],[-25,21],[-18,-21],[-3,29],[-40,-18],[-13,34],[-11,-25],[-59,-1],[-16,-31],[-143,-52],[-23,51],[-18,-2],[11,29],[-58,-31],[-18,17],[20,64],[-39,-2],[-8,44],[-90,-13],[20,-77],[-16,-27],[-85,33]],[[2995,17598],[-41,144],[22,12],[25,-21],[8,23],[53,10],[-25,61],[18,20],[-114,23],[-56,88],[-72,10],[-31,-35]],[[2782,17933],[-43,0],[-65,115]],[[2456,17994],[-53,-11],[-28,-86],[-31,-30],[9,-18],[-19,-19],[22,-12],[-26,-9],[16,-37],[-26,4],[3,49],[-34,-11],[-28,31],[-75,-92]],[[2186,17753],[-127,169],[-26,1],[4,55],[-77,131],[7,33]],[[4827,18114],[70,-8],[92,-42],[120,-11],[36,49],[56,13],[50,-14],[163,131],[104,7],[83,51],[1,-597],[39,-39]],[[5641,17654],[-38,-45],[-112,-42],[8,-86],[-26,-45],[-27,6],[-19,-41],[9,-33],[58,-10],[38,-39],[79,-14],[4,18],[9,-61],[-27,-75],[54,-27],[-21,-56]],[[5630,17104],[-73,23],[-35,-15],[-22,14],[-26,-21],[-8,-120],[-35,-25],[3,-23],[-49,-17],[-28,-111],[-56,16],[8,17],[-96,65],[-16,-31],[-12,42],[-33,-15],[22,44],[-11,13],[37,-16],[-6,48],[37,4],[8,23],[-19,18],[-107,-31],[-17,-54],[-49,7],[-51,-48],[-27,29],[-58,-89],[-47,38],[-88,-44],[-63,14]],[[4713,16859],[-66,42],[-80,-1],[-33,27],[-12,-14],[-99,7],[-23,20],[1,36],[-63,32],[-96,110],[-87,3],[33,21],[4,28],[-72,39],[22,20],[-3,49],[21,18],[8,59],[-94,60]],[[4074,17415],[116,83],[-38,107],[68,46]],[[2782,17933],[-78,-73],[-43,3],[-42,-30],[-63,-63],[-29,-212],[9,-12],[17,23],[48,3],[17,-16],[-22,-70],[-50,-14],[-2,-24]],[[2544,17448],[-36,19],[-174,214],[-53,13],[-1,-32],[-30,-2],[-51,40],[-13,53]],[[2995,17598],[-17,-57],[30,7],[22,-86],[-41,-57]],[[2989,17405],[-54,-27],[-83,17],[-49,-21],[-40,-46],[17,-18],[-63,-56]],[[2717,17254],[-14,-27],[-65,34],[35,40],[-63,15],[0,35],[-66,97]],[[4074,17415],[-103,6],[-20,-24],[54,-50],[-38,-28],[-50,21],[-1,-27],[-39,-7],[-56,82],[-113,12],[-27,-104],[-74,-40],[-14,-59],[-48,-12],[-90,-100],[-39,8],[-88,-95],[-4,20],[-50,-48],[-35,-3],[25,-19],[-3,-51],[49,-26],[-12,-31]],[[3298,16840],[-58,3],[-82,-62],[-34,32],[8,61]],[[3132,16874],[30,23],[35,127],[-19,57],[-29,12],[5,54],[19,17],[-6,57],[-95,36],[3,48],[-33,-7],[14,109],[-41,-40],[-22,8],[-4,30]],[[6959,17197],[-16,-83],[34,3],[42,-83],[-60,-73],[-25,19],[-23,-36],[25,-7],[15,-56],[-17,-27],[33,-83],[68,-32],[22,-63],[36,-33],[-51,-77],[-117,12],[-84,-22],[-46,-138],[-103,-62],[-65,-11],[-20,43],[-66,-47],[-24,-48],[-25,3],[-36,-30],[-30,97],[-43,-2],[-33,52],[-20,-35],[-42,0],[-139,-125]],[[6149,16253],[-29,-48],[-73,-50],[-68,76],[-61,-13],[-17,21],[-19,92],[-59,65],[10,30],[54,-6],[17,37],[-38,43],[-56,155],[-32,16],[-49,-21],[-28,41],[25,96],[-31,8],[42,71],[-58,4],[-78,55],[-18,-27],[-40,37],[9,71],[78,98]],[[5641,17654],[3,1],[161,98],[28,-16],[125,17],[72,-47],[25,-93],[-14,-70],[58,-98],[105,-30],[152,42],[46,-92],[78,-45],[42,-157],[53,-17],[48,-48],[57,-4],[47,49],[65,-18],[65,52],[33,-20],[69,39]],[[3132,16874],[-47,47],[-40,7]],[[3045,16928],[-38,26],[-24,-29],[-60,62],[-39,77],[-47,12],[-57,69],[-63,109]],[[2986,16947],[29,18],[-23,18],[18,18],[6,-16],[45,-3],[34,31],[2,29],[-57,34],[14,109],[-36,31],[-32,-20],[42,-50],[5,-48],[-6,-21],[-38,-1],[-24,-41],[21,-88]],[[4713,16859],[-55,-59]],[[4658,16800],[-269,-102],[8,-20],[-85,-78],[-43,9],[-41,-24],[-27,-58],[-73,4],[-33,75],[-94,56]],[[4001,16662],[-8,38],[-22,9],[-26,-29],[-23,10],[-2,31],[-28,6],[21,32],[-5,33],[-24,31],[-49,2],[42,56],[-36,13],[-69,-17],[4,-24],[-29,-30],[-77,-10],[33,-27],[-19,-58],[-38,12],[-89,-36],[-2,36],[-63,16],[-3,57],[-75,6],[4,-90],[14,6],[6,-36],[-32,5],[-1,-29],[-19,-1]],[[3386,16674],[-63,40],[-9,60],[18,19],[-30,13],[-4,34]],[[6149,16253],[47,-71],[0,-56],[31,-25],[-5,-52],[-56,0]],[[6166,16049],[-18,7],[-20,-24],[-24,-71],[-108,-14],[-38,-41],[-44,-71],[24,-27],[-5,-26],[-73,-37],[-25,-39],[-96,-32]],[[5739,15674],[-79,76],[-10,34],[-53,12],[-26,31],[-60,0],[-23,24],[27,32],[-13,85],[-65,61],[-88,-86],[-35,-11],[-15,15],[-35,-21],[-23,42],[-64,17],[-170,131]],[[5007,16116],[-101,99],[-2,73],[-24,27],[-193,99],[-36,79]],[[4651,16493],[-18,129],[36,89],[-22,74],[11,15]],[[3386,16674],[38,-31],[-25,-47],[14,-4],[-7,-30],[-93,-72],[18,-32],[55,7],[-2,-61],[-35,-74],[17,-19],[28,6],[6,23],[12,-10],[-50,-89]],[[3362,16241],[-31,-12],[-68,35],[-10,-45]],[[3253,16219],[-107,336],[-136,320],[25,24],[10,29]],[[4001,16662],[-12,-60],[-63,-111],[11,-110],[-179,41],[-61,-139],[-72,-71],[23,-33],[-15,-53],[-47,-56],[-76,-12]],[[3510,16058],[-97,50],[-30,55],[12,49],[-33,29]],[[4651,16493],[-45,-9],[-47,-138],[16,-35],[-93,-127],[-54,14],[-39,-30],[-15,17],[-3,-30],[-63,17],[-16,43],[-26,-19],[-78,-1],[25,-16],[-57,-42],[-31,-60],[35,-11],[-18,-23],[18,-51],[-29,12],[-33,-53],[-22,1],[-17,32],[-57,4],[-21,-25],[-72,-15],[-23,-39],[23,-58],[-16,-52],[42,-55],[-57,-100]],[[3878,15644],[-21,35],[-46,13],[-6,24],[-67,38],[2,31],[-80,65],[-58,99],[-89,34],[-3,75]],[[5007,16116],[-196,-193],[-89,49],[-108,-43],[70,-71],[-40,-133],[39,-61],[-16,-8],[-10,-76],[47,-75],[-74,-4],[-61,-62],[-89,51],[-24,-39]],[[4456,15451],[-50,32],[28,33],[-79,50],[24,68],[-28,15],[-14,-33],[-31,-6],[-32,-65],[-36,1],[-29,-55],[-21,24],[-56,-9],[-2,23],[-29,10],[20,-29],[-22,-125],[18,-41],[-38,-34],[-55,4],[-1,-43],[-24,-19],[-41,7]],[[3958,15259],[-18,39],[35,157],[-21,37],[20,26],[-89,58],[-7,68]],[[3958,15259],[-22,-63],[-46,3]],[[3890,15199],[-74,183],[-157,287],[-25,1],[-49,57],[-76,28],[-60,-30],[-30,56],[-42,19],[2,51],[-126,368]],[[5007,16116],[-147,-242],[1,-34],[-111,-58],[40,-53],[-17,-50],[43,-10],[2,-27],[86,-42],[2,-21],[65,-28],[23,98],[24,22],[78,-46],[8,-40],[-24,-32],[-17,23],[-22,-13],[40,-78],[-30,-31],[12,-35],[-34,-24],[-7,-45],[34,-34],[-57,-28],[-27,9],[12,-62],[-59,-15],[-12,-30],[29,-11],[-25,-16]],[[4917,15163],[-19,7],[-51,-42],[-13,16],[-16,-13],[6,21],[-33,-2],[-20,-57],[-22,-7],[-71,30],[-73,-14],[-5,-20],[-67,-15],[-7,-27]],[[4526,15040],[-55,32],[-20,40],[-44,16],[15,-15],[-13,-2],[-7,21],[-37,6],[-12,62],[-43,-7],[-11,16],[24,32],[35,-17],[60,26],[8,38],[27,14],[-23,88],[22,20],[-12,16],[16,25]],[[5739,15674],[-13,-61],[28,-51],[-18,-46],[-50,36],[-59,-92],[-56,8],[4,-38],[-31,-33],[-9,-62],[21,-74],[-29,-28],[-15,-56],[34,-50],[74,-20]],[[5620,15107],[12,-72],[-24,-42],[-128,-28],[-74,-75],[15,-36],[-50,-22],[-53,-73],[-161,3],[-21,-41],[-59,-27]],[[5077,14694],[-85,67]],[[4992,14761],[7,101],[-54,46],[-29,72],[-35,13],[-8,47],[30,15],[14,108]],[[6166,16049],[46,-54],[12,-68],[-15,-171],[77,62],[50,-20],[40,30],[44,-49],[-17,-17],[14,-20],[52,12],[92,-73],[75,72],[130,-67],[120,-96],[95,34],[-17,-96],[210,-173],[249,-90],[-34,-70],[171,20],[9,-138],[-57,-84],[9,-48],[30,-19],[-88,-63],[-19,-81],[-309,-162],[-15,-131]],[[7120,14489],[-304,116],[-101,20],[-14,-13],[-22,28],[-124,-39],[-18,37],[-34,-6],[-18,-42],[-44,-3],[-21,-31],[-107,-57],[-43,95],[-119,1],[-7,95],[-79,11],[-1,51],[-16,-28],[-39,30]],[[6009,14754],[27,51],[-61,7],[28,55],[5,58],[-28,17],[22,26],[-55,69],[28,11],[22,86],[28,15],[-13,44],[-49,20],[-53,64],[-78,-14],[-77,85],[-27,-5],[-37,-36],[3,-44],[-45,-18],[-15,-104],[-21,-2],[7,-32]],[[4526,15040],[24,-18],[-3,-23],[-10,14],[-43,-17],[-47,-69]],[[4447,14927],[-66,26],[-49,-39],[-29,29],[-37,-7],[-29,55],[-21,3],[-20,7],[-17,-26],[-73,12],[-18,-15],[-40,12],[-30,-27],[-40,9]],[[3978,14966],[-22,60],[-45,19],[-21,154]],[[6009,14754],[-72,-45],[-12,73],[-27,18],[-81,-8],[-27,-47],[-46,19],[-19,-19],[33,-113],[21,0],[23,-55],[44,25],[49,-48],[-22,-65],[-53,-18],[-30,-127]],[[5790,14344],[-71,-20],[-89,74],[-36,-44],[-39,-8],[-10,36],[-20,4],[-22,-14],[15,-44],[-26,-14],[44,-65]],[[5536,14249],[-73,-18],[-78,49],[-16,-21],[-52,40],[13,21],[-38,6],[9,24],[-25,17],[-13,-77],[-23,-26],[-51,29],[-17,-73],[-35,14],[-41,-13],[0,-17],[-39,16],[-16,-37]],[[5041,14183],[-61,30],[19,18],[-5,52],[15,3],[-19,74],[95,-30],[3,71],[57,-16],[2,20],[33,3],[14,47],[-20,26],[34,47],[-66,36],[41,43],[-83,53],[-32,-26],[9,60]],[[4992,14761],[-38,-14],[-46,-62],[-146,-33],[-38,-47],[-73,31],[-18,-63],[-87,-33],[-37,-80],[-40,-12],[-14,16]],[[4455,14464],[-61,2],[-52,-62],[32,71],[-38,-22],[-39,13],[-3,76],[-55,-28]],[[4239,14514],[-12,59],[33,-20],[42,21],[3,67],[25,3],[22,47],[93,7],[-19,76]],[[4426,14774],[57,22],[8,50],[32,21],[-26,-1],[-50,61]],[[4426,14774],[-60,1],[-17,50],[-38,-60],[-83,10],[-3,-63],[-52,-102],[-30,2],[-20,68],[-55,-7]],[[4068,14673],[-90,293]],[[4239,14514],[-24,2],[-22,-40],[-62,-5]],[[4131,14471],[-63,202]],[[5041,14183],[89,-73],[-7,-27],[18,-19],[-27,-48],[38,-71]],[[5152,13945],[-21,-27],[-69,58],[-100,21],[-32,20]],[[4930,14017],[10,78],[-63,18],[-53,109],[-26,-1],[-17,-36],[12,-14],[-42,-23],[-7,41],[-19,-6],[-65,103],[-38,4],[-30,29]],[[4592,14319],[-16,32],[-36,-14],[-8,22],[-60,13],[-20,24],[15,16],[-21,22],[9,30]],[[7120,14489],[-4,-37],[-29,-8]],[[7087,14444],[-145,14],[-21,-111],[44,-63],[-17,-85],[23,-62],[-21,-130],[-62,-19],[-32,-43],[-71,-31],[-67,5],[-64,-47]],[[6654,13872],[-33,24],[-79,-3],[-49,-83],[-74,95],[-53,3],[-7,-23],[-16,3],[-11,58],[17,26],[-21,72],[21,6],[16,77],[-19,18],[-40,-7],[3,76],[-93,-36],[-99,-76],[-32,17],[-102,-5],[-7,93],[38,94],[-63,36],[-9,39],[-30,1],[-58,-43],[-38,-55],[-26,65]],[[4592,14319],[-5,-39],[-23,6],[-27,-39],[-25,41],[-24,-4],[-26,-67],[-31,-19],[40,-87],[-57,29],[-101,-90]],[[4313,14050],[-51,123],[-46,36],[22,32],[-35,17],[-72,213]],[[7087,14444],[-17,-24],[60,1],[28,-58],[68,36],[-5,69],[120,13],[50,0],[27,-36],[81,-37],[299,47],[129,-60],[218,134],[33,64],[57,27],[41,-7],[64,-65],[19,4],[1,-33],[28,-17],[-43,-61],[29,-59],[-27,2],[-21,-26],[-34,9],[-16,-44],[-31,10],[6,-25],[-38,-21],[-14,-65],[72,-86],[30,2],[-16,27],[40,-1],[48,-85],[28,29],[22,-22],[32,29],[4,-99],[-8,-46],[-31,-22],[36,-57],[22,3],[14,-70],[-61,-29],[14,-80],[73,-21],[22,-35],[54,-17],[52,18],[32,52],[18,-6],[-37,-85],[-116,-42],[-126,50],[-122,-3],[-4,-24],[-70,-57],[-39,-161],[-85,-104],[-10,-127],[-39,-23],[15,-42]],[[8063,13088],[-110,-4],[-48,-24],[-81,26],[-37,-46],[-121,-3]],[[7666,13037],[-17,49],[-64,-21],[-49,18],[-24,136],[-64,-23],[3,68],[69,70],[51,-8],[63,57],[2,28],[-73,23],[-46,43],[-58,9],[-3,-20],[-31,-1],[-31,15],[145,45],[-88,30],[-12,-28],[-57,-14],[-62,-58],[-96,-35],[17,-112],[48,24],[49,-23],[-23,-48],[3,-52],[-74,-36],[-26,-37]],[[7218,13136],[-104,51],[-65,-15],[-24,23],[-53,-9],[-22,94],[-29,-28],[-26,19],[-59,-33],[-33,82],[-73,-8]],[[6730,13312],[35,106],[-84,13],[-5,-19],[-115,38],[-8,44],[19,59],[-48,26],[-86,-6],[-44,-34],[-19,14],[22,43],[-22,12],[38,26],[10,49]],[[6423,13683],[60,-16],[15,18],[67,2],[36,49],[-23,63],[46,20],[30,53]],[[6423,13683],[-29,16],[-43,-13],[-13,28],[-60,10],[-53,-108],[-24,5],[-1,-37],[21,-19],[-29,-62],[-53,29],[-38,-41]],[[6101,13491],[-70,52],[17,64],[-127,75]],[[5921,13682],[51,41],[-6,60],[21,-11],[36,42],[-25,81],[-48,-11],[-6,49],[-35,-55],[-64,31],[-84,-33],[-14,36],[-52,11],[2,-18],[-101,4],[-13,-22],[-48,96],[-18,-10],[-33,31],[-37,-75],[-13,11],[-40,68],[8,27],[26,9],[18,41],[27,-1],[24,43],[-15,24],[35,5],[29,52],[14,-9],[11,36],[-35,14]],[[5921,13682],[-41,-3],[-50,67],[-68,21],[-39,42],[-47,-1],[-28,34],[18,-46],[-41,-56],[-8,39],[-31,-19],[-22,39],[1,-24],[-46,-17],[30,-50],[-29,-46],[9,-44],[28,-30],[-19,-8],[-30,-155]],[[5508,13425],[-132,3],[-35,54],[10,25],[-17,40],[-29,30],[2,32],[-25,23]],[[5282,13632],[19,20],[-42,8],[-8,20],[26,26],[-28,21],[45,123],[-77,19],[-65,76]],[[4930,14017],[-56,-85],[5,-57],[-75,-40],[-38,7],[-28,-26],[-23,24],[-23,-9],[-29,-59],[43,-17],[12,-60],[-37,-3]],[[4681,13692],[-98,-12],[-50,-55],[-6,21],[31,46],[-17,34],[35,34],[-34,-1],[-10,41],[-51,48],[-30,-2],[-45,-25],[-25,20]],[[4381,13841],[-68,209]],[[5282,13632],[-19,-6],[-35,-83],[29,-26],[-20,-39],[28,-4],[2,-26],[-35,18],[-36,-37],[1,-31],[-64,60],[-42,13],[-9,-24],[-45,-7]],[[5037,13440],[-22,15],[-27,104],[-56,40],[-41,-43],[-61,55],[12,47],[-15,-14],[-51,16],[-30,41],[0,-44],[-16,-3],[-49,38]],[[5037,13440],[46,-109],[30,-8],[32,-41],[-14,0]],[[5131,13282],[-118,6],[-18,-53],[-65,5]],[[4930,13240],[-23,78],[-48,9],[9,52],[-55,-8],[-50,54],[-88,-87],[-24,11],[-3,49],[-47,78],[-3,67],[-121,-20],[-8,15],[-11,-14]],[[4458,13524],[-77,317]],[[6101,13491],[27,-56],[-65,-33],[-24,-46],[25,-14],[-10,-45],[-25,-6],[17,-37],[-35,-79],[-45,-12],[-114,54],[-15,35],[-55,2],[-1,-98],[38,-37],[-53,-38],[57,-85]],[[5823,12996],[-49,-108],[-86,31]],[[5688,12919],[-31,4],[-33,45],[-11,102],[21,5],[7,54],[-16,22],[-65,-13],[-83,75],[-75,15],[14,44],[59,38],[33,115]],[[6730,13312],[-156,20],[0,-74],[-36,-68],[2,-76],[56,-65],[8,-83]],[[6604,12966],[-58,-2],[-9,30],[-69,3],[-41,40],[-48,-35],[-73,11],[-70,-138]],[[6236,12875],[-103,-4],[-68,139],[-50,-85],[-73,6],[3,56],[-65,-22],[-17,46],[-40,-15]],[[5688,12919],[-2,-88],[-72,15],[-12,-75],[-41,23],[-2,-58]],[[5559,12736],[-2,-66],[-29,-26],[-122,-16],[-110,53],[-55,-84]],[[5241,12597],[-39,27],[-19,95],[-61,36],[-49,-5]],[[5073,12750],[6,40],[-37,13],[45,49],[73,29],[73,-43],[44,9],[11,28],[-16,22],[22,11],[-27,61],[15,102],[-71,12],[-13,64],[-83,28],[16,107]],[[4930,13240],[4,-105],[-28,-29],[50,-79],[-65,-45],[-71,54],[-7,56],[-57,69],[-5,-28],[-45,-3],[-30,-63],[-3,-65],[-20,0],[-15,-35],[-65,32]],[[4573,12999],[-115,525]],[[7666,13037],[-18,-204],[-17,-4],[-27,49],[-59,-30],[-27,35],[-2,-44],[-26,-13],[53,-45],[-1,-16],[-44,-4],[11,-77],[70,-9],[-79,-49],[-7,-48],[63,-16],[97,11],[90,-45],[-11,-62],[20,-29]],[[7752,12437],[-2,-57],[-35,-40],[-30,-12],[-43,31],[-9,-21]],[[7633,12338],[-52,-1],[-30,50],[-89,-9],[-48,-36],[-25,-49],[-48,0],[-44,-31]],[[7297,12262],[-27,18],[-24,68],[-62,-10],[-46,16],[-35,72],[30,80],[39,-8],[-2,237],[14,37],[81,48],[13,58],[169,-6],[-51,119],[-142,19],[-2,52],[-34,74]],[[5073,12750],[-113,-43],[-17,42],[-26,-18],[-15,68],[-41,40],[-24,-22],[9,11],[-24,6],[-4,-35],[-49,12],[-38,-17],[13,-38],[-45,-47],[-38,5],[-13,79],[-30,-17]],[[4618,12776],[-45,223]],[[7297,12262],[-75,-73]],[[7222,12189],[-26,18],[-156,-6],[-155,-28],[-45,102],[-99,-14]],[[6741,12261],[-24,13],[-14,94],[-64,17],[-8,58],[55,26],[43,-41],[15,9],[-19,39],[44,93],[1,57],[26,-16],[21,57],[30,-7],[-17,67],[43,19],[-12,47],[-46,38],[9,41],[24,-9],[-3,32],[38,-8],[4,96],[-55,25],[-12,39],[-114,34],[-18,-41],[-56,-6],[-28,-68]],[[6741,12261],[-49,-103],[-70,32],[-70,-17],[-160,50],[-176,-44],[-19,21],[6,85],[-26,24]],[[6177,12309],[27,-10],[32,18],[0,20],[55,1],[-21,66],[-43,49],[19,25],[-28,23],[48,-4],[67,71],[-39,35],[12,27],[-21,57],[-56,11],[6,110],[52,8],[-51,59]],[[6177,12309],[-43,-6],[-48,47],[-49,-21],[-91,24]],[[5946,12353],[-24,24],[-5,58],[-75,-22],[-131,86],[18,164],[-57,-7],[-2,30],[-40,-8],[-71,58]],[[8063,13088],[161,-101],[93,-14],[114,-85],[61,24],[62,-36],[61,17],[44,-45],[93,-27],[70,-19],[23,-65],[64,-49],[24,-78],[-36,-42],[26,-34]],[[8923,12534],[-20,-30],[-101,1],[11,-47],[-42,-36],[73,1],[9,-15],[-54,-56],[-39,-1],[1,-61],[-30,-1],[29,-53],[-34,11],[-13,-51],[-9,22],[-31,3],[-51,-18],[19,-7],[-17,-29],[17,-25],[-21,-11],[3,26],[-30,1],[-2,-29],[9,12],[7,-18],[-46,-9],[4,-58],[-49,40],[6,20],[-21,19],[-61,-9],[-13,26],[-43,-14],[-9,24],[-53,-12],[-20,17],[-22,-24],[36,-37],[-23,-87],[-64,6],[-3,18]],[[8226,12043],[-30,22],[13,26],[-14,8],[16,3],[-16,26],[-20,10],[6,-17],[-47,-8],[-22,25],[6,55],[18,-8],[-23,37],[16,83],[-23,11],[1,32],[41,88],[-40,10],[2,19],[-11,14],[-66,-23],[-22,-33],[-11,34],[-15,-65],[-71,-27],[-162,72]],[[5241,12597],[7,-22],[-31,-26],[44,-32],[-8,-36],[50,-24],[-2,-18],[19,5],[-33,-27],[-15,-139]],[[5272,12278],[-54,3],[-31,-29],[-45,20],[-6,-22],[35,-41],[-67,-78],[-46,-21],[-18,27],[5,71],[-35,17],[-48,144],[-1,69],[16,8],[-36,20],[13,10],[-26,15],[8,19],[-28,0],[-111,-95],[-93,-44]],[[4704,12371],[-86,405]],[[5946,12353],[76,-69],[-12,-82],[-48,-6],[-92,-184],[-49,-33]],[[5821,11979],[-18,55],[-15,-32],[-40,40],[-54,14],[-46,-60],[-120,88],[-60,-10],[-61,21]],[[5407,12095],[1,35],[-25,31],[-43,-18],[-35,12],[5,41],[-35,23],[-3,59]],[[5407,12095],[-15,-6],[5,-29],[-34,21],[8,-38],[-42,-77],[-66,15],[-13,-33],[-123,-55]],[[5127,11893],[-27,26],[-81,-38],[-25,46],[-2,-21],[-45,11],[-47,-40]],[[4900,11877],[-196,494]],[[8923,12534],[57,-4],[38,-47],[128,0],[32,-146],[-13,-33],[1,-49],[-71,-140],[20,-62],[-12,-24],[-36,2],[-66,-110],[16,-13],[-23,-36],[5,-28],[47,-15],[3,-26],[26,-115],[-7,-44],[-104,-36],[-133,28],[-70,-11]],[[8761,11625],[-78,20],[-36,-46],[-85,-4],[-123,39],[-72,-8],[-15,35],[-20,-12],[-3,24],[-33,13],[-8,57],[-28,-32],[-13,37],[-39,6],[19,17],[-24,13],[9,29],[-16,19],[14,15],[13,-22],[11,24],[-42,25],[-54,-6],[-38,29],[-37,54],[-38,11]],[[8025,11962],[19,60],[-17,52]],[[8027,12074],[21,5],[5,-28],[47,-26],[126,18]],[[8027,12074],[-37,11],[-26,-15],[1,14],[-75,-73],[-29,113],[-39,42],[-23,-14],[-25,-81],[-81,-12],[-37,25]],[[7656,12084],[-90,35],[25,29],[-12,21],[40,19],[-11,33],[43,59],[-18,58]],[[7222,12189],[-18,-39],[45,-33],[-4,-22],[-62,-47],[-33,-107],[-21,15],[-50,-29],[35,-54],[10,-100],[-9,-19],[-34,6],[-30,-65],[-54,-13],[-22,-99],[14,-21],[0,29],[23,-8],[-8,-36],[21,-28],[-29,-41],[-38,-1],[-2,-51],[-41,25],[-7,-48]],[[6908,11403],[-71,55],[-15,-20],[-34,32],[15,23],[-20,1],[-68,57],[-77,-2],[-75,-106],[-132,-4]],[[6431,11439],[-9,58],[77,-5],[3,111],[75,-23],[-1,35],[-112,24],[-27,28],[17,41],[-38,-53],[-27,54],[-19,-16],[-35,24],[7,48],[-29,23],[45,5],[-68,18],[32,31],[-25,16],[-17,-26],[-24,4],[-30,52],[-3,27],[-30,-32]],[[6193,11883],[0,108],[-50,-1],[26,-21],[-16,4],[4,-14],[-76,49],[-5,-27],[-27,-1],[31,-52],[-24,-6],[4,-15],[-32,9],[17,22],[-15,6],[-16,-2],[-1,-26],[-30,2],[4,25],[-42,41],[-69,-7],[-7,-30],[-48,32]],[[7656,12084],[9,-41],[-35,-24],[15,-20],[-13,-57],[-23,7],[7,-37],[-17,-8],[-17,22],[-5,-35],[-33,-9],[23,-25],[-12,-50],[-36,-18],[5,-38],[-57,-57],[2,-43],[-50,-21],[-18,-43],[105,-17],[-23,-68],[-78,3],[-7,-32],[-14,8],[-35,-36],[8,-44],[-35,17],[5,-29],[-34,-20],[-10,-43],[-29,10],[7,-26],[-41,17],[-31,-25],[15,-38],[-52,1],[-22,-20],[-41,15],[-18,-24]],[[7071,11236],[-37,6],[-46,99],[-51,3],[-29,59]],[[6193,11883],[-40,-86],[-24,-3],[-13,24],[-108,-35],[-26,19],[-23,-12],[-7,-37],[-39,-6],[0,-134],[-40,-20],[13,-56],[-40,-4],[-15,-28],[-26,4],[10,31],[-22,23],[-47,-9]],[[5746,11554],[4,52],[-24,32],[11,27],[-64,30],[-37,-22],[-46,6],[5,-30],[-29,-45],[-92,-11],[-41,-54],[-28,6],[-43,-58]],[[5362,11487],[-12,54],[-15,-3],[-16,42],[-33,1],[-63,128],[-4,46],[30,15],[-8,27],[-42,61],[-72,35]],[[8025,11962],[-32,-51],[-62,-28],[-16,-67],[30,-32],[-27,-12],[-4,-53],[17,-52],[-119,-43],[-9,-71],[41,-40],[1,-32],[-78,-29],[-9,-23],[-16,10],[-29,-36],[-46,13],[-41,-31],[3,-19],[-56,-41],[-51,-138],[125,-195],[96,-69],[19,-74],[30,-28],[-24,-72],[-70,-74],[19,-35]],[[7717,10640],[-107,-12],[-6,46],[-94,25],[-61,101],[-97,48],[-50,1],[-10,37],[-41,-1]],[[7251,10885],[-20,5],[-32,75],[-76,95],[-38,8],[-41,55],[27,113]],[[5362,11487],[-20,-30],[-14,15],[-15,-12],[-6,-54],[-22,-26],[-28,9],[26,-71],[-32,-19],[143,-237],[55,-128],[-9,-19],[-22,-3],[-9,22],[-56,-25],[8,-21],[-26,-23]],[[5335,10865],[-92,166],[-343,846]],[[6431,11439],[-51,24],[-48,-7],[-43,-84]],[[6289,11372],[-34,-33],[0,45],[-42,0],[7,-71],[-31,3],[-11,-30],[-72,35],[12,-21],[-13,-10],[-77,-13],[9,-40],[-22,-33],[-22,15],[-80,-23],[-52,-77],[-94,-12],[-4,-83]],[[5763,11024],[-64,-11],[-2,44],[-43,55],[-11,59],[17,20],[-39,11],[-15,33],[11,32],[-21,14],[29,14],[-12,50],[18,21],[-29,36],[46,59],[-30,22],[69,8],[39,64],[20,-1]],[[8761,11625],[-18,-57],[28,-34],[3,-67],[39,-35],[30,16],[27,-15],[-21,-111],[25,-48],[-19,-95],[35,-42],[-57,-193],[-10,-236],[-54,-135],[37,-66],[26,7],[15,-18],[1,-22],[-46,-41],[92,-87],[21,-46],[-11,-53],[-46,-59],[7,-40]],[[8865,10148],[-44,-2],[-51,58],[-50,-25],[-5,-36],[-78,-2],[-43,29],[-26,-40],[-77,10],[-10,56],[50,33],[-1,41],[-33,-5],[-31,27],[-136,33],[-54,-12],[-17,-37],[-73,1],[-78,54],[-36,57],[-30,-44],[-42,30],[-57,-31],[-20,33],[-23,-21],[-23,57],[-51,45],[-24,92],[-65,87]],[[7737,10636],[-20,4]],[[5763,11024],[45,1],[26,-85],[27,38],[24,-8],[13,-74],[-18,-39]],[[5880,10857],[-60,-77],[-59,27],[-70,-10],[-24,32],[-9,-26],[-56,-22],[-16,17],[-21,-27],[-20,10],[-9,-24],[-36,16],[-102,-40]],[[5398,10733],[-63,132]],[[7251,10885],[-40,-35],[-54,8],[-51,-51],[-24,22],[-66,-32],[-121,21],[-102,-35],[-18,-45],[-56,-20],[-134,105],[-158,8],[-46,-35],[-45,18],[-78,-48],[-50,3],[10,-43],[-9,-35],[-16,6],[-3,-58],[-18,-28],[16,43],[-23,24],[1,50],[-12,8]],[[6154,10736],[11,102],[-41,22]],[[6124,10860],[-2,34],[19,16],[-28,66],[9,25],[45,14],[-10,36],[27,59],[74,14],[1,43],[-33,30],[-1,32],[17,60],[50,48],[-3,35]],[[6124,10860],[-41,-14],[-2,-19],[-25,23],[-40,-18],[-73,10],[-63,15]],[[6154,10736],[-16,8],[-35,-26],[-20,-62],[22,-43],[-28,-22],[-7,-59],[11,-15],[12,17],[5,-57]],[[6098,10477],[-64,1],[-18,28],[-57,12],[-93,-59],[-82,17],[-18,-47]],[[5766,10429],[-45,-45],[-20,22],[12,28],[-46,43],[-17,-17],[12,-42],[-15,-23],[45,-112],[-38,-9],[-21,-48],[-41,-16]],[[5592,10210],[-44,155],[-150,368]],[[7737,10636],[-32,-47],[-113,-40],[-242,-177],[-121,-11],[-2,-23],[-33,-19],[-64,4],[-153,-49],[-30,-28],[-46,42],[-68,20],[-25,0],[-8,-36],[-68,-8],[-10,28],[-37,-1],[-66,47],[-23,-18],[9,-35],[-17,21],[-35,-6],[-5,27],[-34,18],[-25,-26],[19,41],[-47,19],[-57,-29],[-11,-31]],[[6393,10319],[-58,-9],[2,81],[-26,26],[-75,-3],[-43,-39],[-95,102]],[[8865,10148],[-34,-169],[48,-20],[17,-23],[-11,-21],[29,-28],[17,1],[12,37],[35,-4],[47,31],[1,-108],[109,-70],[16,-53]],[[9151,9721],[-27,34],[-27,-14],[-51,23],[7,44],[-19,10],[-39,-9],[-4,17],[-134,54],[-30,-42],[-13,29],[-75,25],[-58,-44],[-17,15],[-79,-19],[-29,-37],[-44,1],[-45,45],[-92,-38],[-102,-3],[-47,-28],[-35,13]],[[8191,9797],[-83,25],[-33,42],[-73,1],[-24,-30],[-86,-3],[-12,33],[-69,-1],[-58,59],[-3,35],[-58,18],[-48,-45],[32,-46],[-85,-7],[-42,33],[-94,-27],[-110,18],[-43,30],[-77,-13],[-120,27],[-72,-37],[-67,22],[-19,-77],[-47,-12],[-21,-42],[-25,-7],[-1,-53],[-56,-3],[7,-48],[-97,-42]],[[6707,9647],[-30,24],[11,84],[-63,-46],[-50,-2],[4,-33],[-39,3],[-19,-31],[-20,18],[27,40],[-39,-4],[-10,24],[-85,21],[34,69],[-5,36],[24,-28],[16,18],[-6,76]],[[6457,9916],[40,10],[-6,168],[25,83],[-41,19],[-79,-5],[-24,77],[21,51]],[[6457,9916],[-27,-7],[-48,53],[-30,-68],[-18,15],[-19,-17],[-26,14],[-2,32],[-50,6],[-21,-64],[-47,10],[-2,-19],[-31,0],[3,26],[-13,-10],[-8,28],[26,63],[-7,41],[-112,22],[-12,8],[-22,-33],[44,-2],[-16,-89],[-11,20],[-12,-15],[-20,14],[9,-14],[-14,7],[-13,-35],[-68,0]],[[5890,9902],[-56,62],[19,78],[-41,7],[-18,30],[17,27],[-27,63],[30,54],[-31,11],[20,40],[-54,110],[17,45]],[[5890,9902],[14,-100],[94,-52],[-2,-72],[-105,-25],[61,-93],[-46,-12],[-26,-36],[23,-106]],[[5903,9406],[-19,-10]],[[5884,9396],[-36,-21]],[[5848,9375],[-20,9],[-42,124],[-194,702]],[[9825,9774],[9,49],[-42,56],[58,16],[44,53],[112,82],[9,-13],[12,-12],[26,32],[85,12],[252,199],[267,-30],[2,-62],[-32,-45],[-6,-70],[158,-261],[-27,-23],[11,-144],[45,34],[84,-26],[31,-70],[-53,-49],[4,-46],[-40,-67],[-17,-213],[16,-50],[-38,-50],[-123,41],[-41,-46],[-61,-27],[-42,13],[-26,-58],[16,-96],[119,-102],[138,-177],[-1,-44]],[[10774,8580],[-212,-54],[-78,27],[-12,43],[-53,-11],[-66,19],[-66,-102],[-67,22],[-10,-103],[-20,-30],[-43,27],[-61,1],[-21,-49],[-44,6],[-42,-41],[-18,35],[-34,6],[-33,38],[-38,-51]],[[9856,8363],[-183,-26],[-69,38],[-40,-95],[-47,-51]],[[9517,8229],[-160,65],[-33,46],[-450,253]],[[8874,8593],[-192,86],[-49,41],[-19,44],[-30,6]],[[8584,8770],[-25,31],[168,-2],[-27,-29],[15,-12],[32,4],[-7,21],[68,-1],[-39,32],[-11,59],[50,43],[180,-79],[8,104],[120,192],[47,34],[-2,44],[41,82],[65,67],[121,-47],[60,-46],[72,27],[26,-24],[40,7],[19,41],[96,41],[26,-32],[125,25],[22,-39],[66,32],[33,-11],[17,60],[-54,51],[-42,0],[7,46],[-17,29],[-43,0],[-66,-40],[-91,51],[12,18],[-39,27],[41,33],[102,22],[12,-15],[55,26],[6,59],[-48,73]],[[6707,9647],[-83,-25],[7,-26],[-46,-88],[-93,-16],[8,-113]],[[6500,9379],[-45,13],[-24,-47],[-102,-5],[-9,46],[-49,27],[-7,36],[18,14],[-197,36],[-37,-31],[8,-33],[-153,-29]],[[8191,9797],[-37,-78],[-27,-178],[-100,-122],[-45,-146]],[[7982,9273],[-57,69],[-68,-18],[-46,25],[-48,-5],[-164,112],[-179,-18],[-63,-61],[-138,8],[-55,-56],[-93,-49]],[[7071,9280],[-40,8],[-57,-40],[-34,19],[-29,-34],[-38,-3],[-24,51],[25,17],[-7,53],[-94,-5],[-116,59],[-14,14],[-33,-24],[12,-53],[-51,-50]],[[6571,9292],[-34,24],[13,47],[0,20],[-27,-22],[-24,10]],[[6499,9371],[1,8]],[[9151,9721],[20,-19],[-11,-37],[23,2],[20,-30],[40,-13],[80,34],[51,-32],[81,-9],[62,-52],[147,121],[114,39],[47,49]],[[8584,8770],[-36,7],[-116,118],[-67,37],[-223,230],[-29,19],[-53,-21],[-77,112]],[[7983,9272],[-1,1]],[[6499,9371],[-29,-55],[-28,0],[1,-21],[-38,-22],[-21,-41],[-22,3],[-13,-30],[-30,1],[-35,58],[-42,24],[0,-42],[29,-31],[0,-45],[41,-68],[-2,-44],[-24,-10],[19,-61],[-17,-34],[10,-41],[77,-13],[-13,-65]],[[6362,8834],[-3,-45]],[[6359,8789],[-97,-8],[-23,43],[-113,5],[-26,111],[-133,339],[-68,57],[-15,60]],[[6359,8789],[-5,-80],[-53,-11],[4,-65],[-49,-31],[9,-26],[36,3],[16,-57],[10,-44],[-18,-88]],[[6309,8390],[-59,-32],[6,42],[-29,-25],[-25,32],[-25,-62]],[[6177,8345],[-7,50],[-59,29],[-22,42],[-240,854],[-1,55]],[[7071,9280],[-43,-82],[91,-9],[-3,-31],[37,-29],[-24,-52]],[[7129,9077],[-32,-13],[-46,17],[-102,-42],[-14,-95],[-46,-100],[-3,-73],[-76,-116]],[[6810,8655],[-43,60],[-42,-9],[-70,154],[-73,-62],[-20,8],[41,66],[-1,53],[41,11],[14,68],[-4,26],[-41,3],[-5,28],[-63,11],[41,28],[-17,59],[3,133]],[[7983,9272],[-21,-57],[-130,5],[-36,-27],[-66,-8],[-28,-31],[-33,-159],[13,-77],[-28,-33],[-46,5],[-5,-51],[23,-55],[-25,-42]],[[7601,8742],[-20,21],[-34,-48]],[[7547,8715],[-23,16],[-52,-9],[-8,21],[-25,-11],[-72,56],[-45,5],[-49,-84],[-46,-22],[-42,29],[-32,-6],[-85,82],[-19,-3],[-7,113],[24,24],[9,54],[48,20],[54,-14],[15,53],[-26,34],[-37,4]],[[6810,8655],[-7,-94],[-47,-62],[-7,-51],[-30,-18]],[[6719,8430],[-19,1],[-29,1]],[[6671,8432],[-1,126],[19,37],[-15,31],[-66,43],[-17,-37],[-100,-37],[-47,102],[-6,16]],[[6438,8713],[-25,44],[7,40],[-58,37]],[[8874,8593],[-40,-57],[-23,3],[-191,112],[-61,-90]],[[8559,8561],[-163,46],[-264,-30],[-53,37],[-43,2],[11,-48],[-16,-25],[-31,-2],[-78,-65],[-69,17],[-59,-25],[-26,22],[27,27],[-8,114],[-55,28],[-37,-17],[-35,68],[-59,32]],[[7547,8715],[-27,-17],[-4,-99],[33,-83],[-23,-23],[-50,22],[-82,-42],[-22,-33],[2,-101]],[[7374,8339],[-55,-31],[39,-34],[-13,-23],[-58,-7],[-68,-82],[-56,37],[-26,-17],[-38,13],[-6,-58],[-23,-31],[12,-32],[-71,-32],[-21,6],[-18,62],[-171,76],[-33,45],[11,37],[-72,80],[6,31],[-16,-9],[22,60]],[[6438,8713],[-49,-50],[13,-42],[-35,-41],[46,-136],[-8,-60],[32,-51],[9,-90],[-15,-1],[6,-38],[-37,-15]],[[6400,8189],[-91,201]],[[8559,8561],[-24,-35],[19,-47],[-11,-22],[18,-13],[-24,-6],[1,-19],[-23,11],[27,-51],[-97,50],[-81,-49],[-30,29],[-44,6],[16,-50],[-22,-13],[65,-113],[-42,-18],[-10,-25],[-27,7],[-34,-80],[-21,13],[-7,-34],[-23,-10],[55,-24],[-13,-48],[-57,11],[-7,34],[-91,-5],[-56,25],[-85,-33],[-6,-76],[36,-129],[-22,-10],[14,-34],[-25,-47]],[[7928,7756],[-43,7],[-46,-29]],[[7839,7734],[4,42],[-118,166],[-8,92],[-87,40],[-105,114],[29,64],[-14,16],[23,29],[-5,31],[-75,-40],[-76,50],[-33,1]],[[6671,8432],[-31,-58]],[[6640,8374],[-28,1],[-1,39],[-26,14],[-27,-33],[32,-26],[-31,-8],[-22,-67],[48,-24],[-74,-26],[-37,-41],[-16,-45],[21,-46],[-30,-24]],[[6449,8088],[-49,101]],[[9517,8229],[-54,-92],[36,-46],[-31,-50],[21,-34],[-13,-33],[16,-31],[-38,-36],[9,-23],[-22,-50],[21,-71],[-69,8],[-103,87],[-257,-161],[31,-112],[-155,6],[-80,18],[-28,29],[-30,-86],[-81,64],[-151,50],[-19,-43],[33,-40],[-1,-48]],[[8552,7535],[-63,32],[-22,-17],[6,-38],[-37,-10],[-193,105],[-16,40],[-48,-3],[-13,32],[-67,24],[-17,-24],[-77,5],[-62,30]],[[7943,7711],[-22,21],[7,24]],[[10774,8580],[-38,-45],[53,-50],[-19,-54],[26,-9],[-10,-15],[36,-53],[1,-57],[-53,-61],[-63,0],[7,-23],[-50,-51],[-31,-119],[-53,-44],[11,-98],[-39,-33],[37,-69],[71,-19],[4,-43],[-64,-32],[21,-32],[-26,-79],[49,-5],[-1,-21],[39,-6],[25,-40],[-1,-50],[-28,-5],[-27,-38],[-52,-7],[10,-61],[33,-33],[-55,-121],[11,-48],[5,-26],[-24,-21],[-67,-18],[12,-22],[-19,-70],[21,-46],[-55,-116],[-35,-24],[4,-24],[-31,-16]],[[10409,6776],[-84,-1],[-25,44],[-79,16],[55,83]],[[10276,6918],[10,21],[-23,27],[-109,82],[25,76],[16,-5],[26,47],[45,10],[20,33],[-2,31],[41,50],[-12,42],[-171,75],[-23,30],[-2,-15],[-49,9],[-14,44],[-16,-12],[-155,105],[98,19],[8,12],[-35,9],[55,80],[-12,35],[67,35],[10,46],[-57,77],[52,68],[-57,32],[34,17],[-12,21],[17,43],[-21,51],[35,31],[-114,35],[-54,78],[-52,14],[11,92]],[[6640,8374],[36,-57],[58,-227],[75,4],[18,-46],[-47,-75],[29,-130],[26,-32],[-15,-20],[28,-61],[-6,-32]],[[6842,7698],[-70,-37]],[[6772,7661],[-7,103],[-80,131],[-87,-35],[-101,32],[-38,33]],[[6459,7925],[-10,163]],[[7839,7734],[32,-69],[-32,26],[-16,-12],[-17,26],[-101,-11],[2,-105],[-22,-13],[-34,23],[-30,-18],[-19,-84],[-44,-20],[-24,42],[10,26],[-22,2],[0,41],[-69,23],[-17,-18],[-23,127],[-72,16],[0,44],[-52,-34],[-14,31],[-37,9],[-79,-66]],[[7159,7720],[-54,-69],[-81,-49],[-67,-10],[-34,37],[-56,6],[-25,63]],[[6459,7925],[-46,2],[26,-184],[-57,-21],[-7,-62],[-23,-30],[5,-40],[29,-19],[22,-61],[-43,-10],[13,-68],[-25,-7]],[[6353,7425],[-9,0]],[[6344,7425],[-74,458],[-104,372],[11,90]],[[10276,6918],[-53,-21],[-22,40],[-87,-5],[-14,-18],[-20,45],[-71,18],[-40,-85],[-233,179],[-371,17],[-251,149],[-36,-4],[-82,-75]],[[8996,7158],[-28,-26],[-236,295],[-180,108]],[[6772,7661],[41,-92],[-76,-126],[72,-205],[-21,-271]],[[6788,6967],[-132,82],[-7,191],[-37,3],[-9,-63],[-64,51],[-24,-18],[-4,24],[-103,-16],[-10,26],[-25,-6],[-20,184]],[[7943,7711],[-28,-47],[14,-35],[-19,6],[6,-21],[-34,-26],[23,-54],[-60,-51],[26,2],[99,-100],[-37,-36],[-59,20],[-31,-51],[107,-130],[-7,-69],[-38,-24],[20,-51],[41,-7],[-8,-37],[30,-47],[-29,-76],[3,-55]],[[7962,6822],[-40,3],[0,-44],[-48,-21],[-29,36],[-31,45],[-37,-29]],[[7777,6812],[18,77],[-18,30],[-29,2],[-33,-45],[-22,46],[-55,26],[-71,-34],[-20,1],[-6,30],[-65,-2],[-5,-54],[-14,2],[-54,61],[47,49],[-29,16],[-57,-9],[-24,-51],[-28,4]],[[7312,6961],[-60,150],[-57,0],[-32,87],[-38,40],[41,66],[11,93],[38,5],[14,27],[14,96],[-17,13],[4,153],[-71,29]],[[7312,6961],[-59,-48],[-6,-44],[-99,-3],[-12,-103],[-35,12],[-104,-60],[-113,15]],[[6884,6730],[25,183],[-121,54]],[[8996,7158],[5,-30],[62,-40]],[[9063,7088],[-15,-30],[22,-29],[-14,-38],[-93,8],[-115,97],[-33,-28],[-5,-90],[-66,13],[-192,99],[1,-80],[-17,-3],[-6,-44],[-85,2],[-16,35],[-43,-14],[30,-76],[59,-50],[36,-104],[-12,-10],[24,-61],[-15,-17],[22,-74]],[[8530,6594],[-32,-4],[29,-39],[-14,-23],[-26,11],[-19,-38],[35,-71],[-11,-14],[-61,19],[3,-33],[-25,-26],[-43,-8],[-81,144]],[[8285,6512],[31,95],[-41,77],[12,29],[-18,26],[-42,-29],[-41,4],[9,-39],[-16,-11],[-33,39],[-34,-19],[-80,114],[-25,-3],[-27,37],[-18,-10]],[[6884,6730],[-9,-296]],[[6875,6434],[-131,5],[-171,42],[31,201],[-76,9],[-103,-19]],[[6425,6672],[-81,753]],[[10409,6776],[-6,-66],[-24,-37],[10,-41],[-33,-28],[-15,-48],[12,-16],[91,-23],[44,41],[48,-3],[5,-42],[48,-30],[63,-88],[36,19],[47,-11],[70,-50],[97,59],[-1,20],[61,48],[64,20],[21,-21],[34,3],[-25,-27],[3,-65],[65,-35],[68,152],[30,-9],[22,-32],[-38,-3],[-12,-42],[22,-45],[-44,-52],[12,-37],[36,-7],[21,-31],[-1,-84],[89,-78],[68,40],[10,-11],[-10,-37],[38,-16],[12,-35],[-58,-60],[-1,-68],[16,-16],[-48,-50],[5,-46],[-68,-32],[-58,32],[-71,-94],[-15,-70],[-27,-29],[-13,-43],[33,-43],[-11,-65],[-31,-42],[7,-97],[-46,-78],[-2,-45],[-115,-3],[5,-31],[-17,-4],[25,-49],[-41,-74],[-47,-15],[25,-135],[-30,-6]],[[10864,4865],[-148,83],[-53,-35],[-7,51],[-50,15],[1,81],[46,59],[-20,32],[34,49],[-15,48],[60,136],[-12,56],[-78,109],[3,44],[-37,8],[16,63],[-55,49],[-18,-12],[-5,45],[-74,-5],[-9,32],[-22,-8],[-10,88],[-55,-52],[-12,39],[-52,7],[-54,-49],[2,129],[-56,30],[-51,-68],[-71,2],[-74,-86],[-65,-30],[-85,24],[-27,-44],[86,-177],[-64,7],[-108,-53],[-49,-1]],[[9676,5531],[-37,8],[11,44],[-19,38],[6,20],[36,3],[-9,58],[-96,37],[-107,77]],[[9461,5816],[67,28],[-4,88],[-39,66],[-64,34],[-29,-81],[-22,-6],[-66,71],[-25,-14],[-115,97],[-10,76],[-68,5],[9,39],[-27,178],[56,21],[-12,114],[-17,1],[14,29],[-20,20],[28,11],[-1,50],[45,14],[119,-97],[23,31],[-75,110],[38,52],[-109,118],[-24,114],[-34,76],[-36,27]],[[9461,5816],[-50,-16],[-38,-62],[-43,-17],[21,-51],[-25,-7],[5,-65],[-61,-26],[-19,4],[-2,42],[-50,-4],[-122,97],[-134,66],[-30,-56],[-83,32]],[[8830,5753],[-25,22],[4,45],[-129,10],[-9,119],[-74,50],[76,53],[14,-6],[-17,-22],[18,-10],[46,31],[40,-59],[27,10],[-15,-24],[12,-50],[36,37],[18,-41],[16,38],[70,10],[-14,40],[-42,5],[-1,32],[-50,45],[22,22],[-22,18],[14,44],[-76,157],[36,47],[-28,39],[-22,-1],[-24,69],[-80,-1],[-70,107],[-51,5]],[[7777,6812],[-21,-22],[10,-60],[-49,10],[-19,-61],[-70,-57]],[[7628,6622],[-72,-2],[-57,60],[-26,-7],[-31,-27],[-19,-83],[-41,-24],[21,0],[-19,-39],[16,-24],[-35,2],[-23,-37],[-25,8],[-18,-26],[2,-80],[-119,-52]],[[7182,6291],[-164,-57],[-57,70],[-45,-20],[1,-28],[-55,-24]],[[6862,6232],[13,202]],[[8285,6512],[-42,22],[7,25],[-36,14],[-64,-29],[-94,20],[8,-49],[46,-35],[-20,-14],[30,-119],[23,-2],[-19,28],[11,12],[26,-45],[-31,-76],[0,-83],[-54,-38],[-84,-17],[-47,8],[-50,41],[-25,-77],[-27,-10],[21,-62]],[[7864,6026],[-28,15],[-12,-20],[-36,22],[-92,-64],[1,-55],[-39,-21],[-70,59]],[[7588,5962],[17,100],[28,51],[-6,59],[-56,29],[-5,28],[19,51],[48,21],[14,73],[36,47],[-23,69],[11,24],[-35,34],[14,48],[-22,26]],[[6862,6232],[-39,-143],[-61,-54],[-28,-97]],[[6734,5938],[-110,29],[-96,-7]],[[6528,5960],[-54,288],[-49,424]],[[7588,5962],[-67,77],[-90,-1],[-42,40],[-73,-6],[-18,-47]],[[7298,6025],[-45,-2],[1,147],[-65,25],[-7,96]],[[8830,5753],[-29,-32],[-24,50],[-53,-4],[-27,25],[-4,-40],[-36,-4],[7,-32],[-50,19],[-75,-60],[-42,83],[-30,-1],[11,52],[-13,-1],[-6,55],[-22,0],[-42,2],[-9,-40],[-104,-61]],[[8282,5764],[-36,70],[2,40],[-90,35],[-169,-21],[-6,-56],[-27,-28],[-25,51],[-17,-57],[-49,2]],[[7865,5800],[-15,49],[23,91],[-9,86]],[[7298,6025],[92,-30],[27,-57],[-36,-14],[4,-46],[-61,-163],[75,-41],[-30,-34],[28,-51],[-27,-42],[5,-33],[32,-15]],[[7407,5499],[-21,-118],[23,-37],[44,-17],[-36,-1],[-14,-58],[-136,-41],[-39,-66],[4,-22],[81,-14]],[[7313,5125],[6,-30],[-19,-12],[22,-35],[-26,-35]],[[7296,5013],[-36,5],[10,41],[-41,-2],[-18,29],[-9,-103],[-64,4],[-7,139],[54,23],[-15,92],[-36,18],[-23,-27],[-58,23],[-64,-56],[-42,18]],[[6947,5217],[-6,30],[-60,-2],[-41,31],[75,94],[-2,101],[-72,-2],[-41,78],[-42,162],[-38,60],[14,169]],[[7865,5800],[-28,-8],[-1,-28],[-30,20],[7,-38],[-59,-26],[3,-84],[23,-45],[-12,-25],[-65,40],[-64,-56],[-29,1],[-26,61],[-41,-5],[-29,-40],[-28,12],[-32,-42],[-37,2],[-10,-40]],[[6947,5217],[-49,-22],[-4,-104],[-23,-54],[-45,-1]],[[6826,5036],[-186,462],[-112,462]],[[8282,5764],[-17,-31],[-23,28],[-54,-1],[17,-42],[-16,-27],[34,-24],[-13,-48],[20,-24],[-45,-55],[-22,11],[-24,-42],[-20,14],[-18,-16],[50,-53],[3,-51]],[[8154,5403],[-135,-35],[1,43],[-28,32],[-49,2],[-17,23],[-52,-63],[-67,16],[-25,-62],[26,-26],[-10,-49],[53,-5],[18,-25],[-22,-41]],[[7847,5213],[-58,18],[-12,29],[-64,-26],[-20,31],[-47,12],[-75,-27],[44,-36],[-29,-38],[-8,-56],[-59,-13],[-30,36],[-20,-19],[-156,1]],[[10864,4865],[-9,-161],[-26,-27],[37,-91],[-52,-72],[-63,-16],[-16,-49],[59,-37],[5,-137],[-65,-74],[-26,-72],[-84,-39],[-11,-45],[-62,-38],[-29,-75],[8,-64]],[[10530,3868],[-241,49],[1,27],[-41,-20],[-110,56],[-44,-7],[-145,100],[-49,3],[-14,26],[-31,-10],[-15,50],[-33,-20]],[[9808,4122],[-129,37],[-41,48],[-70,-3],[-22,27],[-120,36],[-143,103],[-17,-171],[43,-15],[20,15],[35,-38],[52,-6],[-51,-62],[-106,7],[-6,20],[-97,11],[-18,26],[-18,-32],[-42,-10],[-41,44],[-45,-76],[-32,12],[-33,-26],[3,-64],[-48,-38],[-83,7],[-63,75],[-71,3],[-22,20]],[[8643,4072],[30,34],[42,2],[0,18],[-49,4],[-6,55],[-32,-13],[-10,35],[-27,4],[28,9],[9,28],[45,0],[5,41],[44,-26],[-16,33],[26,-7],[-61,30],[3,34],[-25,26],[85,-23],[-29,32],[-29,-5],[-30,16],[0,19],[25,-24],[8,21],[-73,37],[-58,86],[-81,12],[-124,91]],[[8343,4641],[26,23],[66,-7],[12,39],[23,-31],[18,10],[0,-20],[34,-12],[39,26],[39,-31],[42,43],[-30,51],[32,31],[0,27],[44,-28],[12,28],[-13,15],[31,-17],[15,21],[42,-39],[19,7],[-22,40],[19,14],[18,-21],[14,53],[-14,54],[-163,18],[-1,65],[-40,-9],[24,36],[-14,81]],[[8615,5108],[37,46],[20,-4],[49,-32],[9,-41],[15,21],[42,-46],[29,0],[59,-44],[20,9],[84,-29],[16,-29],[127,-24],[15,89],[-63,36],[2,21],[-33,24],[9,43],[79,4],[11,88],[203,-49],[106,117],[44,-34],[41,51],[55,-17],[-9,113],[11,30],[95,18],[-12,62]],[[8615,5108],[-76,56],[-30,-27],[-17,21],[-71,6],[-3,-20],[-57,25],[-3,69],[-60,59],[-1,21],[29,0],[4,24],[-29,45],[-16,19],[-98,-19],[-33,16]],[[8343,4641],[-26,-20],[-22,27],[-17,-18],[-59,3],[-16,35],[-71,16],[-14,-25],[-10,41],[-22,-9],[-31,21]],[[8055,4712],[-12,97],[42,21],[-11,16],[21,1],[16,32],[-18,6],[48,28],[-7,43],[-97,5],[-9,80],[-30,7],[-16,67],[-27,18],[30,31],[-2,38],[-59,8],[-3,-27],[-74,30]],[[7296,5013],[8,-49],[47,-3],[-8,-122],[23,-14]],[[7366,4825],[-29,-188],[-64,16],[-73,-16],[36,-98],[-29,-34],[-97,-21],[49,-128],[23,-4],[29,-59],[9,-54],[-26,-89]],[[7194,4150],[-368,886]],[[8055,4712],[-83,-42]],[[7972,4670],[-29,50],[-29,-33],[6,-32],[-43,-15],[-45,59],[-31,-11],[-24,43],[-24,-1],[-57,64],[-5,48],[-29,-18],[-36,36],[-41,-7],[-25,-55],[-13,35],[-23,-52],[-44,27],[-20,-18]],[[7460,4790],[-29,53],[-65,-18]],[[7972,4670],[21,-151],[24,26],[19,-36],[63,-10],[81,-124],[-55,-37],[6,-65],[-55,-20],[-98,5],[-25,-43]],[[7953,4215],[-91,-58],[-52,1]],[[7810,4158],[-50,6],[-34,-73],[-49,3],[-24,-29],[-54,-8],[-30,19],[-33,108]],[[7536,4184],[0,34],[92,-3],[-6,77],[38,33],[72,9],[3,20],[-12,49],[-58,36],[-1,41],[-30,-3],[-6,46],[-18,-6],[-3,-43],[-77,4],[-35,24],[2,116],[-37,172]],[[7536,4184],[-150,6],[-29,-9],[18,-50],[-127,-6],[-7,-32],[52,-126],[-15,-10]],[[7278,3957],[-84,193]],[[8643,4072],[-27,3],[-74,-96],[24,-96]],[[8566,3883],[-58,-11],[-16,78],[-26,-28],[-40,23],[-22,-24],[-107,18]],[[8297,3939],[-83,28],[-32,-21],[-9,-35],[-36,-16],[-20,20],[30,39],[-8,123],[-18,21],[-78,-26],[-44,52],[-48,-11],[13,93],[-11,9]],[[9808,4122],[-102,12],[5,-86],[-28,-37],[8,-51],[-38,-62],[4,-30],[-90,4],[-40,-73],[-53,-8],[-25,16],[-10,-17],[-81,25],[-16,-32],[33,-37],[-13,-15],[43,-10],[27,-39],[-8,-18],[-38,32],[-76,-1],[-34,41],[-62,-48],[-44,18],[8,-23],[-36,-25],[-45,26],[-37,-23],[-28,10],[74,-45],[85,-19],[9,-53],[-84,9],[16,-56],[-69,-46],[1,-73],[-99,13],[0,-32],[-74,-62]],[[8891,3307],[-55,48],[-65,-39],[-60,48],[-3,35],[-49,-12],[13,49],[-31,35],[8,38],[78,43],[-26,-11],[-29,17],[32,34],[-19,35],[37,21],[-5,46],[-21,8],[26,27],[3,71],[-34,-13],[-56,33],[-27,-8],[-38,36],[-4,35]],[[7810,4158],[-20,-220],[-109,-110],[-34,5],[15,-81],[-46,-30],[20,-43]],[[7636,3679],[-45,-19],[-24,37],[15,12],[-13,44],[-25,14],[-28,-52],[7,-65],[-44,-69],[-58,17]],[[7421,3598],[-143,359]],[[8297,3939],[5,-11],[52,-92],[-35,3],[-17,-39],[-17,7],[-35,-30],[-13,-104],[37,-34],[6,-36],[92,-61],[-93,2],[-104,-49]],[[8175,3495],[-5,20],[-53,15],[-30,-25],[-44,-8],[-11,16],[-32,-44],[3,48],[-20,6],[-18,-7],[11,-24],[-33,8],[-68,-92]],[[7875,3408],[-8,-26],[-43,-17],[-13,20],[15,13],[-97,-2]],[[7729,3396],[6,118],[84,48],[-6,65],[-55,-30],[-58,-3],[-64,85]],[[10530,3868],[-49,-77],[4,-47],[-29,-18],[-40,20],[-64,-10],[-34,-48],[2,-32],[-32,-34],[-32,-3],[12,-60],[34,-11],[21,-60],[53,-20],[21,-110],[46,-6],[37,-69],[-12,-53],[15,-41],[-18,-47],[113,-37],[0,-1],[15,-71],[76,-30],[0,-65],[80,-32],[10,-64],[-14,-23],[27,-21],[-14,-30],[18,-43],[-69,-91],[0,-43],[-67,-34],[-10,-112],[-75,-31],[22,-53],[-39,-14],[-43,22]],[[10495,2369],[-195,133],[-8,-11],[-63,60],[-59,20],[-93,99],[-40,-1],[-70,48],[-156,31]],[[9811,2748],[2,69],[-132,60],[-68,57],[-70,183],[-29,6],[6,-25],[-19,-6],[-107,59],[-14,-21],[15,-50],[-49,-56],[-1,27],[-25,-6],[4,48],[-26,-2],[-21,70],[-75,-6],[1,-48],[22,-9],[-13,-24],[-151,-26],[-12,15],[-38,-30],[16,-31],[-37,-46],[-11,7],[12,-56],[-88,45],[45,78]],[[8948,3030],[-4,140],[-53,137]],[[8948,3030],[-78,32],[-20,68],[-113,71],[-39,-24],[-6,-29],[-33,12],[11,-56],[-31,-17],[-1,-43]],[[8638,3044],[-72,11],[-57,43],[-86,-25],[-10,12],[18,13],[-51,-39]],[[8380,3059],[-10,59],[-91,78],[-18,30],[6,37],[-33,10],[-16,89],[58,49],[-3,27],[-47,7],[-51,50]],[[7729,3396],[3,-66],[-81,-111],[8,-62],[-39,-17],[30,-62],[5,-90],[-64,-3]],[[7591,2985],[-54,96],[-10,93],[-22,9],[39,11],[-15,15],[-23,-15],[-85,404]],[[8380,3059],[-16,-28],[21,-19],[42,-10],[38,22],[-30,-88],[-60,-5],[-38,29],[-92,-6],[-6,-30],[-39,-17],[15,-39],[-80,19],[-17,-16]],[[8118,2871],[-103,21],[-20,-24],[-26,23],[41,58],[-5,48],[-42,-1],[-11,79],[-12,15]],[[7940,3090],[32,64],[-52,48],[25,14],[-27,37],[-8,119],[-3,28],[-32,8]],[[7940,3090],[-49,-58],[-125,-83],[-10,-57]],[[7756,2892],[-87,40],[-26,-17],[-52,70]],[[9811,2748],[-69,-17],[-57,-73],[5,-55],[-55,-19],[11,-86],[62,-101],[-98,-21],[-19,34],[-24,42],[-62,15],[-32,-71],[-41,-21],[-76,1],[-60,-48]],[[9296,2328],[-81,75],[-1,25],[28,23],[-95,124],[-45,0],[-33,-29],[-135,60]],[[8934,2606],[-33,51],[11,33],[-70,44],[-34,1],[-39,79],[-21,-24],[-22,13],[-24,-43],[-31,39],[-22,-16],[-29,45],[-10,-10]],[[8610,2818],[-65,-29],[-11,20],[80,162],[32,28],[-8,45]],[[8118,2871],[-5,-115],[-55,-45],[-13,-67],[-44,-35]],[[8001,2609],[-124,166],[-121,117]],[[8610,2818],[4,-42],[-29,-41],[28,-5],[57,-72],[-14,-30],[-37,-13],[26,-2],[17,-27],[-97,-13],[-13,-35],[12,-20],[-43,1],[-3,-43],[-10,19],[-73,2],[-88,41],[-59,-43],[1,-20],[-76,3],[-13,-65],[-36,-13],[-21,63],[-18,-35]],[[8125,2428],[-124,181]],[[8934,2606],[-46,-50],[-20,2],[-12,-70],[-48,-6],[-12,-46],[12,-20],[-40,-19],[-13,-39],[-73,0],[-73,-36],[-172,-128],[-11,-174]],[[8426,2020],[-21,-15]],[[8405,2005],[-162,208],[-118,215]],[[10495,2369],[-13,-8],[7,-74],[-32,-55],[-58,9],[-26,30],[-9,-17],[56,-148]],[[10420,2106],[-231,-43],[-33,25],[-114,-54],[-2,-28],[-36,31],[-66,-10],[-2,-76],[-50,-4],[-23,20],[-68,-129],[32,-93],[-38,-6],[1,-18],[-97,-5],[0,-53],[-37,-18],[-158,-5]],[[9498,1640],[-46,3],[-13,29],[5,37],[27,11],[-8,104],[-89,77],[-27,7],[-28,-38],[-43,15],[-14,-29],[-65,-6],[-124,72]],[[9073,1922],[10,110],[-57,36],[-13,41]],[[9013,2109],[36,60],[59,-55],[21,44],[161,141],[6,29]],[[9013,2109],[-17,24],[-21,-27],[-23,35],[-58,-100],[24,-27],[-4,-34],[-116,-19],[-1,-37],[-20,17],[-53,-2],[-91,-25],[0,41],[-24,18],[-103,-55],[-48,50],[-5,50],[-27,2]],[[9073,1922],[-19,-99],[-21,-5],[-31,77],[-17,-12],[-8,-68],[-31,-55],[27,-123],[-38,-13],[-4,-35],[-51,-51],[-42,12],[111,-125]],[[8949,1425],[73,-90],[-16,-33],[-61,-32]],[[8945,1270],[-540,735]],[[10420,2106],[53,-45],[55,-114],[-26,-80],[33,-26],[29,-76],[43,-44],[22,5],[18,-62],[56,-35],[-1,-22]],[[10702,1607],[-66,12],[-4,-59],[-33,57],[-34,-6],[-27,-104],[-28,-6],[6,-50],[-22,-41],[-97,-25],[-61,22],[-24,-35],[15,-52],[-47,3],[19,-27],[-13,-13],[-106,26],[-44,-35],[-20,12],[9,-66],[40,-67],[-19,-39],[18,-13],[-36,-26],[-1,-35]],[[10127,1040],[-41,29],[-91,-11],[-122,96],[3,21],[-49,53],[-39,3],[-28,35],[-24,-14],[-70,14],[-13,1]],[[9653,1267],[-82,20]],[[9571,1287],[-12,90],[20,22],[-7,38],[86,60],[-50,79],[-71,23],[-39,41]],[[9571,1287],[-82,-28],[-30,14],[-31,73],[-44,2]],[[9384,1348],[-74,44],[22,41],[-35,20],[5,23],[-27,3],[-8,71],[-31,16],[-26,-8],[12,-49],[-52,-69],[-26,61],[-80,11],[-13,-15],[-6,31],[-37,-25],[-18,-58],[-41,-20]],[[9384,1348],[-50,-60],[-2,-211]],[[9332,1077],[-148,-136]],[[9184,941],[-239,329]],[[10702,1607],[-1,-64],[81,-74],[24,-48],[23,-93],[44,-65],[-42,-47],[-57,-154],[-49,-5],[-52,-44],[-44,62],[-70,18],[-53,-54],[-3,-17],[42,-32],[12,-106],[50,-45],[12,-69],[-95,-15],[-45,-80],[4,-43],[-66,-77],[-3,-40],[-61,-59],[-34,27],[-42,-25],[1,-19],[37,0],[4,-34],[-39,-96],[71,44],[27,-25],[4,-46],[-36,-33],[7,-38],[40,-44],[14,-13],[-31,-21],[-22,74],[-65,-33],[-25,23]],[[10264,197],[-34,29],[18,56],[-62,36],[-3,70],[-30,39],[-43,42],[-75,11],[36,47],[-40,12],[-21,31],[1,93],[43,52],[-15,16],[25,60],[-34,28]],[[10030,819],[-23,55],[152,28],[-28,82],[24,7],[-28,15],[0,34]],[[9653,1267],[-29,-48],[35,-87],[-30,-10],[-17,-58]],[[9612,1064],[-109,31],[4,42],[-87,-3],[10,-49],[-33,-22],[-65,14]],[[10030,819],[-41,-67],[-33,-10],[-21,-53],[-31,19],[-25,-14],[-15,49],[-35,21],[-2,-23],[-22,-6],[16,-32],[-27,-38]],[[9794,665],[-92,21],[-32,68],[-33,-12],[4,35],[1,5]],[[9642,782],[-30,21],[-2,77]],[[9610,880],[2,184]],[[9610,880],[-50,70],[-25,3],[-13,-61],[-32,35],[-33,-18],[-17,26],[-24,-42],[-49,-15],[-76,-70]],[[9291,808],[-107,133]],[[9642,782],[-93,-33],[-32,16],[-54,-50],[14,-61],[23,-17],[43,10],[13,-26],[-65,-99],[-16,1],[7,29],[-18,-7]],[[9464,545],[-173,263]],[[10264,197],[-89,-35],[3,-15],[-47,-4],[16,-59],[-27,4],[-14,-27],[-47,11],[-23,-72],[-74,60]],[[9962,60],[-32,58],[76,128],[-6,34],[-132,15],[-3,64],[-32,37],[-53,15],[65,100],[-20,84],[13,38],[-44,32]],[[9962,60],[-249,226],[-72,35],[-55,88],[-28,16],[-23,-12],[-68,80],[-3,52]]],"transform":{"scale":[0.00022221832304267266,0.00020156797454342135],"translate":[74.86765619707592,8.292488678509756]},"objects":{"India_AC":{"type":"GeometryCollection","geometries":[{"arcs":[[0,1,2]],"type":"Polygon","properties":{"ac_no":1,"name":"Ma njeshwar","state_code":"S11","ls_parent":"KASARAGOD"}},{"arcs":[[3,4,5,-2]],"type":"Polygon","properties":{"ac_no":2,"name":"Kasaragod","state_code":"S11","ls_parent":"KASARAGOD"}},{"arcs":[[6,7,8,-5,9]],"type":"Polygon","properties":{"ac_no":3,"name":"Udma","state_code":"S11","ls_parent":"KASARAGOD"}},{"arcs":[[10,11,12,-8,13]],"type":"Polygon","properties":{"ac_no":4,"name":"Kanhangad","state_code":"S11","ls_parent":"KASARAGOD"}},{"arcs":[[14,15,16,-12]],"type":"Polygon","properties":{"ac_no":5,"name":"Trikaripur","state_code":"S11","ls_parent":"KASARAGOD"}},{"arcs":[[17,18,19,20,21,-16]],"type":"Polygon","properties":{"ac_no":6,"name":"Payyannur","state_code":"S11","ls_parent":"KASARAGOD"}},{"arcs":[[22,23,24,25,-19]],"type":"Polygon","properties":{"ac_no":9,"name":"Irikkur","state_code":"S11","ls_parent":"KANNUR"}},{"arcs":[[-26,26,27,28,29,-20]],"type":"Polygon","properties":{"ac_no":8,"name":"Taliparamba","state_code":"S11","ls_parent":"KANNUR"}},{"arcs":[[-30,30,31,-21]],"type":"Polygon","properties":{"ac_no":7,"name":"Kalliasseri","state_code":"S11","ls_parent":"KASARAGOD"}},{"arcs":[[32,33,34,35,-24]],"type":"Polygon","properties":{"ac_no":16,"name":"Peravoor","state_code":"S11","ls_parent":"KANNUR"}},{"arcs":[[-36,36,37,38,-27,-25]],"type":"Polygon","properties":{"ac_no":15,"name":"Mattannur","state_code":"S11","ls_parent":"KANNUR"}},{"arcs":[[39,40,-31,-29]],"type":"Polygon","properties":{"ac_no":10,"name":"Azhikode","state_code":"S11","ls_parent":"KANNUR"}},{"arcs":[[41,42,43,44,45,-34]],"type":"Polygon","properties":{"ac_no":17,"name":"Mananthavady (ST)","state_code":"S11","ls_parent":"WAYANAD"}},{"arcs":[[-39,46,47,-40,-28]],"type":"Polygon","properties":{"ac_no":11,"name":"Kannur","state_code":"S11","ls_parent":"KANNUR"}},{"arcs":[[-38,48,49,50,-47]],"type":"Polygon","properties":{"ac_no":12,"name":"Dharmadam","state_code":"S11","ls_parent":"KANNUR"}},{"arcs":[[-37,-35,-46,51,52,53,-49]],"type":"Polygon","properties":{"ac_no":14,"name":"Kuthuparamba","state_code":"S11","ls_parent":"VADAKARA"}},{"arcs":[[54,55,-43,56]],"type":"Polygon","properties":{"ac_no":18,"name":"Sulthanbathery (S","state_code":"S11","ls_parent":"WAYANAD"}},{"arcs":[[-54,57,58,-50],[59]],"type":"Polygon","properties":{"ac_no":13,"name":"Thalassery","state_code":"S11","ls_parent":"VADAKARA"}},{"arcs":[[-45,60,61,62,63,-52]],"type":"Polygon","properties":{"ac_no":22,"name":"Nadapuram","state_code":"S11","ls_parent":"VADAKARA"}},{"arcs":[[-56,64,65,66,67,68,-61,-44]],"type":"Polygon","properties":{"ac_no":19,"name":"Kalpetta","state_code":"S11","ls_parent":"WAYANAD"}},{"arcs":[[-58,-53,-64,69,70,71]],"type":"Polygon","properties":{"ac_no":20,"name":"Vadakara","state_code":"S11","ls_parent":"VADAKARA"}},{"arcs":[[-63,72,73,-70]],"type":"Polygon","properties":{"ac_no":21,"name":"Kuttiadi","state_code":"S11","ls_parent":"VADAKARA"}},{"arcs":[[-69,74,75,-73,-62]],"type":"Polygon","properties":{"ac_no":24,"name":"Perambra","state_code":"S11","ls_parent":"VADAKARA"}},{"arcs":[[76,77,78,-75,-68]],"type":"Polygon","properties":{"ac_no":25,"name":"Balusseri (SC)","state_code":"S11","ls_parent":"KOZHIKODE"}},{"arcs":[[-74,-76,-79,79,80,-71]],"type":"Polygon","properties":{"ac_no":23,"name":"Quilandy","state_code":"S11","ls_parent":"VADAKARA"}},{"arcs":[[81,82,83,-77]],"type":"Polygon","properties":{"ac_no":31,"name":"Koduvally","state_code":"S11","ls_parent":"KOZHIKODE"}},{"arcs":[[-67,84,85,86,87,-82]],"type":"Polygon","properties":{"ac_no":32,"name":"Thiruvambadi","state_code":"S11","ls_parent":"WAYANAD"}},{"arcs":[[88,89,90,-85,-66]],"type":"Polygon","properties":{"ac_no":35,"name":"Nilambur","state_code":"S11","ls_parent":"WAYANAD"}},{"arcs":[[-84,91,92,93,-80,-78]],"type":"Polygon","properties":{"ac_no":26,"name":"Elathur","state_code":"S11","ls_parent":"KOZHIKODE"}},{"arcs":[[-91,94,95,96,97,-86]],"type":"Polygon","properties":{"ac_no":34,"name":"Ernad","state_code":"S11","ls_parent":"WAYANAD"}},{"arcs":[[-88,98,99,100,101,-92,-83]],"type":"Polygon","properties":{"ac_no":30,"name":"Kunnamangalam","state_code":"S11","ls_parent":"KOZHIKODE"}},{"arcs":[[-102,102,103,-93]],"type":"Polygon","properties":{"ac_no":27,"name":"Kozhikode North","state_code":"S11","ls_parent":"KOZHIKODE"}},{"arcs":[[-101,104,105,-103]],"type":"Polygon","properties":{"ac_no":28,"name":"Kozhikode South","state_code":"S11","ls_parent":"KOZHIKODE"}},{"arcs":[[-98,106,107,108,109,-99,-87]],"type":"Polygon","properties":{"ac_no":33,"name":"Kondotty","state_code":"S11","ls_parent":"MALAPPURAM"}},{"arcs":[[110,111,112,-95,-90]],"type":"Polygon","properties":{"ac_no":36,"name":"Wandoor (SC)","state_code":"S11","ls_parent":"WAYANAD"}},{"arcs":[[-100,-110,113,114,-105]],"type":"Polygon","properties":{"ac_no":29,"name":"Beypore","state_code":"S11","ls_parent":"KOZHIKODE"}},{"arcs":[[115,116,117,118,119,120,-112]],"type":"Polygon","properties":{"ac_no":54,"name":"Mannarkkad","state_code":"S11","ls_parent":"PALAKKAD"}},{"arcs":[[-113,-121,121,122,123,-96]],"type":"Polygon","properties":{"ac_no":37,"name":"Manjeri","state_code":"S11","ls_parent":"MALAPPURAM"}},{"arcs":[[-124,124,125,126,-107,-97]],"type":"Polygon","properties":{"ac_no":40,"name":"Malappuram","state_code":"S11","ls_parent":"MALAPPURAM"}},{"arcs":[[-109,127,128,129,-114]],"type":"Polygon","properties":{"ac_no":42,"name":"Vallikunnu","state_code":"S11","ls_parent":"MALAPPURAM"}},{"arcs":[[-127,130,131,-128,-108]],"type":"Polygon","properties":{"ac_no":41,"name":"Vengara","state_code":"S11","ls_parent":"MALAPPURAM"}},{"arcs":[[-132,132,133,134,135,-129]],"type":"Polygon","properties":{"ac_no":43,"name":"Tirurangadi","state_code":"S11","ls_parent":"PONNANI"}},{"arcs":[[136,137,138,-125,-123]],"type":"Polygon","properties":{"ac_no":39,"name":"Mankada","state_code":"S11","ls_parent":"MALAPPURAM"}},{"arcs":[[-120,139,140,141,-137,-122]],"type":"Polygon","properties":{"ac_no":38,"name":"Perinthalmanna","state_code":"S11","ls_parent":"MALAPPURAM"}},{"arcs":[[-139,142,143,144,145,-133,-131,-126]],"type":"Polygon","properties":{"ac_no":46,"name":"Kottakkal","state_code":"S11","ls_parent":"PONNANI"}},{"arcs":[[146,147,-135]],"type":"Polygon","properties":{"ac_no":44,"name":"Tanur","state_code":"S11","ls_parent":"PONNANI"}},{"arcs":[[-118,148,149,150,151]],"type":"Polygon","properties":{"ac_no":53,"name":"Kongad(SC)","state_code":"S11","ls_parent":"PALAKKAD"}},{"arcs":[[-146,152,153,-147,-134]],"type":"Polygon","properties":{"ac_no":45,"name":"Tirur","state_code":"S11","ls_parent":"PONNANI"}},{"arcs":[[-119,-152,154,155,156,-140]],"type":"Polygon","properties":{"ac_no":52,"name":"Ottappalam","state_code":"S11","ls_parent":"PALAKKAD"}},{"arcs":[[-157,157,158,-141]],"type":"Polygon","properties":{"ac_no":51,"name":"Shornur","state_code":"S11","ls_parent":"PALAKKAD"}},{"arcs":[[-142,-159,159,160,-143,-138]],"type":"Polygon","properties":{"ac_no":50,"name":"Pattambi","state_code":"S11","ls_parent":"PALAKKAD"}},{"arcs":[[161,162,163,-149,-117]],"type":"Polygon","properties":{"ac_no":55,"name":"Malampuzha","state_code":"S11","ls_parent":"PALAKKAD"}},{"arcs":[[-145,164,165,166,-153]],"type":"Polygon","properties":{"ac_no":47,"name":"Thavanur","state_code":"S11","ls_parent":"PONNANI"}},{"arcs":[[-161,167,168,169,-165,-144]],"type":"Polygon","properties":{"ac_no":49,"name":"Thrithala","state_code":"S11","ls_parent":"PONNANI"}},{"arcs":[[-170,170,171,172,-166]],"type":"Polygon","properties":{"ac_no":48,"name":"Ponnani","state_code":"S11","ls_parent":"PONNANI"}},{"arcs":[[173,174,175,176,-163]],"type":"Polygon","properties":{"ac_no":58,"name":"Chittur","state_code":"S11","ls_parent":"ALATHUR (SC)"}},{"arcs":[[-177,177,178,-150,-164]],"type":"Polygon","properties":{"ac_no":56,"name":"Palakkad","state_code":"S11","ls_parent":"PALAKKAD"}},{"arcs":[[-160,-158,-156,179,180,181,182,-168]],"type":"Polygon","properties":{"ac_no":61,"name":"Chelakkara (SC)","state_code":"S11","ls_parent":"ALATHUR (SC)"}},{"arcs":[[-179,183,184,-180,-155,-151]],"type":"Polygon","properties":{"ac_no":57,"name":"Tarur (SC)","state_code":"S11","ls_parent":"ALATHUR (SC)"}},{"arcs":[[-169,-183,185,186,187,-171]],"type":"Polygon","properties":{"ac_no":62,"name":"Kunnamkulam","state_code":"S11","ls_parent":"ALATHUR (SC)"}},{"arcs":[[-176,188,189,190,-184,-178]],"type":"Polygon","properties":{"ac_no":60,"name":"Alathur","state_code":"S11","ls_parent":"ALATHUR (SC)"}},{"arcs":[[-188,191,192,-172]],"type":"Polygon","properties":{"ac_no":63,"name":"Guruvayoor","state_code":"S11","ls_parent":"THRISSUR"}},{"arcs":[[193,194,195,-186,-182]],"type":"Polygon","properties":{"ac_no":65,"name":"Wadakkanchery","state_code":"S11","ls_parent":"ALATHUR (SC)"}},{"arcs":[[196,197,198,-189,-175]],"type":"Polygon","properties":{"ac_no":59,"name":"Nemmara","state_code":"S11","ls_parent":"ALATHUR (SC)"}},{"arcs":[[-196,199,200,201,-192,-187]],"type":"Polygon","properties":{"ac_no":64,"name":"Manalur","state_code":"S11","ls_parent":"THRISSUR"}},{"arcs":[[-185,-191,202,203,204,-194,-181]],"type":"Polygon","properties":{"ac_no":66,"name":"Ollur","state_code":"S11","ls_parent":"THRISSUR"}},{"arcs":[[-205,205,-200,-195]],"type":"Polygon","properties":{"ac_no":67,"name":"Thrissur","state_code":"S11","ls_parent":"THRISSUR"}},{"arcs":[[-204,206,207,208,209,-201,-206]],"type":"Polygon","properties":{"ac_no":68,"name":"Nattika(SC)","state_code":"S11","ls_parent":"THRISSUR"}},{"arcs":[[-190,-199,210,211,-207,-203]],"type":"Polygon","properties":{"ac_no":71,"name":"Puthukkad","state_code":"S11","ls_parent":"THRISSUR"}},{"arcs":[[-198,212,213,214,215,216,-211]],"type":"Polygon","properties":{"ac_no":72,"name":"Chalakudy","state_code":"S11","ls_parent":"CHALAKUDY"}},{"arcs":[[-212,-217,217,218,-208]],"type":"Polygon","properties":{"ac_no":70,"name":"Irinjalakuda","state_code":"S11","ls_parent":"THRISSUR"}},{"arcs":[[-219,219,220,221,222,-209]],"type":"Polygon","properties":{"ac_no":69,"name":"Kaipamangalam","state_code":"S11","ls_parent":"CHALAKUDY"}},{"arcs":[[223,224,225,226,227,228]],"type":"Polygon","properties":{"ac_no":88,"name":"Devikulam (SC)","state_code":"S11","ls_parent":"IDUKKI"}},{"arcs":[[-216,229,230,-220,-218]],"type":"Polygon","properties":{"ac_no":73,"name":"Kodungallur","state_code":"S11","ls_parent":"CHALAKUDY"}},{"arcs":[[231,232,233,234,235,-230,-215]],"type":"Polygon","properties":{"ac_no":75,"name":"Angamaly","state_code":"S11","ls_parent":"CHALAKUDY"}},{"arcs":[[-214,236,-229,237,238,-232]],"type":"Polygon","properties":{"ac_no":87,"name":"Kothamangalam","state_code":"S11","ls_parent":"IDUKKI"}},{"arcs":[[-231,-236,239,240,241,-221]],"type":"Polygon","properties":{"ac_no":78,"name":"Paravur","state_code":"S11","ls_parent":"ERNAKULAM"}},{"arcs":[[-242,242,243,244,-222]],"type":"Polygon","properties":{"ac_no":79,"name":"Vypeen","state_code":"S11","ls_parent":"ERNAKULAM"}},{"arcs":[[245,246,247,-234]],"type":"Polygon","properties":{"ac_no":76,"name":"Aluva","state_code":"S11","ls_parent":"CHALAKUDY"}},{"arcs":[[-233,-239,248,249,250,-246]],"type":"Polygon","properties":{"ac_no":74,"name":"Perumbavoor","state_code":"S11","ls_parent":"CHALAKUDY"}},{"arcs":[[-248,251,252,253,254,-240,-235]],"type":"Polygon","properties":{"ac_no":77,"name":"Kalamassery","state_code":"S11","ls_parent":"ERNAKULAM"}},{"arcs":[[-238,-228,255,256,-249]],"type":"Polygon","properties":{"ac_no":87,"name":"Kothamangalam","state_code":"S11","ls_parent":"IDUKKI"}},{"arcs":[[-251,257,258,-252,-247]],"type":"Polygon","properties":{"ac_no":84,"name":"Kunnathunad (SC)","state_code":"S11","ls_parent":"CHALAKUDY"}},{"arcs":[[259,260,-243,-241,-255]],"type":"Polygon","properties":{"ac_no":82,"name":"Ernakulam","state_code":"S11","ls_parent":"ERNAKULAM"}},{"arcs":[[-257,261,262,263,-258,-250]],"type":"Polygon","properties":{"ac_no":86,"name":"Muvattupuzha","state_code":"S11","ls_parent":"IDUKKI"}},{"arcs":[[264,265,266,-260,-254]],"type":"Polygon","properties":{"ac_no":83,"name":"Thrikkakara","state_code":"S11","ls_parent":"ERNAKULAM"}},{"arcs":[[-227,267,268,269,-262,-256]],"type":"Polygon","properties":{"ac_no":90,"name":"Thodupuzha","state_code":"S11","ls_parent":"IDUKKI"}},{"arcs":[[270,271,272,-225]],"type":"Polygon","properties":{"ac_no":89,"name":"Udumbanchola","state_code":"S11","ls_parent":"IDUKKI"}},{"arcs":[[273,274,275,276,-266]],"type":"Polygon","properties":{"ac_no":81,"name":"Thripunithura","state_code":"S11","ls_parent":"ERNAKULAM"}},{"arcs":[[-259,-264,277,278,-274,-265,-253]],"type":"Polygon","properties":{"ac_no":85,"name":"Piravom","state_code":"S11","ls_parent":"KOTTAYAM"}},{"arcs":[[-261,-267,-277,279,280,281,-244]],"type":"Polygon","properties":{"ac_no":80,"name":"Kochi","state_code":"S11","ls_parent":"ERNAKULAM"}},{"arcs":[[-273,282,283,-268,-226]],"type":"Polygon","properties":{"ac_no":91,"name":"Idukki","state_code":"S11","ls_parent":"IDUKKI"}},{"arcs":[[-276,284,285,-280]],"type":"Polygon","properties":{"ac_no":102,"name":"Aroor","state_code":"S11","ls_parent":"ALAPPUZHA"}},{"arcs":[[-270,286,287,288,289,-278,-263]],"type":"Polygon","properties":{"ac_no":94,"name":"Kaduthuruthy","state_code":"S11","ls_parent":"KOTTAYAM"}},{"arcs":[[290,291,-285,-275,-279,-290]],"type":"Polygon","properties":{"ac_no":95,"name":"Vaikom (SC)","state_code":"S11","ls_parent":"KOTTAYAM"}},{"arcs":[[-269,-284,292,293,294,295,-287]],"type":"Polygon","properties":{"ac_no":93,"name":"Pala","state_code":"S11","ls_parent":"KOTTAYAM"}},{"arcs":[[-281,-286,-292,296,297,298]],"type":"Polygon","properties":{"ac_no":103,"name":"Cherthala","state_code":"S11","ls_parent":"ALAPPUZHA"}},{"arcs":[[-283,-272,299,300,301,302,-293]],"type":"Polygon","properties":{"ac_no":92,"name":"Peerumade","state_code":"S11","ls_parent":"IDUKKI"}},{"arcs":[[-303,303,304,-294]],"type":"Polygon","properties":{"ac_no":101,"name":"Poonjar","state_code":"S11","ls_parent":"PATHANAMTHITTA"}},{"arcs":[[305,306,307,308,-297,-291,-289]],"type":"Polygon","properties":{"ac_no":96,"name":"Ettumanoor","state_code":"S11","ls_parent":"KOTTAYAM"}},{"arcs":[[-296,309,310,311,-306,-288]],"type":"Polygon","properties":{"ac_no":98,"name":"Puthuppally","state_code":"S11","ls_parent":"KOTTAYAM"}},{"arcs":[[-309,312,313,314,-298]],"type":"Polygon","properties":{"ac_no":104,"name":"Alappuzha","state_code":"S11","ls_parent":"ALAPPUZHA"}},{"arcs":[[-312,315,316,-307]],"type":"Polygon","properties":{"ac_no":97,"name":"Kottayam","state_code":"S11","ls_parent":"KOTTAYAM"}},{"arcs":[[-305,317,318,319,-310,-295]],"type":"Polygon","properties":{"ac_no":100,"name":"Kanjirappally","state_code":"S11","ls_parent":"PATHANAMTHITTA"}},{"arcs":[[-308,-317,320,321,322,323,324,-313]],"type":"Polygon","properties":{"ac_no":106,"name":"Kuttanad","state_code":"S11","ls_parent":"MAVELIKKARA (SC)"}},{"arcs":[[-311,-320,325,-321,-316]],"type":"Polygon","properties":{"ac_no":99,"name":"Changanassery","state_code":"S11","ls_parent":"MAVELIKKARA (SC)"}},{"arcs":[[-325,326,327,-314]],"type":"Polygon","properties":{"ac_no":105,"name":"Ambalappuzha","state_code":"S11","ls_parent":"ALAPPUZHA"}},{"arcs":[[-319,328,329,330,-322,-326]],"type":"Polygon","properties":{"ac_no":111,"name":"Thiruvalla","state_code":"S11","ls_parent":"PATHANAMTHITTA"}},{"arcs":[[331,332,333,334,335,336,-301]],"type":"Polygon","properties":{"ac_no":114,"name":"Konni","state_code":"S11","ls_parent":"PATHANAMTHITTA"}},{"arcs":[[-304,-302,-337,337,-329,-318]],"type":"Polygon","properties":{"ac_no":112,"name":"Ranni","state_code":"S11","ls_parent":"PATHANAMTHITTA"}},{"arcs":[[-336,338,339,-330,-338]],"type":"Polygon","properties":{"ac_no":113,"name":"Aranmula","state_code":"S11","ls_parent":"PATHANAMTHITTA"}},{"arcs":[[340,341,342,-327,-324]],"type":"Polygon","properties":{"ac_no":107,"name":"Haripad","state_code":"S11","ls_parent":"ALAPPUZHA"}},{"arcs":[[-340,343,344,345,-341,-323,-331]],"type":"Polygon","properties":{"ac_no":110,"name":"Chengannur","state_code":"S11","ls_parent":"MAVELIKKARA (SC)"}},{"arcs":[[-345,346,347,348,349]],"type":"Polygon","properties":{"ac_no":109,"name":"Mavelikkara (SC)","state_code":"S11","ls_parent":"MAVELIKKARA (SC)"}},{"arcs":[[-346,-350,350,351,-342]],"type":"Polygon","properties":{"ac_no":108,"name":"Kayamkulam","state_code":"S11","ls_parent":"ALAPPUZHA"}},{"arcs":[[-339,-335,352,353,354,-347,-344]],"type":"Polygon","properties":{"ac_no":115,"name":"Adoor (SC)","state_code":"S11","ls_parent":"PATHANAMTHITTA"}},{"arcs":[[355,356,-353,-334]],"type":"Polygon","properties":{"ac_no":120,"name":"Pathanapuram","state_code":"S11","ls_parent":"MAVELIKKARA (SC)"}},{"arcs":[[357,358,359,-351,-349]],"type":"Polygon","properties":{"ac_no":116,"name":"Karunagappally","state_code":"S11","ls_parent":"ALAPPUZHA"}},{"arcs":[[360,361,362,363,-358,-348,-355]],"type":"Polygon","properties":{"ac_no":118,"name":"Kunnathur (SC)","state_code":"S11","ls_parent":"MAVELIKKARA (SC)"}},{"arcs":[[-333,364,365,366,367,-356]],"type":"Polygon","properties":{"ac_no":121,"name":"Punalur","state_code":"S11","ls_parent":"KOLLAM"}},{"arcs":[[-354,-357,-368,368,369,370,-361]],"type":"Polygon","properties":{"ac_no":119,"name":"Kottarakkara","state_code":"S11","ls_parent":"MAVELIKKARA (SC)"}},{"arcs":[[-364,371,372,-359]],"type":"Polygon","properties":{"ac_no":117,"name":"Chavara","state_code":"S11","ls_parent":"KOLLAM"}},{"arcs":[[-371,373,374,375,-362]],"type":"Polygon","properties":{"ac_no":123,"name":"Kundara","state_code":"S11","ls_parent":"KOLLAM"}},{"arcs":[[376,377,-372,-363,-376]],"type":"Polygon","properties":{"ac_no":124,"name":"Kollam","state_code":"S11","ls_parent":"KOLLAM"}},{"arcs":[[-367,378,379,380,381,-369]],"type":"Polygon","properties":{"ac_no":122,"name":"Chadayamangalam","state_code":"S11","ls_parent":"KOLLAM"}},{"arcs":[[382,383,-377,-375]],"type":"Polygon","properties":{"ac_no":125,"name":"Eravipuram","state_code":"S11","ls_parent":"KOLLAM"}},{"arcs":[[-382,384,385,-383,-374,-370]],"type":"Polygon","properties":{"ac_no":126,"name":"Chathannoor","state_code":"S11","ls_parent":"KOLLAM"}},{"arcs":[[-381,386,387,388,-385]],"type":"Polygon","properties":{"ac_no":127,"name":"Varkala","state_code":"S11","ls_parent":"ATTINGAL"}},{"arcs":[[-366,389,390,391,392,393,-379]],"type":"Polygon","properties":{"ac_no":131,"name":"Vamanapuram","state_code":"S11","ls_parent":"ATTINGAL"}},{"arcs":[[-380,-394,394,-387]],"type":"Polygon","properties":{"ac_no":128,"name":"Attingal (SC)","state_code":"S11","ls_parent":"ATTINGAL"}},{"arcs":[[-393,395,396,397,-388,-395]],"type":"Polygon","properties":{"ac_no":129,"name":"Chirayinkeezhu","state_code":"S11","ls_parent":"ATTINGAL"}},{"arcs":[[398,399,400,401,402,-391]],"type":"Polygon","properties":{"ac_no":136,"name":"Aruvikkara","state_code":"S11","ls_parent":"ATTINGAL"}},{"arcs":[[-392,-403,403,404,-396]],"type":"Polygon","properties":{"ac_no":130,"name":"Nedumangad","state_code":"S11","ls_parent":"ATTINGAL"}},{"arcs":[[405,406,407,-397,-405]],"type":"Polygon","properties":{"ac_no":132,"name":"Kazhakoottam","state_code":"S11","ls_parent":"THIRUVANANTHAPURA"}},{"arcs":[[408,409,410,-400]],"type":"Polygon","properties":{"ac_no":137,"name":"Parassala","state_code":"S11","ls_parent":"THIRUVANANTHAPURA"}},{"arcs":[[-402,411,412,-406,-404]],"type":"Polygon","properties":{"ac_no":133,"name":"Vattiyoorkavu(SC)","state_code":"S11","ls_parent":"THIRUVANANTHAPURA"}},{"arcs":[[-411,413,414,415,416,-412,-401]],"type":"Polygon","properties":{"ac_no":138,"name":"Kattakkada","state_code":"S11","ls_parent":"ATTINGAL"}},{"arcs":[[-417,417,418,-407,-413]],"type":"Polygon","properties":{"ac_no":134,"name":"Thiruvananthapura","state_code":"S11","ls_parent":"THIRUVANANTHAPURA"}},{"arcs":[[-416,419,420,-418]],"type":"Polygon","properties":{"ac_no":135,"name":"Nemom","state_code":"S11","ls_parent":"THIRUVANANTHAPURA"}},{"arcs":[[-410,421,422,-414]],"type":"Polygon","properties":{"ac_no":140,"name":"Neyyattinkara","state_code":"S11","ls_parent":"THIRUVANANTHAPURA"}},{"arcs":[[-423,423,-420,-415]],"type":"Polygon","properties":{"ac_no":139,"name":"Kovalam","state_code":"S11","ls_parent":"THIRUVANANTHAPURA"}}]}}}