{"type":"Topology","arcs":[[[28233,18978],[-104,-121],[2,-26],[27,-1],[-28,-37],[20,-18],[-79,-56],[26,-17],[-50,-13],[35,-24],[-41,-15],[-10,17],[-32,-19],[19,-35],[-36,7],[44,-37],[-44,9],[-21,-66],[-19,-21],[-24,9],[16,-29],[-43,1],[0,-24],[-22,13],[-14,-34],[-74,-101],[-148,-43],[2,-69],[-95,-35],[-79,-149],[-107,-97],[14,-102],[-117,-42],[3,-28],[54,-21],[-13,-28],[25,-35],[-19,-42],[19,-33],[68,1],[33,-35],[-77,-40],[-13,-68],[14,-32]],[[27345,17442],[-51,-128],[29,-210],[-46,-40]],[[27277,17064],[-147,0],[7,129],[-65,3],[-25,-55],[-58,10],[-53,-56],[-5,32],[46,80],[-49,50],[-50,1],[-50,-34],[-36,-68],[-63,16],[5,152],[-67,62],[-86,-35],[-143,-150],[-31,8],[-33,111],[-78,-40],[-43,23],[-6,68],[-87,41],[-86,-26],[-108,-100],[-36,9]],[[25930,17295],[122,255],[14,79],[-106,35],[-108,-19],[-11,23],[64,150],[-19,195]],[[25886,18013],[180,426],[108,25],[3,107]],[[26177,18571],[88,93],[44,5],[8,62],[80,37],[19,78],[34,25],[52,-13],[83,88],[972,81],[676,-49]],[[25886,18013],[-228,-204],[-363,-149],[-141,-7],[-57,-57]],[[25097,17596],[-78,-118],[-175,-24]],[[24844,17454],[-119,65],[46,104],[11,100],[-382,-138],[-68,-89],[-196,-11],[-98,38],[-56,-46],[-199,-39],[-122,-114],[-41,-94],[-120,-41],[-68,-76],[-49,-4],[-64,-53],[-44,-84],[-244,-207],[14,-48],[-77,-59]],[[22968,16658],[-35,-55],[-100,-1],[-95,-140],[-14,-82],[-32,-10],[-37,34],[-56,-77],[-108,-22],[-29,-37]],[[22462,16268],[59,163],[0,121],[-23,38],[-79,40],[2,251],[-31,93],[52,93],[-1,71],[-34,67],[-68,52],[-54,124]],[[22285,17381],[69,34],[83,0],[23,94],[98,-42],[31,8],[38,54],[75,-47],[55,5],[68,94],[93,31],[19,47],[122,-17],[88,42],[32,26],[19,106],[81,30],[1045,356],[930,313],[317,-143],[416,139],[190,60]],[[25930,17295],[-416,-168],[-5,-45],[67,-57],[168,-29]],[[25744,16996],[-36,-98],[18,-78],[47,-68],[-11,-138],[-67,-19],[-197,40],[-103,-15],[-62,-56],[-228,-24],[-122,22],[-95,77]],[[24888,16639],[35,65],[114,38],[14,66],[22,8],[-26,55],[21,51],[17,17],[31,-17],[15,42],[-28,24],[0,65],[57,-22],[10,41],[24,-8],[18,40],[88,20],[-138,409],[-65,63]],[[24835,17391],[-110,-181],[-115,-36],[-455,-39],[-112,-87],[-213,-178],[9,-37],[63,-51],[-54,-111],[-20,-11],[-52,23],[-59,47],[-173,-187],[-85,-255]],[[23459,16288],[-122,18],[-87,121],[-174,123],[-44,-27],[5,44],[-69,91]],[[24844,17454],[-9,-63]],[[27411,17352],[5,-38],[-46,-6],[-3,-30],[53,-34],[10,-70],[59,17],[56,-22],[-26,-65],[10,-48],[40,1],[44,-70],[37,10],[84,-92],[63,17],[9,-175],[47,-70],[-60,-28],[-12,-126],[-78,-47],[17,-58],[-46,-33],[-21,-60],[13,-29],[68,-63],[-14,59],[62,31],[21,42],[37,1],[10,-182],[58,73],[42,108],[140,13],[31,-12],[-6,-38],[45,-38],[28,47],[3,-55],[16,3],[17,47],[28,-43],[-23,-21],[56,-15],[6,-35],[40,-36],[51,-120],[57,-57],[-39,-25],[-86,-4],[-9,-51],[-97,-89],[46,-18],[-60,-7],[-2,-31],[-31,4],[22,-33],[-234,-107],[-8,-35],[-41,0],[33,-41],[-50,-33],[-6,-60],[-102,24],[-57,53],[-13,40],[24,42],[-158,-40],[-85,-30],[-26,16],[8,39],[-96,-72],[-168,-18],[-68,-34],[-32,-48],[-43,16],[-39,-20],[-91,11],[-215,-102],[-70,10],[-102,-46]],[[26544,15316],[27,160],[-1,220],[63,69],[77,32],[145,-21],[62,20],[210,182],[34,54],[-10,69],[-39,58],[-2,207],[-19,38],[-93,-16],[-95,296]],[[26903,16684],[8,86],[139,16],[122,129],[36,108],[69,41]],[[27345,17442],[99,-50],[4,-20],[-37,-20]],[[24888,16639],[-44,-16],[-79,-81],[-76,-23],[-193,33]],[[24496,16552],[-105,45],[-33,80],[104,141],[208,129],[-8,163],[50,39],[110,33],[51,124],[-33,93],[-5,-8]],[[26903,16684],[-22,-49],[-143,38],[-50,42],[-30,133],[-93,65],[-39,63],[-211,118],[-50,6],[-87,-233],[-89,-88],[-67,-6]],[[26022,16773],[-54,33],[-30,57],[11,169],[-157,36],[-29,-19],[-19,-53]],[[24496,16552],[-90,-181],[-34,-14],[-30,-140],[-58,-65],[-44,-99],[-74,-9],[-59,-70]],[[24107,15974],[-54,172],[-39,-99],[-181,-97],[-55,2],[-32,80]],[[23746,16032],[-38,183],[-26,16],[-75,-14],[-94,-57],[-46,-4],[-30,98],[22,34]],[[26544,15316],[-75,29],[-20,73],[-91,23],[-29,45],[-61,34],[-15,-18],[-28,14],[-31,-30],[-42,21],[-19,-62],[-74,-31]],[[26059,15414],[-53,67]],[[26006,15481],[55,-14],[202,197],[-6,140],[146,68],[75,86],[96,191],[11,89],[-30,57],[-71,21],[-165,1],[-51,78],[-158,94],[-59,83],[-29,201]],[[26006,15481],[-26,34],[-20,-17],[-45,-60],[15,-37],[-21,-38],[-45,88]],[[25864,15451],[77,82],[-61,141],[85,55],[-28,76],[-51,43],[37,42],[70,19],[-11,109],[-106,23],[-43,-30],[-95,94],[-102,47],[-85,2],[-9,-56],[-114,55],[-161,-1],[-86,101],[-50,-19],[-32,18],[-33,-30],[-53,25],[7,36],[-37,42],[0,32],[-58,9],[-79,116],[41,71],[1,86]],[[22462,16268],[9,-112],[-25,-45],[-101,-52],[15,-108],[-124,-69],[-3,-84],[-73,59],[-64,-16],[-6,-25],[33,-45]],[[22123,15771],[-120,-20],[-188,-123],[-71,-20],[-172,19],[-26,258],[32,1],[67,145],[-43,28],[-23,123],[-148,74],[-182,-115],[-155,48],[-39,-18],[10,-28],[78,-44],[-18,-43],[-89,-53],[-5,-49],[33,-71],[95,-95],[-36,-73],[-100,-74],[-118,44],[-38,-10],[-64,-90],[-72,41]],[[20731,15626],[-25,26],[3,34],[113,53],[10,45],[-97,14],[-30,152],[-114,63],[-115,139],[14,34],[68,7],[109,-84],[71,73],[9,187],[-131,149],[4,138],[-52,136]],[[20568,16792],[-48,82],[6,92],[-48,63],[-98,29],[-17,68],[19,53],[-62,13],[-15,31],[46,10],[75,111],[49,6],[18,23],[47,-10],[25,-33],[-30,-56],[-27,-11],[7,-19],[68,-38],[30,-74],[43,-1],[12,37],[40,27],[46,-55],[69,-31],[40,9],[14,-37],[40,17],[85,-40],[123,71],[51,-17],[69,62],[65,15],[-2,-58],[88,-87],[45,-80],[70,103],[97,-19],[100,60],[4,35],[62,6],[38,40],[80,21],[43,-11],[71,78],[88,1],[75,44],[45,-16],[71,75]],[[25864,15451],[-33,-25],[-59,2],[-25,25],[-5,113],[-21,12],[-89,-53],[-22,7],[55,119],[-34,53],[-53,-16],[-65,-159],[-41,76],[-11,137],[-94,-13],[-55,-78],[-57,24],[-216,231],[-85,54],[-28,-1],[-54,-71],[-179,-38],[-117,13]],[[24576,15863],[-37,0],[6,-140],[-60,34],[-16,60],[-27,7],[-38,-13],[-19,-128],[-237,215],[-41,76]],[[23746,16032],[-43,-14],[-13,-34],[94,-136],[-99,-30],[-33,36],[-63,11],[-60,-88],[17,-87],[43,-63],[95,-55],[247,-86],[19,-33],[-10,-44],[-203,-119]],[[23737,15290],[-19,42],[-131,-113],[-211,-206],[-225,-294]],[[23151,14719],[-29,-58],[-56,43],[-65,-16],[39,86],[-130,28],[-3,25],[-118,27],[1,23],[-34,18],[19,43],[-14,19],[25,4],[52,83],[29,12],[-44,67],[39,9],[9,21],[-22,12],[23,3],[6,31],[-24,2],[0,62],[-38,39],[33,91],[-71,51],[-40,-20],[-40,12],[25,80],[-1,47],[-48,12],[-41,-17],[-43,-55],[24,-68],[-16,-9],[-37,18],[-36,101],[-37,13],[-70,-143],[-166,16],[-77,-177],[-45,-171],[-97,-152]],[[22033,14931],[-112,165],[-1,1]],[[21920,15097],[53,114],[-12,65],[43,132],[-2,123],[122,193],[-1,47]],[[20731,15626],[61,-107],[65,-15],[23,-35],[-73,-58],[-37,-65],[-50,-8],[-54,46],[-48,-25],[-23,-255],[-84,-125],[36,-35],[-7,-39],[-33,4],[19,-20],[-3,-61],[-30,3],[-9,-32],[-20,1],[26,-17],[62,16],[-5,-35],[-48,-22],[56,-33],[3,-46]],[[20558,14663],[-50,-16],[-84,-76],[-39,-84],[-13,-120],[-96,-16],[-67,32],[8,-149],[-29,-26],[-111,1],[-111,-60],[18,-55],[-14,-37],[-121,6],[-136,-51],[-80,112],[-87,-37],[-28,-62],[-45,-33]],[[19473,13992],[-63,182],[168,116],[38,110]],[[19616,14400],[180,38],[53,30],[76,145],[112,64],[20,57],[-18,87],[68,284],[-154,142],[-25,65],[48,63],[4,76],[-34,25],[33,51],[-79,233],[39,107],[0,45],[-31,48],[15,93],[-23,47],[-172,75]],[[19728,16175],[334,300],[19,29],[-14,62],[88,35],[54,51],[96,1],[55,54],[58,42],[150,43]],[[24576,15863],[187,-317],[145,-16],[20,-25],[5,-117],[-31,-64],[23,-115],[-77,-148],[6,-35]],[[24854,15026],[-37,44],[-22,-24],[27,3],[-10,-31],[-51,3],[-13,-38],[-63,31],[14,-51],[-42,-31],[-4,-37],[-8,39],[-41,-69],[-18,8],[11,-36],[-33,47],[-20,-19],[8,-43],[-31,63],[-48,6],[-13,-22],[-5,24],[-35,-41],[-30,29],[-2,-40],[-15,6]],[[24373,14847],[-1,33],[-55,13],[-4,-25],[-174,18],[-55,93],[-53,-10],[-22,-31],[-247,5],[26,41],[-19,44],[23,17],[-39,71],[-16,174]],[[26059,15414],[-71,-120],[-63,-44],[-10,-30],[48,-110],[-32,-25],[25,-26],[-7,-43],[-45,-24],[39,-40],[-38,-99],[-40,26],[0,-31],[-23,-15],[-89,-1],[-88,-79],[-73,-21],[-6,-34],[-36,-29],[-22,8],[2,33],[-33,8],[22,22]],[[25519,14740],[17,30],[-31,10],[-17,61],[26,53],[-36,81],[0,55],[-34,31],[-33,-2],[-2,55],[-47,24],[-61,3],[-24,-21],[-54,34],[5,22],[-88,12],[11,-23],[-23,8],[-10,-29],[-49,26],[-10,-36],[-32,27],[-4,-39],[-15,45],[-74,-17],[18,-30],[-43,-26],[28,-41],[-50,14],[-33,-41]],[[21920,15097],[-32,22],[-23,-46],[-60,-11],[-71,-47],[-12,-23],[40,-52],[-101,-26],[-21,-106],[-48,6],[-72,84],[-48,-122],[-32,-12],[-44,26],[-89,5],[-25,-22],[-29,-101],[-225,27],[-137,-82],[-79,27],[-43,-82],[-27,10],[-39,70],[-91,40],[-54,-19]],[[19616,14400],[3,16],[-91,5],[-179,-12],[-110,87],[-99,15],[-43,-103],[-68,3],[-92,126],[-5,162],[-74,39],[-71,-64],[-162,50]],[[18625,14724],[6,19],[-33,9],[-43,63],[-49,3],[15,34],[-47,13],[-23,-18],[-5,49],[47,7],[-2,57],[285,254],[517,596],[170,116],[36,-2],[132,78],[97,173]],[[23151,14719],[92,-108],[-43,-256],[-249,-215]],[[22951,14140],[-36,0],[-17,51],[-61,-11],[-43,63],[39,63],[-69,115],[-38,-14],[-128,81],[-80,-13],[-109,132],[-41,0],[-23,39],[-89,-17],[-54,46],[-347,17]],[[21855,14692],[178,239]],[[24373,14847],[-48,-109],[-104,-74],[-195,-95],[-251,-71],[-7,-57],[-46,-45],[-59,43],[-46,-116],[13,-87],[-37,-14],[28,-145]],[[23621,14077],[-378,-225],[-108,-29],[-244,-9],[-50,78],[-57,20]],[[22784,13912],[29,55],[70,55],[68,118]],[[25519,14740],[-110,-52],[-237,-151],[-65,-67],[0,-53],[-74,-31],[-5,-27],[-54,-31],[-69,95],[-6,-36],[-33,2],[-53,-39],[-30,48],[-37,-5],[-7,-27],[-6,18],[-212,-192],[-154,-78],[-26,-76],[-62,-49],[-262,-100],[-79,-72],[-115,-2],[-7,-34],[-34,-4],[-26,41],[-40,9],[-28,69],[-26,13],[-43,-22]],[[23619,13887],[40,81],[-38,109]],[[21855,14692],[-47,-109],[-174,-166]],[[21634,14417],[-141,-69],[-56,-171],[-273,-165],[12,-72]],[[21176,13940],[-475,-302]],[[20701,13638],[-378,-99]],[[20323,13539],[-420,-86],[-75,30],[-253,-18],[-51,-44],[-44,-197],[-90,-238],[-18,-3]],[[19372,12983],[-34,69],[-102,12],[4,51],[67,35],[-65,50],[32,69],[73,58],[52,76],[-98,161],[-59,17],[-2,39],[-72,53],[49,81],[-23,92]],[[19194,13846],[67,-15],[89,94],[57,-62],[64,10],[2,119]],[[22784,13912],[-30,-15],[-59,82],[-102,70],[-42,-49],[-11,23],[-56,-132],[-47,-54]],[[22437,13837],[-23,43],[-159,-37],[-93,33],[-82,-36],[-35,8],[-1,36],[-47,-8],[-44,50],[-8,94],[-77,50],[24,87],[-61,-8],[-58,128],[-139,140]],[[19194,13846],[-133,20],[-57,-22],[-12,-89],[-116,-80],[-6,-38],[29,-66],[-25,-34],[-47,-36],[-119,-2],[-86,-31],[-52,-128],[-105,-17],[-135,114]],[[18330,13437],[35,52],[49,22],[-38,69],[1,60],[-187,66],[0,52],[43,24],[-8,94],[-24,36],[10,88],[-33,48],[-58,13],[-22,53],[-33,-1],[-55,42],[-5,25]],[[18005,14180],[121,138],[189,87],[2,65],[12,-8],[13,39],[28,-51],[11,59],[20,-45],[39,15],[-6,28],[14,-17],[22,30],[8,-23],[35,8],[-14,39],[34,-33],[44,10],[-3,28],[27,-13],[31,45],[-14,36],[18,22],[-28,2],[13,41],[-22,14],[26,28]],[[22437,13837],[-21,-96],[84,-73],[-17,-24],[-97,-17],[-49,-143],[-10,-174],[43,-103],[6,-108],[83,-68],[52,-124]],[[22511,12907],[-62,-43],[-298,-85],[6,55],[-57,28],[6,42],[-60,-15],[-9,-43]],[[22037,12846],[-51,4],[-8,49],[-47,38],[10,42],[-40,-17],[-31,40],[-41,-44],[-47,69],[-21,-39],[-22,55],[-30,-4],[-12,17],[16,21],[-42,16],[42,60],[-29,45],[28,23],[-5,35],[-152,119],[21,108]],[[21576,13483],[14,80],[-12,69],[-60,70],[19,45],[-21,40],[2,96],[-64,25],[-131,-6],[-147,38]],[[23619,13887],[-66,-14],[-34,70],[-40,-48],[-160,-74],[-61,-67],[-68,-166],[-34,-32],[-26,3],[-11,-45],[-72,-57],[12,-32],[-37,-42],[6,-69],[-35,-6],[-8,-22],[-43,3],[37,-60],[-66,-33],[-84,-33],[-53,-113],[-81,47],[-8,-36],[-176,-154]],[[21576,13483],[-54,67],[-10,-376],[-103,-101],[-229,-128],[-66,21],[-26,52],[-149,60],[-30,-32],[-2,-50],[73,-3],[1,-36],[-43,-58],[-55,-3],[-42,36],[-59,132],[-24,29],[-28,-6]],[[20730,13087],[-39,63],[-22,128],[49,152],[-60,33],[43,175]],[[18330,13437],[-49,-56],[4,-56],[-47,-94],[-29,-7],[-47,46],[-88,25],[-107,-93],[-87,17],[-96,-63],[3,-177],[25,-8],[69,-193],[-35,4],[-57,-32],[-336,64],[-71,31],[-1,48],[-70,36],[-28,42],[-438,-13]],[[16845,12958],[13,127],[-30,102],[-43,27],[-25,69],[6,103],[-63,91],[0,45],[25,61],[115,96],[49,71],[82,41],[77,128]],[[17051,13919],[11,-28],[158,62],[166,20],[117,-11],[127,50],[200,31],[75,39],[100,98]],[[14769,13899],[-549,-369],[-55,-88],[-18,-88],[90,-507],[37,-89]],[[14274,12758],[-109,11],[-233,130],[-171,-73],[-53,18],[-78,84],[-73,-2],[-60,-59]],[[13497,12867],[-10,73],[-102,117],[-271,-68],[-63,15]],[[13051,13004],[-15,261],[89,431],[-9,373]],[[13116,14069],[148,71],[9,141],[65,116],[230,-57],[153,22],[106,11],[159,-42],[122,-62],[252,-64],[136,-82],[-4,-98],[277,-126]],[[19372,12983],[-135,-25],[-143,7],[-64,-188],[-109,-79],[-150,-163],[12,-60],[117,-52],[32,-44],[-54,-39],[2,-68],[24,-29],[-16,-57],[-79,-15],[-61,65],[-75,-63],[-39,21],[-43,-22],[-95,50],[-133,-45],[-64,-51],[-54,-6]],[[18245,12120],[3,31],[-28,-2],[-28,-5],[-23,50],[-95,56],[-99,8],[-77,-35],[-32,25],[-12,-25],[-37,14],[-62,-18],[8,-23],[-42,12],[-47,-28],[11,-19],[-59,-87],[11,-20],[-33,4],[6,53],[-125,-48],[2,144],[29,17],[-140,57],[-153,-90],[-70,-1],[-22,61],[-38,23],[-6,-21],[-71,-13],[-37,-60],[97,-22],[-79,-26],[-47,-61],[-37,12],[39,24],[8,46],[-47,-52],[-12,26],[-198,-57],[-50,11],[39,19],[-16,24],[-297,3],[-68,23],[-34,-11],[-15,-32],[-73,-21],[14,23]],[[16203,12109],[20,24],[-47,46],[23,95],[-43,134],[91,4],[47,73],[-50,75],[24,47],[23,4],[-10,40],[-48,70]],[[16233,12721],[126,45],[60,111],[106,63],[124,30],[196,-12]],[[16233,12721],[-64,-17],[-17,-39],[-71,-24],[-119,6],[-54,-92]],[[15908,12555],[-73,170],[13,125],[-20,29],[-86,8],[-46,126],[32,127],[-47,85],[55,129],[-35,139]],[[15701,13493],[-132,385]],[[15569,13878],[416,91],[334,41],[338,-14],[4,-1],[221,-32],[62,-64],[107,20]],[[20730,13087],[-38,-58],[11,-64],[48,-104],[70,-71],[-4,-76],[-47,-13],[-89,108],[-55,34],[-55,-40],[-6,-57],[-72,-28]],[[20493,12718],[-118,3],[-75,62],[-111,-18]],[[20189,12765],[33,103],[43,22],[7,53],[-60,87],[34,59],[98,62],[84,94],[-92,37],[23,87],[-62,56],[73,37],[13,39],[-60,38]],[[22037,12846],[-13,-23],[47,-7],[8,-32],[-45,7],[3,-87],[-76,18],[-43,-41],[19,-28],[-49,-4],[5,96],[-55,-15],[-9,21],[-37,0],[-57,-33],[-13,-18],[-14,16],[-13,-83],[-22,-11],[-22,27],[5,-20],[-75,-77],[-33,10],[-113,-30],[-9,-41],[-24,-7],[58,-96],[-54,-6],[-11,22],[-82,-76],[-112,-40]],[[21201,12288],[-14,19],[11,61],[-24,-11],[-40,50],[-33,-51],[-76,-28],[-72,-72],[-51,-13],[-115,-87],[-74,111],[-10,82],[-41,81],[-104,6],[14,174],[-79,108]],[[20189,12765],[-103,-103],[-3,103],[-63,-195],[-144,-236],[18,-87],[177,-212],[-42,-135],[-160,-35]],[[19869,11865],[-11,68],[29,17],[-47,22],[41,24],[-35,27],[-1,50],[-43,-8],[17,35],[-47,27],[-27,-12],[6,-16],[-25,13],[-11,-16],[-6,57],[26,-5],[-15,22],[-33,-4],[-14,28],[27,44],[46,22],[5,16],[-39,20],[46,25],[-21,42],[53,0],[-2,47],[18,1],[-21,10],[18,13],[-57,35],[6,38],[-18,23],[-13,-17],[-32,30],[-20,-19],[10,28],[-18,10],[-9,-23],[-30,18],[-3,-21],[-12,78],[-30,-21],[-18,34],[26,7],[-3,27],[-23,-4],[15,37],[-20,-3],[-8,75],[-20,0],[36,18],[-26,42],[35,17],[0,24],[-22,2],[23,40],[-25,-9],[-8,29],[-20,-24],[-21,25],[-40,-16],[19,18],[-20,22],[-71,-14],[-14,43]],[[13051,13004],[-22,-103],[21,-110],[-35,-87],[-33,-1],[-11,-26],[0,-85],[-67,-34],[-94,63],[-33,-15],[-14,-48],[-75,-16],[-49,100],[-122,15],[-654,-13]],[[11863,12644],[25,31],[-28,16],[12,49],[31,-14],[19,17],[-35,15],[20,28],[-36,-5],[14,26],[-29,22],[36,7],[11,28],[-47,-19],[25,38],[-62,31],[48,14],[-27,74],[37,45],[-21,-4],[-14,31],[52,1],[-27,50],[21,26],[-32,16],[11,21],[-30,42],[32,30],[-30,19],[27,13],[-14,22],[24,18],[-29,46],[69,144],[-11,102],[30,143],[71,106]],[[12006,13873],[15,-18],[135,-18],[61,89],[64,-9],[95,88],[77,8],[177,15],[264,-29],[94,10],[128,60]],[[14769,13899],[196,-120],[183,43],[112,-37],[85,54],[224,39]],[[15701,13493],[-121,-52],[-11,73],[-192,37],[-33,-54],[-196,91],[13,-47],[-81,-86],[4,-90],[-48,-22],[-15,-61],[-62,23],[19,142],[-80,22],[-18,42],[-268,-73],[-62,-205],[73,-47],[235,67],[58,-100],[82,-49],[21,-199],[60,-123],[-25,-24],[-116,-20],[-64,-43],[-318,-81],[-68,-38],[-34,-64],[15,-69],[-72,3]],[[14397,12446],[-123,312]],[[11863,12644],[10,-57],[-34,-103],[19,-2],[10,-44],[-38,-41],[29,-26],[-55,-79],[39,-13],[-9,-36],[58,-27],[-64,-9],[-4,-26],[89,-48],[67,33],[12,-23],[-43,-68],[59,-13],[-12,-27]],[[11996,12035],[-274,38],[-240,296],[-89,71],[-202,-17],[-281,-122]],[[10910,12301],[-62,60]],[[10848,12361],[4,277],[-46,99],[-247,175],[-19,96],[25,159],[-7,68],[-53,117],[12,105]],[[10517,13457],[96,-6],[123,69],[29,-5],[38,38],[6,65],[41,60],[74,-20],[317,5],[268,99],[93,-39],[124,27],[-1,77],[273,58],[8,-12]],[[15908,12555],[-56,-178],[-229,-98],[-134,-108],[-142,-59],[-55,10],[-111,93],[-294,-2],[-40,31],[-14,47],[-186,34],[-71,-20],[-90,-108],[-105,6],[-104,-70],[-98,17],[-52,-15]],[[14127,12135],[40,55],[-36,57],[92,139],[80,33],[20,56],[74,-29]],[[9739,13779],[165,10],[255,-141],[26,-50],[115,-96],[217,-45]],[[10848,12361],[-1,-63],[-79,-55],[-223,-2],[-70,33],[-69,92],[-127,7],[-123,57]],[[10156,12430],[84,54],[53,76],[10,111],[-86,53],[-96,-5],[-33,34],[-45,9],[-162,-169],[-36,3],[-17,60],[-77,52],[70,402],[5,304],[-12,207],[-75,158]],[[9035,13273],[103,3],[337,196],[135,120],[97,178],[32,9]],[[10156,12430],[-204,-50],[-32,-149],[-38,-10],[-83,39],[-122,6],[-64,46],[-117,16],[-42,-59],[-234,-57]],[[9220,12212],[27,37],[-49,-17],[-18,19],[34,34],[-22,26],[30,47],[-60,16],[68,11],[9,24],[-51,15],[46,31],[-9,15],[-33,-8],[9,20],[-41,22],[13,68],[35,9],[-14,10],[25,67],[-36,29],[22,37],[-43,69],[10,60],[-58,117],[-65,232]],[[9049,13202],[-14,71]],[[19869,11865],[-35,-36],[2,-80],[-40,-46],[22,-134]],[[19818,11569],[-195,28],[-158,-69],[-55,38],[-50,387],[-158,-119],[-66,-96]],[[19136,11738],[-82,2],[-64,35],[-173,178],[-153,103],[-139,10],[-125,-22],[-195,32]],[[18205,12076],[40,44]],[[21201,12288],[-23,-9],[-7,-86],[27,-10],[26,-71],[-35,-47],[4,-59],[-21,-7],[19,-27],[-23,-4],[23,-20],[-43,-7],[20,-42],[-26,-5],[3,-30],[-47,16],[-1,-24],[-42,-21],[-19,-78],[-107,-7],[23,-25],[-29,-36],[28,-10],[-28,-20],[-9,13],[-23,-40],[-63,7],[4,-32],[-31,-6],[19,-44],[-24,-1],[-12,-35],[-71,27],[-46,80],[-40,273],[24,39],[-21,26],[13,66],[-127,-99],[-86,-175],[-41,-23],[-95,-75],[-21,-86],[-76,-50],[-63,-142],[18,-29],[-16,-41],[26,-168],[-31,-100],[-44,-37],[3,-38]],[[20090,10969],[-124,17],[-43,106],[-35,123],[-8,142],[49,68],[6,56],[-52,47],[-53,10],[-12,31]],[[13497,12867],[86,-250],[11,-257],[-172,12],[12,-194],[-38,-154],[-174,-144],[-151,-58],[-11,-56]],[[13060,11766],[-50,-11],[11,-22],[-73,-8],[-56,35],[-182,7],[-217,-65],[-59,17],[-31,79],[-30,21],[-113,-4]],[[12260,11815],[-130,-23],[-42,18],[-91,-52],[-70,9],[-15,-16]],[[11912,11751],[-57,56],[103,93],[120,-37],[-24,86],[-30,29],[-8,48],[-27,-7],[7,16]],[[2865,13540],[65,56],[42,98],[246,29],[55,-19],[187,-160],[87,-64],[54,-13],[220,-167],[173,-65],[223,-49],[56,-86],[73,21]],[[4346,13121],[-254,-411],[17,-118],[-105,-109]],[[4004,12483],[-87,124],[-114,31],[-111,-26],[-148,-159],[125,-218],[39,-218],[-189,77],[-120,-548]],[[3399,11546],[-92,281],[-28,317],[-95,119],[-107,25],[-54,-11]],[[3023,12277],[24,138],[-53,76],[55,112],[66,245],[-15,86],[-166,413],[-18,113],[-51,80]],[[7457,13149],[119,73],[102,167],[28,2],[122,-87]],[[7828,13304],[98,-168],[21,-213],[166,-185],[87,-192],[6,-89],[-44,-73],[-32,-203],[-28,-56],[12,-56]],[[8114,12069],[-310,-115]],[[7804,11954],[-190,-86],[-15,-17],[13,-109],[-141,-99],[-22,6],[34,78],[-43,30],[-118,-14]],[[7322,11743],[-87,5],[-96,94],[-60,1],[-34,25],[-6,81]],[[7039,11949],[3,4]],[[7042,11953],[164,-18],[113,93],[42,-89],[28,7],[225,325],[123,-6],[-30,168],[-126,123],[-31,61],[-4,55],[65,155],[-8,122],[-30,65],[-116,135]],[[9049,13202],[-28,-3],[-21,-133],[-5,-328],[-76,-250],[-37,-43],[10,-158],[-25,-65],[17,-170]],[[8884,12052],[-4,-204],[-257,-187],[-18,69],[-1,320],[-16,27],[-22,-8]],[[8566,12069],[-98,-21],[-85,66],[-100,4],[-169,-49]],[[7828,13304],[192,-130],[65,-10],[441,74],[148,82],[249,-83],[112,36]],[[14127,12135],[-183,-122],[-109,-8],[-31,-115],[-38,-41],[5,-45],[-23,-18]],[[13748,11786],[-103,29],[-13,75],[-22,18],[-68,-32],[-79,-99],[-50,6],[-65,55],[-288,-72]],[[16203,12109],[-18,9],[-17,-23]],[[16168,12095],[-39,-25],[-51,20],[-86,-16],[-18,-26],[-51,-59],[91,-9],[-39,-33],[68,-31],[-28,-32],[46,16],[31,54],[9,-57],[-51,-32],[107,-34],[30,-47],[-9,-37],[-41,47],[3,33],[-49,-14],[1,-43],[-44,2],[28,30],[-36,33],[-77,2],[3,49],[-54,17],[-13,-14],[-51,16],[-28,-42],[26,-25],[-35,-16],[31,-61],[-25,6],[-43,-35],[-8,28],[25,6],[12,32],[-46,99],[-46,1],[-122,-50],[87,76],[86,20],[50,76],[-73,32],[-52,-1],[-138,-81],[-24,33],[-29,-4],[-34,-55],[-70,-27],[8,-25],[-21,-11],[-62,18],[2,31],[-53,19],[-141,-2],[-70,-38],[22,-51],[-159,-100],[-25,-74],[10,-51],[25,-19],[148,67],[96,3],[-9,45],[18,-45],[91,43],[-118,-102],[41,-3],[13,-47],[62,-3],[-4,-40],[33,15],[26,-17],[-2,21],[27,14],[-44,29],[62,52],[56,-2],[-25,47],[27,16],[-16,-17],[15,-22],[37,8],[-27,-18],[1,-27],[40,19],[-21,-36],[-94,-32],[80,-32],[-110,-77],[33,-7],[-3,-28],[35,1],[-85,-43],[4,19],[-21,-3],[44,23],[-28,23],[-126,-69],[-12,17],[-4,-22],[49,-11],[24,25],[35,0],[-61,-42],[-3,-29],[-38,-2],[-8,21],[-28,-35],[-26,17],[-24,-18],[12,35],[21,-5],[-21,18],[15,14],[-55,45],[-89,-76],[-92,12],[-94,-35],[-14,16],[-42,-40],[-36,3],[18,-33],[-45,0]],[[14666,11264],[-40,69],[-160,-61],[3,40],[139,63],[-8,59],[-64,-3],[-51,32],[32,96],[-14,37],[-87,-50],[-51,82],[-112,-25],[-24,38],[31,82],[-189,104],[25,253],[31,55]],[[9220,12212],[-5,-36],[27,-16],[54,34],[-12,-42],[-49,-21],[79,-38],[-12,-38],[39,-34],[5,-41],[28,-4],[-7,-32],[31,-38],[-44,-36],[39,2],[-38,-29],[42,-22],[-33,-29],[43,-76],[-28,-1],[13,-19]],[[9392,11696],[-38,-18],[24,-27],[-17,-72],[-50,-8],[-7,-43],[33,-63],[-4,-73],[52,-74],[-11,-24],[23,-23],[45,3],[6,-80],[35,-16],[-4,-30]],[[9479,11148],[-27,-23],[-111,-12],[-107,-76],[-12,-30],[130,-120],[33,-87],[-127,-191],[-34,-19],[-56,27],[-18,47],[-54,9],[-82,3],[-155,-62],[-57,27],[-45,118]],[[8757,10759],[-185,244]],[[8572,11003],[127,51],[53,80],[-27,295],[-44,17],[258,80],[85,-12],[-92,237],[59,282],[-56,-9],[-51,28]],[[3023,12277],[-65,-51],[-20,-169],[22,-89],[102,-36],[39,-100]],[[3101,11832],[-28,-123],[-88,25],[-69,-111],[-4,-53],[-87,-56],[-27,-60],[17,-11],[-3,-89],[36,-73]],[[2848,11281],[-7,-82],[26,-22],[-77,10],[-23,-47],[32,-85],[43,2],[-140,-131],[-21,14],[-26,-18],[7,-47],[-34,-43],[-112,79],[-26,-56],[-33,22],[-28,-17],[-40,43],[-49,-30],[-2,33],[52,77],[-51,9],[56,19],[20,49],[-35,41],[1,59],[-84,-38]],[[2297,11122],[-20,24],[-17,243],[-107,130],[23,222],[-58,175],[-58,76],[-75,24]],[[1985,12016],[6,80],[163,265],[70,174],[-40,124],[-65,95],[-205,208]],[[1914,12962],[325,122],[-31,167],[61,142],[132,115],[38,1],[292,-53],[134,84]],[[5958,13136],[155,-22],[158,193],[34,7],[156,-56]],[[6461,13258],[-52,-62],[-6,-116],[23,-96],[-17,-89],[-103,-134],[-22,-92],[95,-4],[33,-38],[22,-110],[98,-84]],[[6532,12433],[0,-95],[-50,-107],[48,-63],[6,-41],[-31,-37],[7,-32],[47,-36],[0,-49],[-76,-132],[-18,-147],[-77,-51],[-20,-120]],[[6368,11523],[-118,-52],[-167,63],[-105,0]],[[5978,11534],[-89,124],[43,127],[1,114]],[[5933,11899],[107,127],[-52,130],[0,157],[48,126],[-29,88],[-20,436],[-29,173]],[[6461,13258],[474,2],[114,-20],[147,-99]],[[7196,13141],[-16,-189],[34,1],[5,-42],[-55,-282],[-45,-77],[-54,-8],[-102,-91],[-1,-61]],[[6962,12392],[-269,18],[-123,50],[-38,-27]],[[7196,13141],[186,-27],[75,35]],[[7042,11953],[40,12],[-15,24],[20,-11],[57,69],[33,-7],[-3,31],[16,-2],[-15,31],[25,30],[-224,25],[-1,23],[72,80],[-1,50],[30,21],[-151,-28],[23,49],[33,1],[-32,25],[13,16]],[[5933,11899],[-13,57],[-41,-1],[-104,-152],[-86,11],[-75,-29],[-37,-60],[47,-75],[-7,-36],[-57,-10]],[[5560,11604],[-112,52],[-134,-16],[-258,-122]],[[5056,11518],[-18,38],[8,50],[-66,11],[10,72]],[[4990,11689],[12,41],[68,-49],[15,48],[53,14],[25,-23],[-16,-48],[60,49],[-23,29],[27,143],[-104,27],[-18,89],[-46,48],[36,44],[95,-19],[43,131],[54,10],[33,84]],[[5304,12307],[115,79],[6,124],[-34,41],[31,71],[-13,42],[43,36],[35,77],[-9,74],[73,113],[49,167]],[[5600,13131],[67,5],[185,22],[106,-22]],[[18205,12076],[-44,-103],[34,-19],[-5,-26],[-34,-15],[25,-19],[23,12],[8,-44],[55,3],[-6,-99],[32,-5],[34,-46],[42,-107],[-38,-10],[67,-48],[-2,-59],[40,-60],[-48,-8],[2,-25],[45,-25],[-57,-17],[-5,-39],[15,-37],[71,-5],[-110,-122],[81,-47],[16,62],[44,47],[17,-12],[5,20],[24,-1],[50,97],[141,-94],[33,-49],[80,17],[-2,-55],[25,-3],[-35,-38],[60,-6],[-50,-50],[22,-14],[-23,-28],[29,-33],[-36,-5],[28,-28],[-5,-58],[37,6],[-37,-28],[33,-42],[-44,21],[8,-41],[-54,-7],[45,-7],[7,-27],[-63,-11],[-12,-31],[37,-34],[-20,-26],[38,-46],[-46,12],[13,-18],[-23,-28],[28,-13],[-44,-31],[9,-32],[-29,7],[18,-33],[-45,4],[-31,-25],[15,-11],[22,28],[40,-49],[-59,-97],[-61,5],[29,-20],[-43,-23],[0,-35],[32,9],[-18,-38],[-34,10],[16,-36],[-27,-16],[32,-55],[-35,19],[-2,-29],[-25,-8],[30,-13],[-22,-25],[59,-30],[-47,-31],[26,-25],[-27,-17],[23,-50],[-13,-7],[-21,31],[-21,-10],[43,-46],[-45,-15],[18,-57],[-45,0],[-23,-48],[34,-57],[-44,8],[22,-30],[-26,-8],[12,-58],[-9,-15],[-23,22],[-13,-18],[34,-11],[5,-23],[-45,-16],[4,-44],[-40,11],[38,-59],[-15,-20],[-56,3],[28,-34],[30,12],[30,-16],[-44,-7],[-18,-46],[31,-31],[-32,-2],[-18,-33],[27,7],[35,-50],[29,16],[14,-20],[-24,10],[7,-29],[-26,-6],[7,-52],[40,18],[-4,-28],[-42,-16],[-11,23],[-15,-27],[-25,32],[-31,-69]],[[18361,9093],[-55,2],[3,-32],[23,-1],[-30,-30],[17,-27],[-43,7],[2,-36],[-28,4],[-9,-26],[-25,11],[31,-46],[-57,-9],[-4,-32],[-26,-11],[-85,-31],[-32,10],[-24,-40],[-31,5],[-58,-37],[10,-31]],[[17940,8743],[-120,33],[-110,74],[-113,43],[-440,45],[-113,97],[-12,55],[46,54],[98,30],[83,95],[57,21],[120,105],[86,260],[80,64],[134,22],[20,65],[-89,189],[-89,18],[-41,45],[33,95],[-142,118],[-125,-23],[-88,27],[-60,83],[-7,319],[-72,92],[0,46],[54,128],[77,83],[58,120],[-72,7],[-271,-71]],[[16922,11082],[-81,57],[-26,142],[-38,67],[-72,16],[-111,-70],[-77,8],[-65,123],[-207,196],[-26,57],[42,144],[-7,63],[-95,144],[9,66]],[[5304,12307],[-458,55],[-597,21],[-204,42],[-41,58]],[[4346,13121],[59,16],[77,-67],[108,-12],[125,34],[266,-4],[619,43]],[[19136,11738],[19,-19],[-18,-147],[27,-203],[42,-89],[-34,-81],[9,-82],[63,-164],[1,-160],[29,-94],[32,-322],[-60,-126],[5,-173],[96,-69]],[[19347,10009],[-5,-27],[37,-36],[-25,-47],[-48,0],[48,-15],[-49,-71],[47,-28],[-37,-55],[-2,-54],[-31,-24],[24,-74],[-75,-100],[0,-31],[-36,-18],[-12,-121],[-31,-44],[32,-45],[-24,-126],[65,-65],[-1,-101],[42,-39],[3,-52],[-103,-75],[-96,-35],[-4,-39],[-45,-24],[-38,3],[-27,-48],[-38,-9],[-22,-71],[-25,12],[-67,-89],[-111,78],[-61,1],[-87,-115],[-11,-55],[-40,-12],[-48,-65],[-39,39],[-43,175],[52,82],[-20,14],[0,63],[51,48],[3,54],[-36,65],[-11,163],[-38,56],[-4,41]],[[20090,10969],[50,18],[22,-21],[-26,-41],[-119,-37],[-31,28],[-101,-35],[-1,-30],[29,-26],[-73,11],[-29,-32],[-4,-54],[-50,-47],[-15,-51],[-42,1],[-1,-97],[-29,-36],[-93,-36],[-51,-117],[-19,-138],[-109,-75],[-29,-53],[7,-66],[-29,-26]],[[16922,11082],[-81,-37],[-181,14],[-89,-72],[-46,-5],[-123,44],[-144,-71],[-101,33],[-30,-69],[-82,-45],[-52,-99],[-169,-59],[-88,-59],[-168,-212],[-32,-181],[72,-101],[43,-332],[-48,-112],[-63,-83],[-94,-36],[-67,11],[-42,-16]],[[15337,9595],[13,40],[-19,-24],[-16,17],[-56,-12],[11,17],[-27,-10],[2,36],[-15,-24],[-44,35],[-18,-36],[-12,22],[-27,-12],[-16,40],[-24,-18],[-16,19],[-28,-7],[-20,108],[-49,-6],[-14,28],[-66,8],[-42,38],[-109,41],[-31,-7],[-53,57],[-95,-20],[-22,43],[29,17],[-19,13],[68,28],[44,85],[-15,80],[-60,60],[-146,-1],[-113,28],[-102,-31],[-164,20],[-105,-15]],[[13961,10252],[-24,12],[-2,72],[98,-28],[52,56],[-53,38],[-11,56],[21,81],[-15,10],[123,105],[11,106],[53,-13],[-31,-12],[24,-30],[57,-2],[59,-48],[59,26],[25,99],[72,43],[20,-24],[24,9],[96,86],[-27,105],[-33,-12],[-53,25],[-50,-15],[-3,23],[57,56],[-19,25],[39,22],[-19,21],[-21,-27],[-35,4],[-27,38],[-58,-56],[13,39],[33,21],[-17,4],[-56,-38],[-7,11]],[[14336,11140],[30,36],[21,-8],[36,71],[22,-7],[-5,-19],[23,15],[8,-32],[37,-6],[-3,25],[81,36],[53,-30],[27,43]],[[11912,11751],[-147,-95],[-132,-153],[-163,-38],[-51,-94],[-71,-61],[-49,-6],[-35,32],[-81,17],[-93,-43]],[[11090,11310],[-11,97],[-201,561]],[[10878,11968],[40,86],[-8,247]],[[1985,12016],[-92,-64],[-223,103],[-33,-69],[-14,-116],[-163,-323],[-40,-153],[-43,-78],[-20,-83],[1,-255]],[[1358,10978],[-8,3],[-164,-69]],[[1186,10912],[-89,-14],[-41,32],[-44,-11],[-49,18],[-14,-59],[-55,-12],[-13,-57],[-29,-3],[-36,-59],[-135,-22],[-48,40],[-86,28],[-87,-62],[-76,74],[-62,-19],[-21,31]],[[301,10817],[17,16],[5,11],[6,15],[1,0],[11,3],[10,1],[6,2],[7,3],[4,1],[2,1],[11,8],[3,2],[1,2],[3,7],[1,1],[0,5],[0,8],[0,3],[0,4],[-9,30],[0,3],[1,15],[4,22],[1,9],[1,1],[1,2],[2,2],[6,6],[20,17],[8,5],[2,2],[3,1],[3,2],[4,1],[1,1],[4,1],[21,6],[13,6],[3,1],[11,7],[8,7],[4,4],[1,0],[6,9],[3,5],[0,1],[15,12],[7,2],[1,0],[3,0],[0,0],[4,-2],[5,0],[6,-1],[1,0],[0,0],[7,6],[2,0],[0,0],[0,-2],[0,-7],[-3,-9],[-2,-3],[-4,-8],[-6,-3],[0,0],[-1,0],[-4,-2],[-9,-5],[-4,-7],[-6,-5],[-1,-8],[-1,-7],[0,-1],[0,-2],[1,-6],[4,-5],[4,-6],[1,-4],[3,-4],[0,0],[2,-1],[8,-1],[5,-2],[6,-3],[0,-1],[1,0],[5,0],[2,0],[7,5],[4,5],[2,2],[3,5],[-2,5],[-6,7],[-1,1],[-6,8],[-2,8],[0,4],[1,8],[5,6],[0,1],[2,1],[2,0],[6,2],[4,4],[6,2],[0,0],[0,1],[8,18],[0,4],[-4,4],[0,0],[0,1],[-2,3],[-3,6],[-1,0],[0,2],[0,1],[0,3],[1,1],[1,1],[-2,1],[-4,4],[-2,5],[1,3],[1,2],[2,1],[0,1],[1,1],[2,7],[2,2],[4,3],[5,5],[14,8],[8,-1],[0,0],[1,0],[3,-1],[0,0],[3,-6],[1,-3],[1,-3],[0,0],[2,-1],[1,-2],[1,0],[2,-1],[3,-6],[0,-1],[1,0],[9,-4],[2,-1],[4,-1],[5,1],[2,1],[2,2],[-1,10],[2,7],[1,3],[8,12],[17,1],[6,0],[9,-7],[4,-8],[0,0],[7,2],[8,3]],[[724,11149],[1,0],[1,2],[1,1],[1,3],[-5,6],[-2,3],[-2,4],[-5,14],[-1,2],[1,7],[5,15],[2,4],[-1,5],[-2,3],[-2,1],[-3,1],[-5,1],[-3,7],[-1,3],[0,1],[0,0],[-5,2],[-3,5],[-2,4],[-1,2],[-3,3],[-1,1],[0,0],[-1,0],[-3,1],[-1,1],[-4,1],[-2,0],[-1,-15],[-2,-9],[0,0],[0,-1],[-5,-10],[-12,-16],[-4,-4],[-16,-8],[-14,-3],[-13,5],[-7,5],[-4,3],[-1,3],[0,4],[-1,3],[0,2],[1,1],[1,3],[-2,2],[0,1],[0,1],[3,5],[2,4],[1,1],[5,2],[1,4],[-2,3],[0,5],[1,6],[2,9],[1,2],[0,10],[-1,3],[1,1]],[[612,11274],[5,10],[2,3],[4,5],[1,0],[23,-3],[15,-1],[4,1],[5,1],[13,5],[1,0],[1,0],[6,0],[6,0],[4,-1],[2,-1],[1,0],[3,-2],[2,-2],[12,2],[0,4],[-2,9],[-4,5],[-4,2],[0,0],[0,1],[-2,0],[0,0],[-2,2],[-4,3],[-3,3],[-3,4],[-8,7],[-3,2],[-2,13],[2,-1],[3,0],[2,0],[3,-1],[1,0],[6,4],[1,0],[0,0],[6,2],[2,2],[4,3],[5,9],[3,10],[0,7],[-7,9],[-2,4],[6,5],[6,6],[2,5],[1,2],[0,1],[-1,1],[-2,8],[-1,1],[1,1],[0,2],[2,3],[2,4],[1,1],[1,2],[3,2],[1,1],[0,0],[2,4],[1,0],[7,2],[5,13],[0,3],[1,2],[9,4],[3,3],[10,7],[10,7],[2,2],[0,0],[1,7],[-6,16],[-1,4],[0,0],[7,21],[3,5],[1,5],[-2,6],[-2,8],[-4,3],[-6,6],[-5,4],[-4,0],[-7,-1],[0,0],[-2,1],[-4,4],[-1,8]],[[754,11583],[0,5],[-1,7],[0,2],[0,0],[-1,2],[-4,9],[-6,22],[-1,9],[3,5],[-18,8],[-7,2],[-3,1],[-1,1],[-3,5],[-3,4],[0,2],[-1,1],[-1,3],[0,3],[0,16],[4,8],[4,4],[1,1],[1,2],[6,25],[1,25],[-9,60],[38,66],[12,88],[-11,147],[70,31],[-25,52],[23,91],[-69,11],[-21,41],[1,43],[86,86],[-38,35],[16,134],[-65,100],[24,165],[122,-62],[307,-7],[216,44],[188,-8],[325,90]],[[10878,11968],[-78,-56],[-7,-129],[-63,15],[-96,89],[-195,-40],[-77,-47],[-199,-26]],[[10163,11774],[-61,-26],[-32,-51],[-92,-5],[-43,71],[-72,16],[-49,53],[-118,6],[-30,-78],[-30,-24],[-58,10],[-38,-68],[-148,18]],[[14336,11140],[-49,82],[-55,-147],[-330,73]],[[13902,11148],[37,95],[49,-14],[58,35],[64,97],[-146,175],[-90,54],[-74,-56],[-52,252]],[[4004,12483],[-33,-169],[30,-22],[98,-299],[120,-111]],[[4219,11882],[56,-370],[-86,-325]],[[4189,11187],[-71,-21],[-44,13],[-103,121],[-108,-139],[-16,-84],[152,-237],[-10,-21],[-138,42],[-43,-36],[-11,-72],[-34,30],[-79,-74],[-32,-6],[-20,37],[32,105],[92,167],[-5,59],[-144,46],[-118,-21],[-21,-91],[-61,-24]],[[3407,10981],[17,27],[-12,15]],[[3412,11023],[-3,112],[24,77],[-28,92],[18,177],[-24,65]],[[7039,11949],[-15,-28],[-10,18],[-37,-23],[-2,-70],[3,-68],[56,-23],[27,-69],[-47,-89],[-80,-78],[-34,-107]],[[6900,11412],[-39,24],[-176,19],[-53,63],[-62,24],[-202,-19]],[[13902,11148],[-276,77]],[[13626,11225],[-145,125],[-22,-39],[-212,21],[-61,-63]],[[13186,11269],[-71,39]],[[13115,11308],[38,62],[-59,141],[43,148],[-77,107]],[[4990,11689],[-63,51],[-133,29],[-191,-47],[-235,19],[-25,30],[31,46],[3,76],[-44,17],[-114,-28]],[[11090,11310],[-82,-70],[-91,-153],[-79,-74]],[[10838,11013],[-25,-73],[-64,-4],[-49,-117],[-60,-31],[-62,-159],[-76,-41],[-61,29],[-9,34],[-105,-66],[-52,28],[-88,-78]],[[10187,10535],[-51,39],[-45,143],[15,169],[61,111],[12,75],[12,228],[-32,281],[4,193]],[[8566,12069],[11,-52],[-12,-21],[-70,-8],[8,-60],[-36,-68],[-89,-29],[-12,-31],[21,-152],[-40,-64],[54,-185],[-23,-84],[-78,1],[10,-50],[-16,-31]],[[8294,11235],[-61,35],[-1,41],[-43,31],[-58,-89],[-49,9],[-81,-92],[-34,-127],[-233,-56]],[[7734,10987],[-25,29],[-67,11],[23,105],[49,86],[-9,46],[42,112],[-94,67],[30,136],[114,98],[43,72],[-36,205]],[[13115,11308],[-102,-28],[-56,127],[-53,14],[-29,39],[-6,68],[-93,71],[-115,-56],[-214,-327]],[[12447,11216],[-108,43],[-36,66],[39,329],[-12,71],[-70,90]],[[8572,11003],[58,187],[-54,153],[-84,-73],[-193,-36],[-5,1]],[[12447,11216],[-487,-279],[-187,-50],[-104,-3]],[[11669,10884],[-660,-47],[-48,18],[-123,158]],[[3412,11023],[-45,-60],[-7,72],[-37,-4],[17,-77],[-18,-8],[-53,117],[-95,-10],[-98,23],[60,74],[4,42]],[[3140,11192],[72,258],[-78,163],[23,77],[-56,142]],[[10187,10535],[-34,-27]],[[10153,10508],[-32,-16],[-75,-44],[-22,26],[-26,-6],[-45,-75],[-119,-69],[-43,0],[-10,20],[-439,-108]],[[9342,10236],[-86,37]],[[9256,10273],[-38,26],[4,46],[81,57],[0,37],[79,21],[39,118],[-38,135],[16,40],[-17,7],[51,30],[3,51],[16,-40],[29,21],[6,-22],[40,-9],[12,28],[-35,11],[0,18],[28,24],[15,-15],[14,34],[-24,89],[24,26],[-2,92],[-14,29],[-66,21]],[[7734,10987],[3,-63],[-28,-15],[-141,3],[-95,-50],[-43,35],[85,137],[-6,27],[-94,17],[-42,40],[-44,-32],[-11,-121],[-38,-19],[-84,70],[-55,-98],[-66,-41]],[[7075,10877],[-14,53],[50,9],[13,70],[-45,45],[55,56],[-18,9],[-12,-25],[-46,-12],[0,-47],[-76,31],[-20,72],[-34,-22],[23,57],[-30,16],[-5,46],[35,18],[-43,122]],[[6908,11375],[217,-34],[47,117],[99,90],[51,195]],[[13186,11269],[-23,-99],[42,-175],[-31,-132],[-82,-32]],[[13092,10831],[-326,-64]],[[12766,10767],[16,90],[65,72],[15,69],[-126,97],[-289,121]],[[6908,11375],[-8,37]],[[17940,8743],[84,-231],[54,-37],[-31,14],[-31,-19],[1,32],[-62,-23],[15,-23],[-46,-13],[-8,-48],[-49,-12],[4,-19],[-100,3],[-11,-33],[-24,0],[3,-26],[-26,5],[-4,-44],[-35,-1],[9,-63],[-37,-30],[-5,-38],[-56,-6],[-11,-49],[-16,18],[-32,-30],[-28,17],[-15,-27],[13,-14],[-33,-15],[-46,18],[24,-21],[-31,3],[-20,-80],[-34,4],[7,-25],[-25,-20],[-32,10],[-12,-42],[34,-55],[-31,-66],[-33,1],[-26,-40],[-25,30],[-45,-62],[25,-27],[-29,-23],[-63,-96],[-44,-8],[-11,-30],[-17,15],[6,-31],[-26,14],[-36,-17],[15,-10],[-37,11],[-31,-19],[18,-42],[-52,36],[-13,-25],[-11,25],[-47,-51],[-30,15],[-32,-38],[8,-32],[-34,14],[-15,-38],[-42,-12],[-13,-75],[-58,-15],[1,-28],[-34,-22],[7,-30],[-25,2],[5,-19],[-58,-35],[-17,-58],[-29,27],[-43,0],[-71,-68],[15,-20]],[[16350,6976],[-37,-46],[-91,-14],[-36,70],[-103,-66],[-55,88],[-140,-10],[-60,16],[-19,-33],[-147,235],[19,14],[-19,101],[51,43],[14,47],[-20,-6],[-25,50],[-16,-6],[-36,108],[-56,22],[-68,-26],[-30,46],[-22,84],[20,28],[-7,68],[41,62]],[[15508,7851],[68,24],[53,-27],[56,56],[201,-11],[16,137],[-16,54],[83,64],[8,152],[-33,-7],[21,54],[-32,119],[11,32],[-89,59],[-123,182],[-44,28],[-5,117],[-36,126],[-59,27],[-15,44],[-16,93],[14,42],[-36,19],[-50,103],[-51,18],[2,45],[-77,29],[-78,-17]],[[15281,9413],[56,182]],[[5978,11534],[-24,-123],[-111,-116],[51,-99],[-32,-51],[85,-66],[230,-73]],[[6177,11006],[-7,-80],[61,-131],[-95,4],[18,-105],[60,-90],[-37,-100],[-126,-150],[-95,3]],[[5956,10357],[0,202],[-100,87]],[[5856,10646],[78,31],[-34,124],[-71,20],[-261,183],[31,101],[6,165],[-45,334]],[[13626,11225],[-205,-67],[-32,-51],[36,-88],[185,-251],[28,-169],[-57,-76],[-151,-97],[-66,15],[-36,-32]],[[13328,10409],[-138,71],[-1,32],[38,19],[-37,84],[49,134],[7,108],[-45,8],[-78,-46],[-31,12]],[[5056,11518],[31,-46],[-31,-42],[-36,-11],[-72,31],[-41,-19],[8,-32],[43,-35],[144,25],[66,60],[45,-23],[27,-41],[-75,-144],[9,-49],[66,-76],[-7,-68],[-88,-26],[-101,45],[-83,-158],[-46,-27],[5,-28],[60,-32],[-1,-57],[-103,-18],[-78,43]],[[4798,10790],[-143,170],[-153,13],[-16,132],[-49,17],[-18,100],[-48,-23],[-49,-94],[-43,-33],[-40,13],[-50,102]],[[13961,10252],[-223,-287],[-178,35],[-115,-69]],[[13445,9931],[-105,-44],[-100,86],[36,50],[122,38],[-9,136],[-61,212]],[[2297,11122],[-14,-96],[-59,-34],[-14,-31],[-63,-17]],[[2147,10944],[-24,29],[-106,16],[-74,-25],[-214,-151]],[[1729,10813],[-136,-96],[-64,24],[-49,96],[38,59],[-28,28],[-29,-3],[-38,-55],[-41,1],[-6,34],[-55,14],[37,63]],[[12766,10767],[-136,-247],[-134,-32]],[[12496,10488],[-88,179],[-66,16],[-100,-49],[-49,-130],[-31,-29],[-47,27],[-46,-13],[-21,-66],[25,-70],[-58,-133],[-284,27],[-37,34],[-9,96],[57,263],[-127,48],[8,85],[46,111]],[[3140,11192],[-93,-71],[0,95],[-62,23],[-15,55],[-55,18],[-67,-31]],[[5856,10646],[-87,9],[-87,48],[-114,-12],[-246,-163],[-71,-26],[-206,-18],[-154,4],[-112,63],[-116,-7]],[[4663,10544],[-11,35],[-49,0],[1,66],[44,53],[71,39],[25,46],[54,7]],[[7075,10877],[-30,-54],[-31,-11],[21,-61],[-48,-7],[15,-37],[32,-4],[0,-24],[-94,-46],[-62,8]],[[6878,10641],[-61,9],[-176,110],[-141,205],[14,102],[-50,44],[-162,-76],[-125,-29]],[[8757,10759],[-139,-236],[-77,-52],[-27,-96],[-82,-1],[-115,-116],[-133,-64],[85,-66],[25,-70]],[[8294,10058],[-25,-78],[116,-68],[-2,-19]],[[8383,9893],[-304,-57],[-95,107],[-241,96]],[[7743,10039],[11,79],[-41,124],[40,27],[3,146],[52,21],[-79,30],[-7,100],[45,11],[64,-41],[36,46],[27,2],[-13,104],[15,92],[28,22],[-44,33],[87,-13],[169,24],[11,22],[117,36],[-68,44],[16,65],[61,75],[-48,37],[69,110]],[[7743,10039],[-16,-118],[-110,17]],[[7617,9938],[-156,137],[-50,-19],[-42,21],[-43,-34],[-74,5],[-60,-23],[-172,29],[-156,83]],[[6864,10137],[66,4],[11,63],[41,37],[-74,67],[-74,27],[19,37],[-17,60],[23,28],[46,1],[43,82],[-48,15],[-53,-18],[10,22],[-23,11],[44,68]],[[9256,10273],[-264,-84],[-185,-17]],[[8807,10172],[-8,48],[-49,49],[-69,47],[-55,-4],[-82,-208],[-250,-46]],[[13445,9931],[107,-154],[44,-103],[106,-37]],[[13702,9637],[12,-85]],[[13714,9552],[-119,-16],[-18,-26],[-22,-40],[5,-39],[30,-5],[-24,-51],[8,-39],[-103,17],[-30,31],[-22,-18],[-53,21],[-7,-23],[-50,-22],[5,-95],[-86,-6],[-15,-46],[-80,-28],[-15,-31],[-70,1],[-34,-70],[-60,11],[-42,-23],[-90,50],[94,150],[0,50],[119,49],[-64,61],[24,100],[52,89],[-4,46],[-92,64],[10,62],[-20,44],[-106,-21],[-56,-74],[-77,30],[-9,67],[51,172],[-32,24],[-61,-70],[-35,39],[-68,4],[-52,-33],[-22,36],[-130,-146],[-40,0],[-16,-53],[-41,44],[-88,-12],[58,83],[-6,19],[-51,7]],[[12160,9936],[136,479],[27,40],[173,33]],[[12160,9936],[-58,16],[-70,-50],[-62,-97],[-63,-20],[-2,-30],[-145,-63],[-8,-69],[-11,22],[-26,-22],[-22,21],[-33,-25],[2,-23],[-68,-22]],[[11594,9574],[-27,15],[-84,-25],[-47,-9],[-79,42],[-193,-10],[5,46],[-16,0]],[[11153,9633],[-34,66],[14,49],[-39,218],[21,95],[-20,-5],[-31,39],[-26,-47],[-73,48],[-18,47],[-105,-43],[-118,27],[61,40],[-1,20],[-51,-21],[-25,52],[-66,-1],[-72,100],[-16,-83],[-57,56],[-43,-46],[-30,31],[-61,-13],[-190,131],[-20,115]],[[4663,10544],[1,-18],[-36,-10],[-37,39],[-65,-38],[-89,6],[-118,-72]],[[4319,10451],[-497,-140]],[[3822,10311],[-118,-30],[-64,-41],[-193,26],[-188,-30],[-206,-88]],[[3053,10148],[13,202],[39,15],[56,-22],[118,110],[70,-7],[-48,85],[27,14],[58,-67],[10,37],[-32,51],[24,27],[38,-28],[67,21],[-9,17],[-60,-4],[-13,62],[17,-41],[42,-1],[10,15],[-29,49],[57,-9],[32,45],[-80,139],[35,42],[-59,-17],[-29,48],[16,35],[-16,15]],[[6864,10137],[-157,-21]],[[6707,10116],[-68,-10],[-124,-69],[-132,-24],[-71,52],[-90,-19],[-135,-149],[-88,-59],[-123,45]],[[5876,9883],[-49,50],[-219,90],[-95,0],[-1,31],[58,49],[242,118],[144,136]],[[3053,10148],[-19,-23],[-185,-20],[-36,31],[-240,30],[-213,-90]],[[2360,10076],[-7,-2]],[[2353,10074],[-37,16],[-80,132],[-44,124],[-17,230],[52,144],[-80,224]],[[15281,9413],[-144,-38],[-252,-25],[-81,-73],[-107,65],[-91,-9],[-98,-39]],[[14508,9294],[-218,285],[-99,95],[-48,18],[-149,-34],[2,-77],[-100,10],[-112,55],[-82,-9]],[[11153,9633],[-103,-53],[-82,-72],[-8,-42],[-21,7],[-29,-9],[-55,34],[-59,-7],[-132,-70],[-69,-11],[-94,33],[-151,-10],[-38,5],[-22,-62],[-21,7],[-141,-70],[-75,-3],[-16,-57],[-45,-23],[-34,60],[22,58],[-74,15],[-68,14],[-39,84],[-30,-6],[50,275],[-192,75],[-17,29],[-57,-12]],[[9553,9822],[-62,1]],[[9491,9823],[16,37],[-21,196],[-135,137],[-9,43]],[[2353,10074],[-359,-56],[64,-36],[-70,-56],[71,-37],[43,-58],[89,-15],[-18,-64],[-110,-94]],[[2063,9658],[-108,124],[-130,73],[-109,-58],[-51,44],[-54,-49]],[[1611,9792],[-16,86],[-66,77],[-4,63],[16,26],[150,60],[33,78],[-66,462],[71,169]],[[1611,9792],[-127,-111],[-63,-285]],[[1421,9396],[-45,-38],[-66,19],[-135,131],[-63,1],[-82,-61],[-55,-9],[-35,20],[-200,-6],[-24,-71],[-170,-52]],[[546,9330],[-36,110],[-63,-100],[-31,-6],[56,94],[-6,18],[-32,-31],[-39,27],[-40,-17],[34,45],[30,5],[-19,36]],[[400,9511],[47,14],[157,100],[56,18],[53,40],[-11,77],[71,40],[50,58],[0,175],[58,493],[61,72],[196,20],[48,294]],[[5876,9883],[-23,-1],[48,-66],[-71,22],[-143,-97],[-112,-38]],[[5575,9703],[-17,26],[-67,-38],[-83,14]],[[5408,9705],[-126,18],[-51,83],[-50,10],[-40,-29],[-66,47],[-145,53],[-265,36],[-89,-31],[-26,79],[-63,23],[-73,140],[-56,194],[-56,100],[17,23]],[[400,9511],[57,29],[0,72],[-24,35],[7,41],[-35,-28],[-16,16],[6,100],[-73,2],[-28,30],[22,96],[-76,104],[-63,26],[-68,-3],[6,47],[25,28],[3,4],[2,2],[3,0],[2,-1],[22,-3],[5,10],[-14,8],[-21,3],[-30,3],[-58,-23],[-12,7],[-7,11],[-6,22],[-4,13],[-1,5],[-2,1],[-22,20],[8,6],[3,2],[49,-20],[23,12],[3,1],[6,6],[12,30],[-24,38],[7,8],[8,-1],[6,0],[8,1],[7,1],[2,0],[2,-1],[5,-2],[3,-1],[1,1],[7,2],[2,1],[22,19],[7,12],[-9,15],[-13,5],[-1,0],[-28,-1],[-86,-13],[-18,12],[4,10],[16,-1],[37,7],[6,37],[27,23],[5,2],[9,3],[37,29],[-16,18],[-43,23],[-8,55],[-39,-10],[-13,3],[-5,3],[-1,1],[0,0],[13,63],[24,4],[1,0],[5,0],[9,-5],[-8,-38],[9,-12],[10,-4],[7,-3],[4,-3],[2,-1],[4,0],[0,0],[1,0],[7,-1],[8,2],[2,0],[4,0],[4,1],[3,1],[3,0],[12,1],[16,5],[6,10],[0,1],[-5,26],[18,21],[-1,4],[-90,118],[25,67],[-10,-49],[36,-28],[4,-1],[15,-3],[2,0],[6,-1],[6,-1],[3,1],[1,1],[4,1],[8,5],[0,0],[0,0],[3,1],[4,1],[1,1],[1,0],[23,-14],[5,-4],[1,-1],[4,-2],[4,-1],[9,-4]],[[251,10683],[3,0],[4,-2],[0,-1],[11,0],[0,-1],[5,-2],[1,0],[-1,5],[0,0],[2,1],[4,2],[0,0],[2,1],[0,0],[1,3],[2,3],[1,5],[0,0],[0,1],[-3,4],[0,2],[-7,13],[-3,9],[-16,20],[-1,3],[0,1],[0,3],[-5,23],[-1,6],[-1,4],[0,8],[0,1],[-1,1],[-1,4],[0,7],[-1,3],[0,3],[-1,10],[-2,15],[1,2]],[[244,10840],[9,9],[2,0],[6,2],[3,-2],[7,-5],[4,-11],[0,-3],[1,0],[0,-1],[2,-3],[5,-7],[1,0],[1,0],[8,-3],[1,0],[1,0],[6,1]],[[8807,10172],[7,-133],[29,-83],[91,-94],[221,-64],[336,25]],[[9553,9822],[-49,-90],[-28,-12],[-12,23],[-40,-73],[-66,20],[-63,-84],[-140,-63],[24,-17],[-16,-34],[-37,-14],[-11,-55],[-10,-405],[-35,-51],[-45,-12],[-144,-183],[-31,19],[-49,-10],[-69,74],[-128,82],[15,38],[79,-9],[20,85],[29,18],[-57,59],[-11,55],[42,125],[-22,50],[-43,16],[-103,-37],[-45,61],[-40,10],[-35,-34],[6,-53],[-40,-39],[8,-24],[-22,-8],[-43,-116],[-61,-32],[-7,-41],[-79,-13],[-2,-50]],[[8193,8998],[-66,129],[-50,193],[11,125],[18,47],[68,48],[21,-69],[38,-26],[79,20],[112,75],[90,149],[-62,60],[-13,63],[-56,81]],[[13714,9552],[48,-39],[-40,-76],[39,0],[46,-49],[-32,-34],[3,-35],[63,15],[43,-36],[-11,-24],[-75,7],[-28,-22],[15,-16],[70,6],[15,-21],[-89,-23],[6,-20],[21,21],[23,-10],[-38,-29],[34,-40],[-33,-72],[61,-64],[80,80],[54,-29],[2,-26],[-53,18],[5,-62],[-24,-29],[50,-102],[68,31],[80,-53],[92,56],[9,-24],[-40,-49],[1,-39],[99,-171],[74,6],[16,-20],[416,50]],[[14784,8628],[69,-121],[67,-49],[68,-137],[103,-110],[68,-24]],[[15159,8187],[-59,-37],[3,31],[-84,54],[-43,-7],[-29,35],[-31,-60],[-38,-11],[-23,108],[36,87],[-75,-22],[-38,-66],[30,-44],[-19,-97],[-17,4],[7,46],[-62,-43],[11,47],[-57,53],[40,79],[-100,-74],[-68,19],[19,-33],[-45,-137],[-213,-89],[-145,-16],[-104,-55],[5,-115],[-34,-73],[-51,-18],[-13,-43],[-103,-63],[-8,-27],[66,-55],[-3,-19],[-102,-128],[-34,-11],[42,-51],[-66,-22],[-26,-76],[-126,-52],[-29,51],[-71,4],[-79,-73],[13,-42],[-96,-20]],[[13340,7126],[-55,99],[-59,-44],[-62,-89],[-91,-16],[-12,-38],[-70,-20],[-8,36],[-45,-2],[-68,66],[-14,219],[-70,-17],[-108,34],[-41,-12],[4,24],[-38,15],[-55,113],[-68,141],[-144,97],[-1,57],[44,14],[-16,54],[-61,62],[-86,-11],[-11,19],[23,38],[-36,17],[-38,-22],[-85,11],[23,59],[-24,-31],[-46,-7],[-20,-48],[-49,11],[-33,-50],[-57,-26],[-72,-9],[-29,27],[-82,-56],[-66,-4],[-61,-33],[-80,21],[-57,-27],[-10,42],[-33,-2],[-73,-100],[-155,-106],[-14,-35],[-64,24],[19,59],[-30,115],[-44,50],[18,41],[25,-4],[22,31],[19,62],[-64,143],[21,26],[-28,34],[20,161],[45,16],[3,78],[22,-1],[25,71],[23,11],[-1,102],[100,81],[71,26],[45,73],[-37,12],[-68,-26],[-36,27],[4,35],[-42,-12],[-43,-44],[-96,18],[28,85],[-38,82],[53,66],[2,64],[49,18],[25,53],[78,15],[-4,31],[27,33],[25,-16],[11,33],[98,24],[44,60],[90,58],[-10,43],[42,24],[-28,31],[5,27],[37,37]],[[5408,9705],[-32,-106],[-282,-66],[-2,-183],[-84,-79],[-93,26],[-112,171],[-144,70],[-134,-29],[-123,-106],[-71,6],[-58,-40],[-69,-111],[-85,-42],[-65,-178],[13,-31]],[[4067,9007],[-88,33],[-42,-48],[5,-54],[-113,-65],[6,-49],[-48,-6],[-111,-80],[50,176],[39,-6],[9,18],[-9,121],[-78,81],[-64,121],[-112,63]],[[3511,9312],[13,146],[36,55],[58,45],[98,28],[92,73],[8,39],[-79,83],[-8,64],[86,-3],[19,75],[54,44],[-26,70],[34,78],[-74,202]],[[14508,9294],[57,-101],[47,-22],[32,-48],[60,-303],[80,-192]],[[7617,9938],[79,-365],[63,-113],[125,-65],[8,-59],[-6,-76],[-107,28],[31,-110],[-33,-168],[5,-95],[-85,-230],[-115,-204]],[[7582,8481],[-178,-44],[-35,11],[-3,-35],[-53,-55],[-219,-372],[-73,11]],[[7021,7997],[73,175],[10,166],[-22,105],[-144,362],[-15,136],[164,363],[-69,42],[-53,71],[-49,0],[-85,169],[-49,54],[-80,-24],[-114,45],[-8,108],[-87,147],[159,103],[55,97]],[[3511,9312],[-218,-123],[-55,15],[-20,61],[-64,41],[-121,-4],[-96,-37],[-42,-76],[-34,-7]],[[2861,9182],[-159,97],[-35,186],[-32,48],[7,138],[-125,19],[-28,56],[1,54],[78,-38],[34,29],[-126,64],[-116,241]],[[7021,7997],[-164,-129],[-3,25],[-127,18],[5,30],[-28,10],[10,127],[-49,68],[56,165],[-20,35],[81,125],[-31,30],[-7,56],[-69,-84],[-146,33],[-153,-91],[-160,-15],[-73,-41],[-59,41],[55,41],[47,5],[31,70],[-52,-29],[-85,12],[-116,-127],[-74,-16],[-20,22],[62,116],[-6,41],[63,63],[11,83]],[[6000,8681],[1,70],[56,133],[42,48],[-21,25],[100,131],[48,22],[44,145],[42,25],[-63,86],[21,34],[-37,-1],[-15,41],[-42,-7],[-23,43],[-19,-13],[-21,14],[-39,-29],[-49,41],[-36,-38],[-80,66],[-133,19],[-97,86],[4,31],[-46,-2],[-12,38],[-34,-10],[-16,24]],[[8193,8998],[9,-47],[-21,5],[-5,-40],[-27,-4],[-28,-41],[13,-61],[144,119],[1,-22],[-145,-117],[-26,-56],[22,-27],[-52,26],[-38,-15],[-24,-27],[-15,-84],[169,-26],[39,47],[20,80],[42,-36],[-22,-13],[2,-48],[-37,7],[-41,-45],[-71,-14],[-8,17],[-54,1],[-26,-34],[-68,-3],[-76,-84],[-105,69],[-183,-44]],[[15508,7851],[24,78],[-101,72],[15,63],[-51,-1],[-89,80],[-13,-37],[-119,-13],[-25,49],[55,31],[-45,14]],[[2861,9182],[-28,-65],[-249,-66],[-262,-39],[-17,36],[-33,2],[-45,-27],[-30,-56],[-19,4],[-17,72],[-87,-8],[-27,43],[-53,-47],[-90,-9],[-4,17]],[[1900,9039],[-5,48],[49,-2],[24,39],[26,-7],[4,40],[39,-7],[41,39],[75,4],[-5,28],[24,11],[0,38],[40,51],[5,103],[-81,9],[-30,38],[60,95],[-83,42],[-20,50]],[[6000,8681],[-23,14],[-68,-22],[-147,29],[-38,-22],[-9,141],[-46,110],[-46,22],[3,38],[-29,-3],[-26,-36],[-80,19],[-13,-84],[15,-65],[-55,73],[-48,13],[12,31],[-34,5],[-28,59],[-10,-35],[-22,30],[-21,-10],[13,-23],[-136,15],[-40,-46],[4,57],[-53,-13],[-69,33],[-4,-24],[-61,-42],[-77,-147],[-92,4],[11,59],[-80,-49],[-17,18],[41,16],[-2,27],[29,24],[-4,26],[-29,-32],[-29,54],[36,50],[0,36],[-36,2],[-70,-50],[-29,41],[-135,-31],[-68,-70],[-201,-85],[-10,-38],[19,-21],[-27,-38],[-49,7],[-28,96],[86,88],[-113,75]],[[1900,9039],[-28,-20],[-30,-56],[-25,6],[-11,-30],[-27,3],[9,-51],[-40,-14],[5,-27],[-48,-22],[-19,17],[-21,-27],[-31,1],[10,-11],[1,-3],[-35,-51],[-60,-29],[4,-33],[-80,39],[-85,-84],[81,-51],[-32,-81],[-72,-37],[-16,-43],[-75,-8],[-31,-41],[-43,28],[15,-51],[-25,-12],[-35,18],[22,27],[-43,-11],[3,-54],[26,-18],[13,-53],[-17,-66],[20,-22]],[[1180,8172],[-195,-61],[-340,-22]],[[645,8089],[-61,213],[-44,29],[84,126],[-12,150],[199,274]],[[811,8881],[224,15],[160,126],[117,58],[66,130],[43,186]],[[811,8881],[46,94],[-189,-26],[-26,5],[13,16],[-76,6],[24,48],[85,-30],[-48,83],[13,24],[65,-10],[76,35],[-12,28],[-91,42],[-44,78],[-38,11],[18,-125],[-63,18],[-30,51],[12,101]],[[16350,6976],[27,-17],[-5,-22],[68,-11],[29,-91],[22,-7],[12,-43],[22,-1],[-8,-20],[42,-10],[2,-22],[37,-13],[2,-34],[25,-6],[-31,-64],[26,-45],[32,-1],[23,-47],[59,-28],[98,18],[9,-38],[83,-48],[20,-67],[-12,-72],[63,-120],[-39,-93],[-60,-32],[-14,-66],[36,-27],[-14,-67],[77,-83],[-67,-57],[-126,-51],[-52,-94],[-66,-17],[-92,-104],[16,-42],[-14,-43],[-57,-58],[-15,-64],[-40,-30],[-49,-110],[8,-154],[-24,-8],[14,-35],[-16,-17],[16,-16],[-18,-1],[-40,-148],[-79,-45],[-55,-101],[13,-33],[-21,-8],[-5,-48],[-4,28],[-67,-33],[-19,29],[-71,-9],[9,-26],[-30,-14],[3,-29],[-38,-39],[11,-33],[-44,-13],[16,-16],[-26,-54],[11,-29],[21,4],[3,28],[45,-14],[-31,-15],[19,-15],[-30,-110]],[[15990,4155],[-27,-18],[-4,24],[-50,5],[-15,21],[15,14],[-24,22],[-12,-14],[-48,17],[-4,-22],[-43,-9],[-22,49],[-46,7],[-3,27],[-11,-18],[-27,10],[3,19],[-492,1]],[[15180,4290],[-40,8],[-31,40],[27,36],[-47,79],[-61,15],[-100,124],[30,69],[74,33],[41,85],[-72,30],[-63,-38],[-87,-16],[-60,-5],[-49,-42],[-61,26],[-31,-36],[-4,-69],[-42,0],[-55,49],[-147,1],[-58,-23],[-15,-34],[-88,-18]],[[14241,4604],[-38,-1],[-81,-55],[-38,29],[8,58],[-65,50],[-80,37],[-52,-9]],[[13895,4713],[-30,9],[-61,75],[11,61],[-51,101],[-13,16],[-40,-15],[-64,36],[-6,-34],[29,-51],[-56,-67],[-46,21],[-53,-28],[-72,17],[-87,-27],[-102,42],[-100,-75],[-98,40],[-117,-44],[-119,11],[-30,-25]],[[12790,4776],[-73,135],[-8,65],[148,-60],[27,17],[130,-10],[27,-31],[58,3],[55,-41],[39,59],[-3,57],[47,48],[75,33],[35,109],[22,-11],[39,42],[75,-17],[41,46],[157,60],[25,31],[152,-34],[44,48],[40,2],[35,33],[-92,67],[-48,0],[-44,81],[16,26],[41,2],[13,30],[-41,50],[86,30],[22,42],[-51,111],[26,45],[-23,95],[-53,25],[-41,-23],[-49,50],[-18,74],[-62,52],[23,53],[-68,-6],[-19,-29],[-40,62],[-54,11],[-23,55],[-84,77],[-28,4],[-28,-39],[-43,70],[12,61],[-68,-77],[-14,46],[-46,39],[10,-62],[-42,3],[-56,-47],[-7,170],[-32,13],[7,84],[-31,14],[-36,-24],[-16,33],[-37,-32],[-31,-8],[-7,42],[41,88],[210,127],[105,95],[12,106],[51,24],[1,43],[19,13]],[[1180,8172],[-34,-101],[-68,-39],[2,-49],[-51,-34],[-127,39],[-7,-79],[125,-179],[54,-21],[35,-44],[32,-125],[128,-86],[19,-60],[101,-12],[64,-85],[38,-8],[-73,-31],[-41,-71],[-89,32],[-39,-80],[-67,-2],[-100,-49],[-172,-19],[-79,-40],[-30,-38],[15,-37],[-49,-51],[19,-43],[28,7],[30,-23],[8,-39],[-60,-2],[16,-76],[-29,-38],[-42,-40],[-33,4],[1,129],[30,72],[-40,105],[66,37],[76,357],[-53,219],[-37,21],[-73,143],[17,90],[-69,12],[-33,66],[-3,56],[63,89],[-4,40]],[[13895,4713],[27,-278],[-32,-50],[-53,-31],[-105,-21],[-140,49],[-140,86],[-60,-12],[-142,-112],[3,-162],[19,-38],[37,10],[79,123],[68,2],[-43,-68],[48,-108],[-47,-113],[-67,-38],[-25,-168],[130,-139],[-12,-129],[-89,-32],[-28,-106]],[[13323,3378],[-49,-12],[-42,49],[9,29],[-46,119],[79,-22],[-11,26],[-37,22],[-108,7],[-60,86],[-33,-3]],[[13025,3679],[-88,-22],[-73,20],[-45,-44],[-90,-36],[-47,91],[-87,-25]],[[12595,3663],[-20,55],[4,105],[-50,124],[20,56],[-152,0],[-15,51],[43,13],[21,36],[-53,33],[-104,2],[-50,53],[25,244],[58,11],[39,41],[46,-35],[29,10],[7,50],[-22,37],[67,80],[43,185],[190,-11],[69,-27]],[[15180,4290],[-6,-351],[186,-73],[192,107],[51,-19],[98,-154],[9,-82],[-116,-123],[-68,-6],[-54,-139],[-81,4],[-71,101],[-37,-10],[-81,-90],[-82,-51],[-58,2],[-31,48],[42,108],[-38,152],[-15,37],[-64,-7],[-72,-51],[-167,-46],[-123,-146],[-49,-93],[-169,-74],[-134,-31],[-53,-40]],[[14189,3263],[-131,-1],[-55,78]],[[14003,3340],[31,132],[70,33],[30,114],[222,333],[17,80],[-91,85],[-10,347],[-31,140]],[[14003,3340],[-35,61],[-74,21],[-62,105],[-39,13],[-70,-70],[-123,-60]],[[13600,3410],[-183,-37]],[[13417,3373],[-87,2],[-7,3]],[[15990,4155],[15,-23],[20,11],[17,-40],[-15,-64],[-49,13],[-12,-11],[28,-49],[-66,-17],[2,-24],[35,14],[-29,-48],[34,-2],[13,-52],[-21,-20],[-41,5],[25,-40],[-10,-24],[-40,-3],[12,-29],[-28,-1],[30,-36],[-51,-17],[23,-43],[-27,5],[5,-19],[-78,-93],[-43,13],[30,-26],[1,-33],[-41,6],[15,-31],[22,7],[-41,-19],[20,-18],[-26,-59],[31,-37],[-27,-37],[-50,-4],[-20,-47],[-23,41],[-95,-72],[8,36],[-40,10],[-5,23],[-28,33],[16,11],[-16,2],[-14,-27],[-59,13],[13,56],[-55,-39],[10,-55],[-30,-44],[3,-50],[-22,-8],[14,-59],[-25,-67],[6,-54],[14,17],[23,-26],[-49,-47],[-4,-38],[-25,3],[12,-30],[-30,-47],[-41,17],[-18,-25],[76,-92],[0,-62],[57,15],[4,-31],[-35,-53]],[[15295,2614],[-191,140],[-68,34],[-68,-7],[-36,-46],[-86,-50],[-42,-104],[-68,-47],[-30,-127],[-39,-23],[-53,128]],[[14614,2512],[53,223],[-8,63],[-77,-6],[-12,51],[-100,37],[-17,60],[13,80],[-25,65],[-148,185],[-104,-7]],[[11987,3692],[-34,-100],[25,-65],[-12,-125],[-53,-89],[53,-100],[-103,1],[11,-118],[-115,-124],[-205,-14]],[[11554,2958],[13,79],[-27,82],[6,49],[78,85],[-38,51],[-13,135],[-110,22],[7,80],[-54,58],[-3,24],[77,78],[-44,111],[68,24],[120,-5],[60,40],[40,2],[34,-77],[126,-88],[25,0],[31,36],[37,-52]],[[13417,3373],[6,-19],[18,12],[-4,-39],[-11,-30],[-44,-24],[-31,-153],[-36,-57],[4,-264],[-28,-55],[26,-78],[40,-1],[2,-202]],[[13359,2463],[0,-25],[106,-10],[34,-50],[-130,-29]],[[13369,2349],[-76,80],[-65,119],[-30,196],[-73,-2],[-33,26],[-23,-2],[-38,-73],[-91,-5],[-94,-49],[-67,-88],[-51,-13],[60,-127],[-136,-80]],[[12652,2331],[-3,111],[-25,4],[18,33],[-15,104],[15,35],[-43,43],[-7,47]],[[12592,2708],[45,120],[78,118],[10,110],[44,15],[46,51],[-21,58],[18,20],[-16,35],[18,96],[39,22],[19,48],[34,5],[74,102],[45,171]],[[12592,2708],[-62,15],[-38,67],[-119,70]],[[12373,2860],[-51,77],[-171,92],[-61,69],[-8,59],[164,155],[-25,160],[9,136]],[[12230,3608],[28,-23],[63,7],[24,45],[63,36],[134,-45],[48,6],[5,29]],[[11987,3692],[69,-36],[76,-86],[30,1],[36,41],[32,-4]],[[12373,2860],[-101,-112],[-33,-114],[17,-101],[-40,-135],[57,-59],[44,85],[37,-43],[11,-119],[-62,-218],[-69,33],[-96,-112]],[[12138,1965],[-120,340],[-46,35],[-147,10],[-113,34],[-53,-32],[-73,34],[32,244],[-68,261]],[[11550,2891],[4,67]],[[14189,3263],[-54,-40],[-134,-41],[-262,-203]],[[13739,2979],[14,156],[-34,-28],[-45,4],[-21,56],[-3,198],[-50,45]],[[13739,2979],[-111,-260]],[[13628,2719],[-132,-229],[-137,-27]],[[14614,2512],[-98,-23],[-70,-160],[-159,164],[-135,-95],[-27,138],[26,79],[-63,87],[-74,21],[-168,-110],[-218,106]],[[15295,2614],[-4,-50],[-55,-17],[17,-100],[-50,-18],[38,-61],[-59,-62],[41,-53],[50,11],[56,-35],[-3,-21],[-47,0],[-20,-43],[-134,10],[55,-82],[-27,-56],[-34,39],[-35,-56],[4,-119],[-52,-33],[19,-37],[-45,-49],[62,-105],[-3,-52],[-45,-18],[-12,-153],[43,-43],[-2,-30],[-81,-38],[-40,13],[-6,38],[-23,-26],[-56,-63],[-101,44],[-64,-81],[-41,55],[-52,-12],[-37,-36],[-96,98],[-28,-105],[-48,7],[-7,36],[-12,-10],[-23,17],[-68,-35],[-34,19],[-65,-60],[-14,-41],[-34,3],[-28,-24],[-28,64],[30,69],[-43,16],[-6,32],[-28,-4],[-26,47],[-34,2],[9,51],[-136,351],[-34,102]],[[13799,1910],[-28,5],[11,39],[93,192],[-21,13],[-56,-19],[-48,82],[-39,5],[-54,19],[4,-37],[-42,-32],[-23,-65],[-29,35],[-46,-22],[-1,35],[-126,70]],[[13394,2230],[-24,25],[-1,94]],[[12652,2331],[-2,-16],[-24,9],[8,-77],[55,-64],[-2,-92],[-29,-72]],[[12658,2019],[-21,-42],[20,-49],[-14,-33],[11,-315],[-80,-423],[-123,-339],[-55,-63],[-85,-162],[-45,-4]],[[12266,589],[-344,-7]],[[11922,582],[78,268],[42,666],[96,449]],[[11922,582],[-210,-5],[-405,-20],[131,316],[132,277],[0,51],[21,4],[-19,21],[25,24],[-16,44],[-29,10],[-1,59],[-33,40],[14,101],[-105,34],[-37,65],[-3,98],[41,49],[-28,67],[0,393],[-53,121],[57,83],[26,109],[-57,111],[-5,67],[33,84],[49,32],[58,-10],[42,84]],[[13394,2230],[-102,-358],[-66,10],[-131,89],[-195,24],[-164,-29],[-40,58],[-38,-5]],[[13799,1910],[-51,-72],[-5,-70],[-173,-401],[-43,-181],[-47,-32],[-36,-109],[-34,18],[-38,-21],[-36,11],[-52,-97],[-49,-2],[8,27],[-19,-12],[-2,27],[-60,-27],[-44,-386],[-26,-25],[-155,17],[-95,-24],[-16,-132],[-73,-173],[14,-27],[-20,-7],[-27,-36],[-36,37],[-26,-32],[20,-15],[-34,2],[20,-22],[-36,12],[13,-19],[-20,-17],[-80,12],[-30,-77],[15,-16],[-68,-41],[-66,54],[-7,-16],[-28,51],[-29,-7],[-4,132],[-75,67],[17,308]]],"transform":{"scale":[0.00022222437056030676,0.00020156322247449714],"translate":[89.69693501853635,24.136128604451585]},"objects":{"India_AC":{"type":"GeometryCollection","geometries":[{"arcs":[[0,1,2,3,4,5]],"type":"Polygon","properties":{"ac_no":126,"name":"Sadiya","state_code":"S03","ls_parent":"LAKHIMPUR"}},{"arcs":[[-5,6,7,8,9,10,11]],"type":"Polygon","properties":{"ac_no":114,"name":"Jonai","state_code":"S03","ls_parent":"LAKHIMPUR"}},{"arcs":[[-4,12,13,14,-7]],"type":"Polygon","properties":{"ac_no":121,"name":"Chabua","state_code":"S03","ls_parent":"LAKHIMPUR"}},{"arcs":[[15,16,-9,17]],"type":"Polygon","properties":{"ac_no":116,"name":"Dibrugarh","state_code":"S03","ls_parent":"DIBRUGARH"}},{"arcs":[[18,19,20,-2,21]],"type":"Polygon","properties":{"ac_no":124,"name":"Margherita","state_code":"S03","ls_parent":"DIBRUGARH"}},{"arcs":[[-15,22,23,-18,-8]],"type":"Polygon","properties":{"ac_no":121,"name":"Chabua","state_code":"S03","ls_parent":"LAKHIMPUR"}},{"arcs":[[-21,24,25,-13,-3]],"type":"Polygon","properties":{"ac_no":125,"name":"Doom Dooma","state_code":"S03","ls_parent":"LAKHIMPUR"}},{"arcs":[[26,27,28,-16,-24]],"type":"Polygon","properties":{"ac_no":117,"name":"Lahowal","state_code":"S03","ls_parent":"DIBRUGARH"}},{"arcs":[[-20,29,30,31,-25]],"type":"Polygon","properties":{"ac_no":123,"name":"Digboi","state_code":"S03","ls_parent":"DIBRUGARH"}},{"arcs":[[-32,32,33,-14,-26]],"type":"Polygon","properties":{"ac_no":122,"name":"Tinsukia","state_code":"S03","ls_parent":"DIBRUGARH"}},{"arcs":[[-11,34,35,36,37]],"type":"Polygon","properties":{"ac_no":113,"name":"Dhemaji","state_code":"S03","ls_parent":"LAKHIMPUR"}},{"arcs":[[-34,38,39,-27,-23]],"type":"Polygon","properties":{"ac_no":118,"name":"Duliajan","state_code":"S03","ls_parent":"DIBRUGARH"}},{"arcs":[[-17,-29,40,41,42,43,44,-35,-10]],"type":"Polygon","properties":{"ac_no":115,"name":"Moran","state_code":"S03","ls_parent":"DIBRUGARH"}},{"arcs":[[-37,45,46,47,48,49]],"type":"Polygon","properties":{"ac_no":111,"name":"Lakhimpur","state_code":"S03","ls_parent":"LAKHIMPUR"}},{"arcs":[[-40,50,51,52,-41,-28]],"type":"Polygon","properties":{"ac_no":119,"name":"Tingkhong","state_code":"S03","ls_parent":"DIBRUGARH"}},{"arcs":[[-31,53,54,-51,-39,-33]],"type":"Polygon","properties":{"ac_no":120,"name":"Naharkatia","state_code":"S03","ls_parent":"DIBRUGARH"}},{"arcs":[[-45,55,-46,-36]],"type":"Polygon","properties":{"ac_no":112,"name":"Dhakuakhana","state_code":"S03","ls_parent":"LAKHIMPUR"}},{"arcs":[[-49,56,57]],"type":"Polygon","properties":{"ac_no":110,"name":"Naoboicha","state_code":"S03","ls_parent":"LAKHIMPUR"}},{"arcs":[[58,59,60,-43]],"type":"Polygon","properties":{"ac_no":107,"name":"Thowra","state_code":"S03","ls_parent":"JORHAT"}},{"arcs":[[-53,61,62,63,-59,-42]],"type":"Polygon","properties":{"ac_no":105,"name":"Mahmara","state_code":"S03","ls_parent":"JORHAT"}},{"arcs":[[-55,64,65,-62,-52]],"type":"Polygon","properties":{"ac_no":106,"name":"Sonari","state_code":"S03","ls_parent":"JORHAT"}},{"arcs":[[-61,66,67,68,69,70,71,72,-47,-56,-44]],"type":"Polygon","properties":{"ac_no":99,"name":"Majuli","state_code":"S03","ls_parent":"LAKHIMPUR"}},{"arcs":[[-60,-64,73,74,-67]],"type":"Polygon","properties":{"ac_no":108,"name":"Sibsagar","state_code":"S03","ls_parent":"JORHAT"}},{"arcs":[[-48,-73,75,76,77,-57]],"type":"Polygon","properties":{"ac_no":109,"name":"Bihpuria","state_code":"S03","ls_parent":"TEZPUR"}},{"arcs":[[-75,78,79,80,81,-68]],"type":"Polygon","properties":{"ac_no":103,"name":"Amguri","state_code":"S03","ls_parent":"JORHAT"}},{"arcs":[[82,-79,-74,-63,-66]],"type":"Polygon","properties":{"ac_no":104,"name":"Nazira","state_code":"S03","ls_parent":"JORHAT"}},{"arcs":[[-82,83,84,-69]],"type":"Polygon","properties":{"ac_no":102,"name":"Teok","state_code":"S03","ls_parent":"JORHAT"}},{"arcs":[[-77,85,86,87]],"type":"Polygon","properties":{"ac_no":78,"name":"Gohpur","state_code":"S03","ls_parent":"TEZPUR"}},{"arcs":[[88,89,90,91,92]],"type":"Polygon","properties":{"ac_no":74,"name":"Rangapara","state_code":"S03","ls_parent":"TEZPUR"}},{"arcs":[[-72,93,94,95,96,-86,-76]],"type":"Polygon","properties":{"ac_no":93,"name":"Bokakhat","state_code":"S03","ls_parent":"KALIABOR"}},{"arcs":[[-87,-97,97,98,99,100]],"type":"Polygon","properties":{"ac_no":77,"name":"Behali","state_code":"S03","ls_parent":"TEZPUR"}},{"arcs":[[-85,101,102,103,-70]],"type":"Polygon","properties":{"ac_no":98,"name":"Jorhat","state_code":"S03","ls_parent":"JORHAT"}},{"arcs":[[104,105,-102,-84,-81]],"type":"Polygon","properties":{"ac_no":101,"name":"Mariani","state_code":"S03","ls_parent":"JORHAT"}},{"arcs":[[-104,106,107,-71]],"type":"Polygon","properties":{"ac_no":97,"name":"Dergaon","state_code":"S03","ls_parent":"KALIABOR"}},{"arcs":[[-92,108,109,110]],"type":"Polygon","properties":{"ac_no":71,"name":"Dhekiajuli","state_code":"S03","ls_parent":"TEZPUR"}},{"arcs":[[111,-100,112,113,-89]],"type":"Polygon","properties":{"ac_no":75,"name":"Sootea","state_code":"S03","ls_parent":"TEZPUR"}},{"arcs":[[-110,114,115,116,117,118]],"type":"Polygon","properties":{"ac_no":70,"name":"Majbat","state_code":"S03","ls_parent":"MANGALDOI"}},{"arcs":[[119,120,-113,-99]],"type":"Polygon","properties":{"ac_no":76,"name":"Biswanath","state_code":"S03","ls_parent":"TEZPUR"}},{"arcs":[[121,-118,122,123]],"type":"Polygon","properties":{"ac_no":69,"name":"Udalguri","state_code":"S03","ls_parent":"MANGALDOI"}},{"arcs":[[124,-124,125,126,127]],"type":"Polygon","properties":{"ac_no":64,"name":"Panery","state_code":"S03","ls_parent":"MANGALDOI"}},{"arcs":[[-108,128,129,130,131,-94]],"type":"Polygon","properties":{"ac_no":96,"name":"Khumtai","state_code":"S03","ls_parent":"KALIABOR"}},{"arcs":[[-106,132,133,-129,-107,-103]],"type":"Polygon","properties":{"ac_no":100,"name":"Titabar","state_code":"S03","ls_parent":"JORHAT"}},{"arcs":[[134,135,136,137,-115,-109,-91]],"type":"Polygon","properties":{"ac_no":72,"name":"Barchalla","state_code":"S03","ls_parent":"TEZPUR"}},{"arcs":[[138,139,140,141,142]],"type":"Polygon","properties":{"ac_no":31,"name":"Sidli","state_code":"S03","ls_parent":"KOKRAJHAR"}},{"arcs":[[143,144,145,146,147,148,149]],"type":"Polygon","properties":{"ac_no":62,"name":"Barama","state_code":"S03","ls_parent":"KOKRAJHAR"}},{"arcs":[[150,151,152,-145,153,-128]],"type":"Polygon","properties":{"ac_no":58,"name":"Tamulpur","state_code":"S03","ls_parent":"KOKRAJHAR"}},{"arcs":[[-114,-121,154,155,-135,-90]],"type":"Polygon","properties":{"ac_no":73,"name":"Tezpur","state_code":"S03","ls_parent":"TEZPUR"}},{"arcs":[[-96,156,157,158,-120,-98]],"type":"Polygon","properties":{"ac_no":89,"name":"Kaliabor","state_code":"S03","ls_parent":"KALIABOR"}},{"arcs":[[159,160,161,162,163,-151,-127]],"type":"Polygon","properties":{"ac_no":56,"name":"Kamalpur","state_code":"S03","ls_parent":"MANGALDOI"}},{"arcs":[[-143,164,165,166,167,168,169]],"type":"Polygon","properties":{"ac_no":30,"name":"Kokrajhar East","state_code":"S03","ls_parent":"KOKRAJHAR"}},{"arcs":[[170,171,172,173,174,175]],"type":"Polygon","properties":{"ac_no":41,"name":"Bhabanipur","state_code":"S03","ls_parent":"KOKRAJHAR"}},{"arcs":[[176,177,178,-172]],"type":"Polygon","properties":{"ac_no":63,"name":"Chapaguri","state_code":"S03","ls_parent":"KOKRAJHAR"}},{"arcs":[[179,-150,180,-178]],"type":"Polygon","properties":{"ac_no":63,"name":"Chapaguri","state_code":"S03","ls_parent":"KOKRAJHAR"}},{"arcs":[[-176,181,182,183,184,185,186]],"type":"Polygon","properties":{"ac_no":40,"name":"Sorbhog","state_code":"S03","ls_parent":"KOKRAJHAR"}},{"arcs":[[-132,187,188,189,190,-157,-95]],"type":"Polygon","properties":{"ac_no":17,"name":"Bokajan","state_code":"S03","ls_parent":"AUTONOMOUS DISTRICT"}},{"arcs":[[-186,191,-140,192]],"type":"Polygon","properties":{"ac_no":33,"name":"Bijni","state_code":"S03","ls_parent":"KOKRAJHAR"}},{"arcs":[[-131,193,194,-188]],"type":"Polygon","properties":{"ac_no":94,"name":"Sarupathar","state_code":"S03","ls_parent":"KALIABOR"}},{"arcs":[[195,-194,-130,-134]],"type":"Polygon","properties":{"ac_no":95,"name":"Golaghat","state_code":"S03","ls_parent":"KALIABOR"}},{"arcs":[[-191,196,197,198,199,-158]],"type":"Polygon","properties":{"ac_no":18,"name":"Howraghat","state_code":"S03","ls_parent":"AUTONOMOUS DISTRICT"}},{"arcs":[[-138,200,201,202,-116]],"type":"Polygon","properties":{"ac_no":68,"name":"Dalgaon","state_code":"S03","ls_parent":"MANGALDOI"}},{"arcs":[[-169,203,204,205,206,207,208,209]],"type":"Polygon","properties":{"ac_no":28,"name":"Gossaigaon","state_code":"S03","ls_parent":"KOKRAJHAR"}},{"arcs":[[-203,210,211,-160,-126,-123,-117]],"type":"Polygon","properties":{"ac_no":65,"name":"Kalaigaon","state_code":"S03","ls_parent":"MANGALDOI"}},{"arcs":[[-200,212,213,-155,-159]],"type":"Polygon","properties":{"ac_no":88,"name":"Samaguri","state_code":"S03","ls_parent":"KALIABOR"}},{"arcs":[[214,215,216,217,218,-141]],"type":"Polygon","properties":{"ac_no":32,"name":"Bongaigaon","state_code":"S03","ls_parent":"BARPETA"}},{"arcs":[[-181,-149,219,220,-173,-179]],"type":"Polygon","properties":{"ac_no":42,"name":"Patacharkuchi","state_code":"S03","ls_parent":"BARPETA"}},{"arcs":[[-214,221,222,223,224,-156]],"type":"Polygon","properties":{"ac_no":85,"name":"Rupohihat","state_code":"S03","ls_parent":"KALIABOR"}},{"arcs":[[-185,225,-215,-192]],"type":"Polygon","properties":{"ac_no":33,"name":"Bijni","state_code":"S03","ls_parent":"KOKRAJHAR"}},{"arcs":[[-202,226,227,228,-211]],"type":"Polygon","properties":{"ac_no":67,"name":"Mangaldoi","state_code":"S03","ls_parent":"MANGALDOI"}},{"arcs":[[229,230,231,-146,-153]],"type":"Polygon","properties":{"ac_no":59,"name":"Nalbari","state_code":"S03","ls_parent":"MANGALDOI"}},{"arcs":[[-225,232,233,-136]],"type":"Polygon","properties":{"ac_no":83,"name":"Dhing","state_code":"S03","ls_parent":"KALIABOR"}},{"arcs":[[-164,234,-230,-152]],"type":"Polygon","properties":{"ac_no":57,"name":"Rangiya","state_code":"S03","ls_parent":"MANGALDOI"}},{"arcs":[[-234,235,236,-227,-201,-137]],"type":"Polygon","properties":{"ac_no":81,"name":"Laharighat","state_code":"S03","ls_parent":"NOWGONG"}},{"arcs":[[-142,-219,237,238,-165]],"type":"Polygon","properties":{"ac_no":31,"name":"Sidli","state_code":"S03","ls_parent":"KOKRAJHAR"}},{"arcs":[[-229,239,240,241,242,-161,-212]],"type":"Polygon","properties":{"ac_no":66,"name":"Sipajhar","state_code":"S03","ls_parent":"MANGALDOI"}},{"arcs":[[-232,243,244,245,-147]],"type":"Polygon","properties":{"ac_no":61,"name":"Dharmapur","state_code":"S03","ls_parent":"BARPETA"}},{"arcs":[[246,247,248,-233,-224]],"type":"Polygon","properties":{"ac_no":84,"name":"Batadroba","state_code":"S03","ls_parent":"KALIABOR"}},{"arcs":[[-148,-246,249,-220]],"type":"Polygon","properties":{"ac_no":42,"name":"Patacharkuchi","state_code":"S03","ls_parent":"BARPETA"}},{"arcs":[[-190,250,251,252,253,-197]],"type":"Polygon","properties":{"ac_no":19,"name":"Diphu","state_code":"S03","ls_parent":"AUTONOMOUS DISTRICT"}},{"arcs":[[-175,254,255,256,257,-182]],"type":"Polygon","properties":{"ac_no":43,"name":"Barpeta","state_code":"S03","ls_parent":"BARPETA"}},{"arcs":[[258,259,-247,-223]],"type":"Polygon","properties":{"ac_no":86,"name":"Nowgong","state_code":"S03","ls_parent":"NOWGONG"}},{"arcs":[[-184,260,261,-216,-226]],"type":"Polygon","properties":{"ac_no":34,"name":"Abhayapuri North","state_code":"S03","ls_parent":"BARPETA"}},{"arcs":[[262,263,-259,-222,-213,-199]],"type":"Polygon","properties":{"ac_no":87,"name":"Barhampur","state_code":"S03","ls_parent":"NOWGONG"}},{"arcs":[[264,265,266,-204,-168]],"type":"Polygon","properties":{"ac_no":29,"name":"Kokrajhar West","state_code":"S03","ls_parent":"KOKRAJHAR"}},{"arcs":[[-249,267,268,-236]],"type":"Polygon","properties":{"ac_no":80,"name":"Marigaon","state_code":"S03","ls_parent":"NOWGONG"}},{"arcs":[[-166,-239,269]],"type":"Polygon","properties":{"ac_no":31,"name":"Sidli","state_code":"S03","ls_parent":"KOKRAJHAR"}},{"arcs":[[-258,270,271,-261,-183]],"type":"Polygon","properties":{"ac_no":44,"name":"Jania","state_code":"S03","ls_parent":"BARPETA"}},{"arcs":[[-221,-250,-245,272,273,-255,-174]],"type":"Polygon","properties":{"ac_no":46,"name":"Sarukhetri","state_code":"S03","ls_parent":"BARPETA"}},{"arcs":[[-163,274,275,276,277,-235]],"type":"Polygon","properties":{"ac_no":55,"name":"Hajo","state_code":"S03","ls_parent":"GAUHATI"}},{"arcs":[[-278,278,279,280,-273,-244,-231]],"type":"Polygon","properties":{"ac_no":60,"name":"Barkhetry","state_code":"S03","ls_parent":"GAUHATI"}},{"arcs":[[-243,281,282,-275,-162]],"type":"Polygon","properties":{"ac_no":51,"name":"Jalukbari","state_code":"S03","ls_parent":"GAUHATI"}},{"arcs":[[-260,-264,283,284,285,286,-268,-248]],"type":"Polygon","properties":{"ac_no":82,"name":"Raha","state_code":"S03","ls_parent":"NOWGONG"}},{"arcs":[[-269,-287,287,288,289,-240,-228,-237]],"type":"Polygon","properties":{"ac_no":79,"name":"Jagiroad","state_code":"S03","ls_parent":"NOWGONG"}},{"arcs":[[-262,-272,290,291,292,293,-217]],"type":"Polygon","properties":{"ac_no":35,"name":"Abhayapuri South","state_code":"S03","ls_parent":"BARPETA"}},{"arcs":[[-281,294,295,296,-256,-274]],"type":"Polygon","properties":{"ac_no":47,"name":"Chenga","state_code":"S03","ls_parent":"BARPETA"}},{"arcs":[[-270,-238,-218,-294,297,298,299,-265,-167]],"type":"Polygon","properties":{"ac_no":27,"name":"Bilasipara East","state_code":"S03","ls_parent":"DHUBRI"}},{"arcs":[[-198,-254,300,301,-284,-263]],"type":"Polygon","properties":{"ac_no":90,"name":"Jamunamukh","state_code":"S03","ls_parent":"NOWGONG"}},{"arcs":[[-290,302,303,304,-241]],"type":"Polygon","properties":{"ac_no":52,"name":"Dispur","state_code":"S03","ls_parent":"GAUHATI"}},{"arcs":[[-300,305,306,307,-266]],"type":"Polygon","properties":{"ac_no":26,"name":"Bilasipara West","state_code":"S03","ls_parent":"DHUBRI"}},{"arcs":[[-267,-308,308,309,310,311,-205]],"type":"Polygon","properties":{"ac_no":24,"name":"Gauripur","state_code":"S03","ls_parent":"DHUBRI"}},{"arcs":[[-257,-297,312,313,314,-291,-271]],"type":"Polygon","properties":{"ac_no":45,"name":"Baghbar","state_code":"S03","ls_parent":"BARPETA"}},{"arcs":[[-312,315,316,317,-206]],"type":"Polygon","properties":{"ac_no":25,"name":"Golakganj","state_code":"S03","ls_parent":"DHUBRI"}},{"arcs":[[318,-304,319,320,-276,-283]],"type":"Polygon","properties":{"ac_no":54,"name":"Gauhati West","state_code":"S03","ls_parent":"GAUHATI"}},{"arcs":[[-242,-305,-319,-282]],"type":"Polygon","properties":{"ac_no":53,"name":"Gauhati East","state_code":"S03","ls_parent":"GAUHATI"}},{"arcs":[[321,322,323,324,-288,-286]],"type":"Polygon","properties":{"ac_no":20,"name":"Baithalangso","state_code":"S03","ls_parent":"AUTONOMOUS DISTRICT"}},{"arcs":[[-315,325,326,327,-292]],"type":"Polygon","properties":{"ac_no":37,"name":"Goalpara East","state_code":"S03","ls_parent":"DHUBRI"}},{"arcs":[[-302,328,-322,-285]],"type":"Polygon","properties":{"ac_no":91,"name":"Hojai","state_code":"S03","ls_parent":"NOWGONG"}},{"arcs":[[-295,-280,329,330,331]],"type":"Polygon","properties":{"ac_no":49,"name":"Chaygaon","state_code":"S03","ls_parent":"GAUHATI"}},{"arcs":[[-328,332,333,-298,-293]],"type":"Polygon","properties":{"ac_no":38,"name":"Goalpara West","state_code":"S03","ls_parent":"DHUBRI"}},{"arcs":[[-296,-332,334,335,-313]],"type":"Polygon","properties":{"ac_no":48,"name":"Boko","state_code":"S03","ls_parent":"GAUHATI"}},{"arcs":[[-279,-277,-321,336,-330]],"type":"Polygon","properties":{"ac_no":50,"name":"Palasbari","state_code":"S03","ls_parent":"GAUHATI"}},{"arcs":[[-253,337,-323,-329,-301]],"type":"Polygon","properties":{"ac_no":92,"name":"Lumding","state_code":"S03","ls_parent":"NOWGONG"}},{"arcs":[[-299,-334,338,339,-306]],"type":"Polygon","properties":{"ac_no":39,"name":"Jaleswar","state_code":"S03","ls_parent":"DHUBRI"}},{"arcs":[[-336,340,-326,-314]],"type":"Polygon","properties":{"ac_no":36,"name":"Dudhnai","state_code":"S03","ls_parent":"GAUHATI"}},{"arcs":[[-340,341,342,343,344,-309,-307]],"type":"Polygon","properties":{"ac_no":22,"name":"Salmara South","state_code":"S03","ls_parent":"DHUBRI"}},{"arcs":[[-345,345,-310]],"type":"Polygon","properties":{"ac_no":23,"name":"Dhubri","state_code":"S03","ls_parent":"DHUBRI"}},{"arcs":[[-338,-252,346,347,348,349,350,351,-324]],"type":"Polygon","properties":{"ac_no":16,"name":"Haflong","state_code":"S03","ls_parent":"AUTONOMOUS DISTRICT"}},{"arcs":[[352,-343]],"type":"Polygon","properties":{"ac_no":21,"name":"Mankachar","state_code":"S03","ls_parent":"DHUBRI"}},{"arcs":[[353,354,355,356,-351]],"type":"Polygon","properties":{"ac_no":15,"name":"Katigora","state_code":"S03","ls_parent":"SILCHAR"}},{"arcs":[[357,358,359,-349]],"type":"Polygon","properties":{"ac_no":12,"name":"Udharbond","state_code":"S03","ls_parent":"SILCHAR"}},{"arcs":[[-360,360,361,362,-354,-350]],"type":"Polygon","properties":{"ac_no":14,"name":"Barkhola","state_code":"S03","ls_parent":"SILCHAR"}},{"arcs":[[-348,363,364,365,-358]],"type":"Polygon","properties":{"ac_no":13,"name":"Lakhipur","state_code":"S03","ls_parent":"SILCHAR"}},{"arcs":[[366,367]],"type":"Polygon","properties":{"ac_no":3,"name":"Karimganj North","state_code":"S03","ls_parent":"KARIMGANJ"}},{"arcs":[[368,369,370,371,372,-355,-363]],"type":"Polygon","properties":{"ac_no":8,"name":"Algapur","state_code":"S03","ls_parent":"KARIMGANJ"}},{"arcs":[[-373,373,374,375,-356]],"type":"Polygon","properties":{"ac_no":5,"name":"Badarpur","state_code":"S03","ls_parent":"KARIMGANJ"}},{"arcs":[[376,-375,377,378,379,-367]],"type":"Polygon","properties":{"ac_no":4,"name":"Karimganj South","state_code":"S03","ls_parent":"KARIMGANJ"}},{"arcs":[[-359,380,381,-361]],"type":"Polygon","properties":{"ac_no":9,"name":"Silchar","state_code":"S03","ls_parent":"SILCHAR"}},{"arcs":[[-382,382,383,-369,-362]],"type":"Polygon","properties":{"ac_no":8,"name":"Algapur","state_code":"S03","ls_parent":"KARIMGANJ"}},{"arcs":[[-366,384,-383,-381]],"type":"Polygon","properties":{"ac_no":10,"name":"Sonai","state_code":"S03","ls_parent":"SILCHAR"}},{"arcs":[[385,386,387,-370,-384,-385,-365]],"type":"Polygon","properties":{"ac_no":11,"name":"Dholai","state_code":"S03","ls_parent":"SILCHAR"}},{"arcs":[[-372,388,389,390,391,-378,-374]],"type":"Polygon","properties":{"ac_no":1,"name":"Ratabari","state_code":"S03","ls_parent":"KARIMGANJ"}},{"arcs":[[-392,392,-379]],"type":"Polygon","properties":{"ac_no":2,"name":"Patharkandi","state_code":"S03","ls_parent":"KARIMGANJ"}},{"arcs":[[-388,393,-389,-371]],"type":"Polygon","properties":{"ac_no":6,"name":"Hailakandi","state_code":"S03","ls_parent":"KARIMGANJ"}},{"arcs":[[394,-390,-394,-387]],"type":"Polygon","properties":{"ac_no":7,"name":"Katlicherra","state_code":"S03","ls_parent":"KARIMGANJ"}}]}}}