{"type":"Topology","arcs":[[[30147,29426],[10,10],[17,-29],[-34,-9],[-31,-101],[117,-52],[65,-9],[56,8],[25,27],[62,-4],[71,107],[37,-93],[-21,-63],[-66,-61],[-121,-49],[-128,108],[-159,7],[-47,19],[7,42],[-38,0],[-1,35],[87,-13],[29,82],[35,-4],[4,36],[24,6]],[[18545,5542],[-9,-16],[-78,19]],[[18458,5545],[1,59],[-5,55],[-41,12],[27,27],[0,29],[-33,38],[29,-1],[12,55],[-33,5],[10,44],[-1,20],[38,22],[-7,65],[106,-47],[-40,-114],[-29,-16],[18,-17],[-16,-74],[53,-52],[-4,-69],[-23,3],[2,-59],[23,12]],[[18747,5992],[11,2],[43,-18],[-8,-104],[75,-94],[-154,-2],[-20,-41],[-32,58],[-51,-28],[-25,10],[20,103],[49,-13],[19,59],[35,1],[38,67]],[[19094,5539],[3,-41]],[[19097,5498],[-25,-12],[21,-21]],[[19093,5465],[-38,-2]],[[19055,5463],[-6,75],[45,1]],[[19001,5467],[-22,3],[4,-45],[-34,-19]],[[18949,5406],[-13,-26]],[[18936,5380],[-77,85],[15,79],[-51,24],[-7,-28]],[[18816,5540],[-30,35],[-6,58]],[[18780,5633],[15,21],[52,3],[5,16],[-30,24],[14,53],[15,-8],[22,39],[57,3],[64,72],[39,-18],[28,-7],[-9,-67],[-55,-23],[-24,-34],[-74,39],[-13,-40],[4,-31],[90,-32],[21,-176]],[[19358,5612],[-21,-5]],[[19337,5607],[-34,56],[1,-51],[-50,25]],[[19254,5637],[32,71],[27,0],[14,-42],[31,-54]],[[19223,5901],[-46,12],[5,42],[23,-10],[49,-6],[-31,-38]],[[19487,5851],[-75,32],[38,178],[4,13],[108,-45],[-73,-173],[-2,-5]],[[19337,5607],[-34,-42]],[[19303,5565],[-5,35],[-22,0],[-21,-17],[8,-32],[-9,14]],[[19254,5565],[-9,20]],[[19245,5585],[9,52]],[[19254,5565],[-33,-50]],[[19221,5515],[-3,2]],[[19218,5517],[-10,37],[-27,16],[-20,23],[2,-91]],[[19163,5502],[-66,-4]],[[19094,5539],[67,79],[84,-33]],[[19358,5612],[7,-5]],[[19365,5607],[-24,-90]],[[19341,5517],[-18,-23]],[[19323,5494],[-14,-2]],[[19309,5492],[-43,21]],[[19266,5513],[41,21],[-4,31]],[[19365,5607],[40,-8],[-2,-42]],[[19403,5557],[-18,7],[-7,-35],[-37,-12]],[[19266,5513],[-2,-14]],[[19264,5499],[-7,4],[-36,-4]],[[19221,5499],[0,16]],[[18447,5350],[10,68],[-44,33],[-3,49],[5,36],[43,9]],[[18545,5542],[19,-5],[4,23],[26,-18],[9,-37],[43,-8],[-6,-85],[-58,-27],[0,-24],[-67,-2],[-2,-27],[-49,-3],[-17,21]],[[18816,5540],[14,-55],[-62,43],[-26,48],[22,56],[16,1]],[[18711,5684],[8,0],[-8,-98],[-51,-27],[-84,27],[-4,36],[28,-11],[10,53],[65,-5],[36,25]],[[19403,5557],[-16,-101]],[[19387,5456],[-35,5]],[[19352,5461],[7,28],[-36,5]],[[19221,5499],[39,-39],[-20,-27]],[[19240,5433],[-55,-20]],[[19185,5413],[-7,43],[-35,24],[-19,-31],[-29,-2],[22,19],[-24,-1]],[[19163,5502],[41,-15],[14,30]],[[19276,5471],[28,-24]],[[19304,5447],[0,-1]],[[19304,5446],[-25,-5]],[[19279,5441],[-3,30]],[[19275,5472],[-22,3],[11,24]],[[19309,5492],[-30,-19],[-4,-1]],[[19275,5472],[1,-1]],[[19279,5441],[-39,-8]],[[19352,5461],[-13,2],[-35,-16]],[[19185,5413],[0,-17]],[[19185,5396],[1,-89]],[[19186,5307],[-40,28],[-44,0]],[[19102,5335],[-38,1],[-8,53],[-107,17]],[[19001,5467],[5,-47],[27,3],[-5,27],[27,13]],[[19387,5456],[-14,-52]],[[19373,5404],[-83,16]],[[19290,5420],[14,26]],[[19290,5420],[-28,-59],[-42,4],[1,32],[-36,-1]],[[19373,5404],[-31,-133]],[[19342,5271],[-128,25]],[[19214,5296],[0,25],[-28,-14]],[[18777,5194],[2,-3],[-3,-62],[-14,-4],[15,69]],[[19102,5335],[5,-134]],[[19107,5201],[-12,-6]],[[19095,5195],[-57,8],[-1,-40]],[[19037,5163],[-29,30],[5,68],[-39,4],[-114,-36],[-38,11]],[[18822,5240],[-9,27],[-101,-16],[1,-24],[-50,-2],[-1,54],[59,-13],[1,28],[37,1],[4,121],[37,0],[64,-1],[-3,-28],[-51,1],[10,-50],[-16,-47],[26,-16],[26,11],[32,-21],[-6,15],[35,0],[4,57],[42,11],[-27,32]],[[19342,5271],[-77,-265],[0,51],[-32,42],[-85,3],[-27,-86],[-44,10],[-18,39],[40,64],[-4,66]],[[19107,5201],[31,11],[-5,-73],[30,-2],[51,159]],[[18709,4888],[27,-36],[-38,-42],[-31,48],[5,38],[17,1],[20,-9]],[[18543,5044],[29,-7],[36,-17],[-11,-49],[54,-29],[0,-43],[-113,7],[-24,39],[29,99]],[[18341,5133],[-14,104],[40,-31],[58,68],[26,-8],[17,-38],[17,-1],[2,38],[28,-10],[-3,-30],[36,-2],[0,-48],[64,-17],[-22,-72],[-48,-13],[-91,21],[7,77],[-42,2],[1,-37],[-32,-1],[-46,-23],[2,21]],[[19261,4991],[-29,-117]],[[19232,4874],[-193,14],[-60,6],[-16,104],[-50,11]],[[18913,5009],[38,-1],[-1,30],[120,-45],[15,-55],[23,0],[33,45],[70,-16],[8,-20],[14,30],[-32,9],[21,31],[39,-26]],[[19037,5163],[-24,-98],[-39,0],[-6,72],[-36,13],[-57,-15],[-7,-47],[-51,80],[5,72]],[[45,4299],[-27,50],[23,29],[38,-26],[-10,-29],[-24,-24]],[[20,4371],[-20,88],[24,41],[37,1],[6,21],[-4,48],[-42,50],[31,20],[36,-32],[-13,-109],[56,-33],[-1,-29],[-34,-32],[-46,3],[-5,17],[-19,-18],[23,-18],[-29,-18]],[[18747,4937],[35,-5],[10,-40],[-48,3],[3,42]],[[19232,4874],[-21,-121],[-51,9],[-18,-30],[-39,5],[-5,36],[-22,12],[-48,-83],[-159,48],[-33,33],[7,23],[40,2],[7,69],[51,-6],[-28,138]],[[18997,838],[-7,31],[41,6],[49,-32],[87,0],[13,-27],[-11,-11],[51,-35],[28,22],[1,53],[40,7],[9,23],[25,-28],[88,20],[-4,-31],[53,-8],[15,-55],[-1,-93]],[[19474,680],[-197,-9],[4,-59],[-27,-3],[9,-20]],[[19263,589],[-100,28],[-10,67],[-91,-16]],[[19062,668],[-15,50],[-21,-1],[-9,25],[26,32],[-25,-3],[-2,26],[-23,1],[4,40]],[[19474,680],[-7,-204]],[[19467,476],[-101,10],[-83,58]],[[19283,544],[-20,45]],[[18959,460],[-4,0],[3,6],[1,-6]],[[18880,545],[-3,-11],[-6,11],[9,0]],[[19283,544],[-22,2],[14,-24],[-24,-17],[13,-12],[-17,-73],[13,-6]],[[19260,414],[-51,-41]],[[19209,373],[-27,29],[-54,3],[-2,-18]],[[19126,387],[-6,18],[-49,7]],[[19071,412],[-4,2]],[[19067,414],[-10,9]],[[19057,423],[-12,20],[-63,-11],[-9,49],[-82,23],[20,37],[-27,-8],[18,15],[-14,20],[60,52],[-13,25],[-9,-31],[-57,5],[-2,81],[52,10],[37,-30],[32,3],[-5,-42],[79,27]],[[19467,476],[2,-41]],[[19469,435],[-30,-1],[-18,-33],[-36,-1],[-18,-29],[-101,-3],[-17,-23],[11,69]],[[19261,249],[2,15],[10,-13],[-12,-2]],[[19126,387],[0,-44],[-93,-24],[33,40],[-10,10],[-20,-26],[21,80]],[[19067,414],[-5,-9],[-3,-37],[26,1],[-17,27],[3,16]],[[19090,365],[-8,1],[-2,-12],[17,13],[-7,-2]],[[19044,363],[-3,0],[0,-4],[2,0],[1,4]],[[19101,360],[-1,5],[-2,-1],[3,-4]],[[19102,355],[-3,1],[0,-2],[2,-1],[1,2]],[[19097,371],[-1,3],[-2,-1],[3,-2]],[[19091,377],[0,2],[-2,0],[2,-2]],[[19416,3],[-47,-3],[-13,111],[-31,-21],[-60,50],[-2,49],[19,-29],[60,26],[-12,46],[-50,7],[1,24],[78,15],[-110,38],[-43,-18],[-20,37],[-2,-23],[-28,-9],[-5,34],[51,17],[-11,30],[18,-11]],[[19469,435],[-2,-23],[0,-383],[-9,-27],[-42,1]]],"transform":{"scale":[0.0002222234916266779,0.00020156551992045626],"translate":[75.52663646510086,10.827444928440741]},"objects":{"India_AC":{"type":"GeometryCollection","geometries":[{"arcs":[[0]],"type":"Polygon","properties":{"ac_no":30,"name":"Yanam","state_code":"S26","ls_parent":"PONDICHERRY"}},{"arcs":[[[1,2]],[[3]]],"type":"MultiPolygon","properties":{"ac_no":1,"name":"Mannadipet","state_code":"S26","ls_parent":"PONDICHERRY"}},{"arcs":[[[4,5,6,7]],[[8,9,10,11,12]]],"type":"MultiPolygon","properties":{"ac_no":3,"name":"Oussudu (SC)","state_code":"S26","ls_parent":"PONDICHERRY"}},{"arcs":[[[13,14,15]],[[16]],[[17]]],"type":"MultiPolygon","properties":{"ac_no":12,"name":"Kalapet","state_code":"S26","ls_parent":"PONDICHERRY"}},{"arcs":[[-15,18,19,20,21]],"type":"Polygon","properties":{"ac_no":11,"name":"Lawspet","state_code":"S26","ls_parent":"PONDICHERRY"}},{"arcs":[[-21,22,23,24,25,-5,26]],"type":"Polygon","properties":{"ac_no":8,"name":"Indira Nagar","state_code":"S26","ls_parent":"PONDICHERRY"}},{"arcs":[[27,28,29,30,31,32,-19,-14]],"type":"Polygon","properties":{"ac_no":10,"name":"Kamraj Nagar","state_code":"S26","ls_parent":"PONDICHERRY"}},{"arcs":[[33,34,-29]],"type":"Polygon","properties":{"ac_no":13,"name":"Muthialpet","state_code":"S26","ls_parent":"PONDICHERRY"}},{"arcs":[[-33,35,36,37,-23,-20]],"type":"Polygon","properties":{"ac_no":9,"name":"Thattanchavady","state_code":"S26","ls_parent":"PONDICHERRY"}},{"arcs":[[[38,-2,39]],[[-12,40]],[[41]]],"type":"MultiPolygon","properties":{"ac_no":2,"name":"Thirubhuvanai (SC)","state_code":"S26","ls_parent":"PONDICHERRY"}},{"arcs":[[42,43,44,-30,-35]],"type":"Polygon","properties":{"ac_no":14,"name":"Raj Bhavan","state_code":"S26","ls_parent":"PONDICHERRY"}},{"arcs":[[-24,-38,45,46,47,-6,-26,48]],"type":"Polygon","properties":{"ac_no":6,"name":"Ozhukarai","state_code":"S26","ls_parent":"PONDICHERRY"}},{"arcs":[[[49,50,51,52]],[[53,-36,-32,54]]],"type":"MultiPolygon","properties":{"ac_no":17,"name":"Nellithope","state_code":"S26","ls_parent":"PONDICHERRY"}},{"arcs":[[[-54,55,-53,56,-46,-37]],[[-49,-25]]],"type":"MultiPolygon","properties":{"ac_no":7,"name":"Kadirgamam","state_code":"S26","ls_parent":"PONDICHERRY"}},{"arcs":[[-45,57,-50,-56,-55,-31]],"type":"Polygon","properties":{"ac_no":16,"name":"Orleampeth","state_code":"S26","ls_parent":"PONDICHERRY"}},{"arcs":[[-48,58,59,60,61,-9,62,-7]],"type":"Polygon","properties":{"ac_no":5,"name":"Villianur","state_code":"S26","ls_parent":"PONDICHERRY"}},{"arcs":[[-44,63,64,65,-51,-58]],"type":"Polygon","properties":{"ac_no":15,"name":"Oupalam","state_code":"S26","ls_parent":"PONDICHERRY"}},{"arcs":[[-66,66,-59,-47,-57,-52]],"type":"Polygon","properties":{"ac_no":18,"name":"Mudaliarpet","state_code":"S26","ls_parent":"PONDICHERRY"}},{"arcs":[[67,68,69,-60,-67,-65]],"type":"Polygon","properties":{"ac_no":19,"name":"Ariankuppam","state_code":"S26","ls_parent":"PONDICHERRY"}},{"arcs":[[[70]],[[-10,-62,71,72,73,74,75]]],"type":"MultiPolygon","properties":{"ac_no":4,"name":"Mangalam","state_code":"S26","ls_parent":"PONDICHERRY"}},{"arcs":[[76,-73,77,-69]],"type":"Polygon","properties":{"ac_no":20,"name":"Manavely","state_code":"S26","ls_parent":"PONDICHERRY"}},{"arcs":[[[78]],[[79]],[[80]]],"type":"MultiPolygon","properties":{"ac_no":22,"name":"Nettapakkam (SC)","state_code":"S26","ls_parent":"PONDICHERRY"}},{"arcs":[[[81,82,83]],[[84,-75]]],"type":"MultiPolygon","properties":{"ac_no":21,"name":"Embalam (SC)","state_code":"S26","ls_parent":"PONDICHERRY"}},{"arcs":[[[85]],[[86]]],"type":"MultiPolygon","properties":{"ac_no":29,"name":"Mahe","state_code":"S26","ls_parent":"PONDICHERRY"}},{"arcs":[[[87]],[[88,-83]]],"type":"MultiPolygon","properties":{"ac_no":23,"name":"Bahour","state_code":"S26","ls_parent":"PONDICHERRY"}},{"arcs":[[89,90,91,92]],"type":"Polygon","properties":{"ac_no":24,"name":"Nedungadu (SC)","state_code":"S26","ls_parent":"PONDICHERRY"}},{"arcs":[[93,94,95,-91]],"type":"Polygon","properties":{"ac_no":26,"name":"Karaikal North","state_code":"S26","ls_parent":"PONDICHERRY"}},{"arcs":[[[96]],[[97]],[[-92,-96,98,99,100,101,102,103,104]]],"type":"MultiPolygon","properties":{"ac_no":25,"name":"Thirunallar","state_code":"S26","ls_parent":"PONDICHERRY"}},{"arcs":[[105,106,-99,-95]],"type":"Polygon","properties":{"ac_no":27,"name":"Karaikal South","state_code":"S26","ls_parent":"PONDICHERRY"}},{"arcs":[[[107]],[[-102,108,-104,109],[110],[111],[112],[113],[114],[115]],[[116,-100,-107,117]]],"type":"MultiPolygon","properties":{"ac_no":28,"name":"Neravy- T.R. Pattin","state_code":"S26","ls_parent":"PONDICHERRY"}}]}}}